uid,domainID,siteID,namedLocation,collectDate,parentSampleID,parentSampleCode,isotopePOMRep2SampleCond,isotopePOMRep2SampleID,isotopePOMRep2SampleCode,isotopePOMSampleCond,isotopePOMSampleID,isotopePOMSampleCode,processedDateFilters,sampleVolumeFilteredPOMRep1,sampleVolumeFilteredPOMRep2,fieldDataQF,publicationDate,release
225f20e9-3574-4d1f-bb5c-928ee0a8c8e5,D03,BARC,BARC.AOS.littoral2,2015-06-24T13:15Z,BARC.OT.20150624,,,BARC.OT.20150624.POM.2,,,BARC.OT.20150624.POM.1,,2015-06-24T15:35Z,390,390,,20211222T004622Z,RELEASE-2022
d7cb0d0b-d09e-481a-8f26-f601d93cc24b,D03,BARC,BARC.AOS.buoy.c0,2015-06-24T13:15Z,BARC.C0.20150624,,,BARC.C0.20150624.POM.2,,,BARC.C0.20150624.POM.1,,2015-06-24T16:35Z,430,430,,20211222T004622Z,RELEASE-2022
cfa2f1ad-9945-41c6-a5d4-d2c3eb22521c,D03,BARC,BARC.AOS.littoral1,2015-06-24T13:15Z,BARC.IN.20150624,,,BARC.IN.20150624.POM.2,,,BARC.IN.20150624.POM.1,,2015-06-24T16:10Z,420,420,,20211222T004622Z,RELEASE-2022
d7e39548-d262-4978-8cc7-fb13a41fef3b,D03,BARC,BARC.AOS.littoral2,2015-07-23T15:10Z,BARC.OT.20150723,,,BARC.OT.20150723.POM.2,,,BARC.OT.20150723.POM.1,,2015-07-23T20:20Z,400,400,,20211221T211509Z,RELEASE-2022
9cdc9935-0c49-409f-b001-548ae014da83,D03,BARC,BARC.AOS.littoral1,2015-07-23T15:10Z,BARC.IN.20150723,,,BARC.IN.20150723.POM.2,,,BARC.IN.20150723.POM.1,,2015-07-23T19:40Z,450,450,,20211221T211509Z,RELEASE-2022
273aa4a9-99de-41b6-a6be-365d4b7ee11b,D03,BARC,BARC.AOS.buoy.c0,2015-07-23T15:10Z,BARC.C0.20150723,,,BARC.C0.20150723.POM.2,,,BARC.C0.20150723.POM.1,,2015-07-23T19:00Z,500,500,,20211221T211509Z,RELEASE-2022
faa9a6c1-10bc-4b7f-8e79-36c87dfa5db0,D03,BARC,BARC.AOS.littoral2,2015-08-27T14:35Z,BARC.OT.20150827,,,BARC.OT.20150827.POM.2,,,BARC.OT.20150827.POM.1,,2015-08-27T18:00Z,500,500,,20211222T000202Z,RELEASE-2022
ec693365-2d5b-408b-9817-760f8a05abee,D03,BARC,BARC.AOS.littoral1,2015-08-27T14:35Z,BARC.IN.20150827,,,BARC.IN.20150827.POM.2,,,BARC.IN.20150827.POM.1,,2015-08-27T18:00Z,500,500,,20211222T000202Z,RELEASE-2022
e1c848e1-19bd-42b6-bbf0-572157e80e0d,D03,BARC,BARC.AOS.buoy.c0,2015-08-27T14:35Z,BARC.C0.20150827,,,BARC.C0.20150827.POM.2,,,BARC.C0.20150827.POM.1,,2015-08-27T18:00Z,500,500,,20211222T000202Z,RELEASE-2022
3f12afaa-0aa8-4117-8c64-4672dc768c64,D03,BARC,BARC.AOS.littoral2,2015-10-14T04:00Z,BARC.OT.20151014,,,BARC.OT.20151014.POM.2,,,BARC.OT.20151014.POM.1,,2015-10-14T16:45Z,300,300,,20211222T041513Z,RELEASE-2022
b1bf8cf1-399c-4adb-a3f5-0a0acd550f42,D03,BARC,BARC.AOS.buoy.c0,2015-10-14T04:00Z,BARC.C0.20151014,,,BARC.C0.20151014.POM.2,,,BARC.C0.20151014.POM.1,,2015-10-14T16:45Z,400,400,,20211222T041513Z,RELEASE-2022
122d8016-c458-4988-86d9-2b13bc6fe779,D03,BARC,BARC.AOS.littoral1,2015-10-14T04:00Z,BARC.IN.20151014,,,BARC.IN.20151014.POM.2,,,BARC.IN.20151014.POM.1,,2015-10-14T16:45Z,350,350,,20211222T041513Z,RELEASE-2022
b955bad1-b34a-4714-9caa-d0f1b4092206,D03,BARC,BARC.AOS.littoral2,2015-11-20T15:15Z,BARC.OT.20151120,,,BARC.OT.20151120.POM.2,,,BARC.OT.20151120.POM.1,,2015-11-20T19:30Z,350,350,,20211221T214025Z,RELEASE-2022
908abbc7-f45e-4617-a6c2-94661103672b,D03,BARC,BARC.AOS.littoral1,2015-11-20T15:15Z,BARC.IN.20151120,,,BARC.IN.20151120.POM.2,,,BARC.IN.20151120.POM.1,,2015-11-20T19:30Z,350,350,,20211221T214025Z,RELEASE-2022
fff3ca7e-aef7-453c-b41d-87f4c03f0591,D03,BARC,BARC.AOS.buoy.c0,2015-11-20T15:15Z,BARC.C0.20151120,,,BARC.C0.20151120.POM.2,,,BARC.C0.20151120.POM.1,,2015-11-20T19:30Z,500,500,,20211221T214025Z,RELEASE-2022
3cc46301-1261-4db2-b108-11da4e078240,D03,BARC,BARC.AOS.littoral2,2015-12-28T05:00Z,BARC.OT.20151228,,,BARC.OT.20151228.POM.2,,,BARC.OT.20151228.POM.1,,2015-12-28T23:40Z,200,200,,20211221T232544Z,RELEASE-2022
83961da0-5a14-4a4e-8d7e-de854276993c,D03,BARC,BARC.AOS.littoral1,2015-12-28T05:00Z,BARC.IN.20151228,,,BARC.IN.20151228.POM.2,,,BARC.IN.20151228.POM.1,,2015-12-28T23:10Z,200,200,,20211221T232544Z,RELEASE-2022
0a643eb1-25c2-42f9-b9c5-1eaf6ad4c208,D03,BARC,BARC.AOS.buoy.c0,2015-12-28T05:00Z,BARC.C0.20151228,,,BARC.C0.20151228.POM.2,,,BARC.C0.20151228.POM.1,,2015-12-28T23:05Z,200,200,,20211221T232544Z,RELEASE-2022
f8551542-6869-41eb-a953-a62279b95148,D03,BARC,BARC.AOS.buoy.c0,2016-04-07T14:00Z,BARC.C0.20160407,,,BARC.C0.20160407.POM.2,,,BARC.C0.20160407.POM.1,,2016-04-07T17:45Z,350,350,,20211221T224648Z,RELEASE-2022
1cf45172-c244-497f-9730-e853c90d4e84,D03,BARC,BARC.AOS.littoral1,2016-04-07T15:00Z,BARC.IN.20160407,,,BARC.IN.20160407.POM.2,,,BARC.IN.20160407.POM.1,,2016-04-07T18:15Z,300,300,,20211221T224648Z,RELEASE-2022
ef32f6e5-8671-484b-825f-ba59f3d0b787,D03,BARC,BARC.AOS.littoral2,2016-04-07T15:30Z,BARC.OT.20160407,,,BARC.OT.20160407.POM.2,,,BARC.OT.20160407.POM.1,,2016-04-07T18:45Z,350,350,,20211221T224648Z,RELEASE-2022
173f006a-ac84-4ce4-9c77-725aa63371ef,D03,BARC,BARC.AOS.buoy.c0,2016-05-03T14:00Z,BARC.C0.20160503,,,BARC.C0.20160503.POM.2,,,BARC.C0.20160503.POM.1,,2016-05-03T16:50Z,300,300,,20211222T005511Z,RELEASE-2022
cfdf1ed4-0c93-4465-bb0c-7bb687fc7501,D03,BARC,BARC.AOS.littoral1,2016-05-03T14:25Z,BARC.IN.20160503,,,BARC.IN.20160503.POM.2,,,BARC.IN.20160503.POM.1,,2016-05-03T16:30Z,300,300,,20211222T005511Z,RELEASE-2022
a81b992a-7c1e-4f80-b393-c836f46c8ba0,D03,BARC,BARC.AOS.littoral2,2016-05-03T14:50Z,BARC.OT.20160503,,,BARC.OT.20160503.POM.2,,,BARC.OT.20160503.POM.1,,2016-05-03T17:30Z,300,300,,20211222T005511Z,RELEASE-2022
8cdce219-197d-426b-9356-663347db4f62,D03,BARC,BARC.AOS.buoy.c0,2016-06-14T15:10Z,BARC.C0.20160614,,Sample condition ok,BARC.C0.20160614.POM.2,,Sample condition ok,BARC.C0.20160614.POM.1,,2016-06-14T21:40Z,500,500,,20211221T234046Z,RELEASE-2022
3ceb2afc-66f3-4e20-a8f1-3c747a68cb94,D03,BARC,BARC.AOS.littoral1,2016-06-14T15:30Z,BARC.IN.20160614,,Sample condition ok,BARC.IN.20160614.POM.2,,Sample condition ok,BARC.IN.20160614.POM.1,,2016-06-14T22:00Z,500,500,,20211221T234046Z,RELEASE-2022
1a028247-1f3f-4edf-8514-9acec7716c80,D03,BARC,BARC.AOS.littoral2,2016-06-14T15:50Z,BARC.OT.20160614,,Sample condition ok,BARC.OT.20160614.POM.2,,Sample condition ok,BARC.OT.20160614.POM.1,,2016-06-14T22:30Z,500,500,,20211221T234046Z,RELEASE-2022
b156a636-0d5e-41c5-a9f5-7a106a7414eb,D03,BARC,BARC.AOS.buoy.c0,2016-07-06T13:50Z,BARC.C0.20160706,,,BARC.C0.20160706.POM.2,,,BARC.C0.20160706.POM.1,,2016-07-06T17:40Z,550,550,,20211221T211847Z,RELEASE-2022
301e9599-e2e4-4189-903c-bfbdf6acfe54,D03,BARC,BARC.AOS.littoral1,2016-07-06T14:30Z,BARC.IN.20160706,,,BARC.IN.20160706.POM.2,,,BARC.IN.20160706.POM.1,,2016-07-06T18:10Z,400,400,,20211221T211847Z,RELEASE-2022
427b5310-8600-431e-8694-75bfbe742078,D03,BARC,BARC.AOS.littoral2,2016-07-06T15:10Z,BARC.OT.20160706,,,BARC.OT.20160706.POM.2,,,BARC.OT.20160706.POM.1,,2016-07-06T18:25Z,500,500,,20211221T211847Z,RELEASE-2022
47df4914-6cd5-4b12-b56e-4254bc2f10fb,D03,BARC,BARC.AOS.buoy.c0,2016-08-10T12:50Z,BARC.C0.20160810,,,BARC.C0.20160810.POM.2,,,BARC.C0.20160810.POM.1,,2016-08-10T17:00Z,400,400,,20211222T005000Z,RELEASE-2022
c7cc6a49-eade-477a-9287-a98058cf13f6,D03,BARC,BARC.AOS.littoral1,2016-08-10T13:20Z,BARC.IN.20160810,,,BARC.IN.20160810.POM.2,,,BARC.IN.20160810.POM.1,,2016-08-10T17:25Z,400,400,,20211222T005000Z,RELEASE-2022
0618c939-b068-43bc-adcd-8a06d1a6855b,D03,BARC,BARC.AOS.littoral2,2016-08-10T13:48Z,BARC.OT.20160810,,,BARC.OT.20160810.POM.2,,,BARC.OT.20160810.POM.1,,2016-08-10T17:55Z,300,300,,20211222T005000Z,RELEASE-2022
85b04337-2ef7-4ed4-ad62-8d5a040ae02d,D03,BARC,BARC.AOS.buoy.c0,2016-09-07T14:38Z,BARC.C0.20160907,,,BARC.C0.20160907.POM.2,,,BARC.C0.20160907.POM.1,,2016-09-07T17:30Z,200,200,,20211222T035953Z,RELEASE-2022
b69fc93a-5b49-4a42-8bad-5c8c39ae66ab,D03,BARC,BARC.AOS.littoral1,2016-09-07T15:04Z,BARC.IN.20160907,,,BARC.IN.20160907.POM.2,,,BARC.IN.20160907.POM.1,,2016-09-07T17:43Z,250,250,,20211222T035953Z,RELEASE-2022
8a78e4f4-dfb3-44ed-87b2-5a1075bba37b,D03,BARC,BARC.AOS.littoral2,2016-09-07T15:35Z,BARC.OT.20160907,,,BARC.OT.20160907.POM.2,,,BARC.OT.20160907.POM.1,,2016-09-07T18:07Z,200,200,,20211222T035953Z,RELEASE-2022
f7c45b10-1062-46bf-89e1-8ad0017f9694,D03,BARC,BARC.AOS.buoy.c0,2016-10-12T14:25Z,BARC.C0.20161012,,,BARC.C0.20161012.POM.2,,,BARC.C0.20161012.POM.1,,2016-10-12T17:26Z,300,300,,20211222T025310Z,RELEASE-2022
4303befc-f6d2-4c3f-967a-f8ede1bc774b,D03,BARC,BARC.AOS.littoral1,2016-10-12T14:56Z,BARC.IN.20161012,,,BARC.IN.20161012.POM.2,,,BARC.IN.20161012.POM.1,,2016-10-12T18:00Z,300,300,,20211222T025310Z,RELEASE-2022
356837cf-c39f-4bb3-a44e-4a01a771f976,D03,BARC,BARC.AOS.littoral2,2016-10-12T15:30Z,BARC.OT.20161012,,,BARC.OT.20161012.POM.2,,,BARC.OT.20161012.POM.1,,2016-10-12T18:25Z,350,350,,20211222T025310Z,RELEASE-2022
1e5e6051-ef47-4c84-a0f9-96b12ecb363d,D03,BARC,BARC.AOS.buoy.c0,2016-11-02T15:05Z,BARC.C0.20161102,,,BARC.C0.20161102.POM.2,,,BARC.C0.20161102.POM.1,,2016-11-02T18:38Z,200,200,,20211221T220903Z,RELEASE-2022
f3d87aec-33a3-4227-886a-380a4a6b12ce,D03,BARC,BARC.AOS.littoral1,2016-11-02T15:30Z,BARC.IN.20161102,,,BARC.IN.20161102.POM.2,,,BARC.IN.20161102.POM.1,,2016-11-02T18:50Z,250,250,,20211221T220903Z,RELEASE-2022
8629b1a2-0063-44e9-830f-1eeb2df53a6a,D03,BARC,BARC.AOS.littoral2,2016-11-02T15:58Z,BARC.OT.20161102,,,BARC.OT.20161102.POM.2,,,BARC.OT.20161102.POM.1,,2016-11-02T19:10Z,200,200,,20211221T220903Z,RELEASE-2022
b7458ac8-ae88-455d-94d0-ff35118fbadb,D03,BARC,BARC.AOS.littoral1,2016-12-13T15:29Z,BARC.IN.20161213,,Sample condition ok,BARC.IN.20161213.POM.2,,Sample condition ok,BARC.IN.20161213.POM.1,,2016-12-13T18:40Z,400,400,,20211221T210726Z,RELEASE-2022
745d6af1-28a0-4a06-b069-a1437effc5c9,D03,BARC,BARC.AOS.littoral2,2016-12-13T16:01Z,BARC.OT.20161213,,"",BARC.OT.20161213.POM.2,,"",BARC.OT.20161213.POM.1,,2016-12-13T19:20Z,400,400,,20211221T210726Z,RELEASE-2022
2d151c54-418d-44d8-83ae-3a63795a239e,D03,BARC,BARC.AOS.buoy.c0,2016-12-13T16:41Z,BARC.C0.20161213,,"",BARC.C0.20161213.POM.2,,"",BARC.C0.20161213.POM.1,,2016-12-13T19:51Z,500,500,,20211221T210726Z,RELEASE-2022
4c0eefca-c987-417f-9912-042477bd05ad,D03,BARC,BARC.AOS.buoy.c0,2017-02-01T15:12Z,BARC.C0.20170201,,,BARC.C0.20170201.POM.2,,,BARC.C0.20170201.POM.1,,2017-02-01T18:23Z,550,550,,20211221T224038Z,RELEASE-2022
f8a47239-d311-4ca1-b1f1-7ee076b346ca,D03,BARC,BARC.AOS.littoral1,2017-02-01T15:47Z,BARC.IN.20170201,,,BARC.IN.20170201.POM.2,,,BARC.IN.20170201.POM.1,,2017-02-01T19:15Z,500,500,,20211221T224038Z,RELEASE-2022
b98ae0d2-a3ba-4b78-ab16-a14ab9c7699b,D03,BARC,BARC.AOS.littoral2,2017-02-01T16:20Z,BARC.OT.20170201,,,BARC.OT.20170201.POM.2,,,BARC.OT.20170201.POM.1,,2017-02-01T19:42Z,350,350,,20211221T224038Z,RELEASE-2022
3d68775d-1850-4172-9c75-a91701bf1551,D03,BARC,BARC.AOS.buoy.c0,2017-03-09T15:18Z,BARC.C0.20170309,,,BARC.C0.20170309.POM.2,,,BARC.C0.20170309.POM.1,,2017-03-09T18:00Z,500,500,,20211221T235957Z,RELEASE-2022
ae14f9cc-181d-4362-a54e-7122926f7eab,D03,BARC,BARC.AOS.littoral1,2017-03-09T15:40Z,BARC.IN.20170309,,,BARC.IN.20170309.POM.2,,,BARC.IN.20170309.POM.1,,2017-03-09T18:30Z,350,350,,20211221T235957Z,RELEASE-2022
be20e891-ff64-40a1-b12f-bc911c735302,D03,BARC,BARC.AOS.littoral2,2017-03-09T16:04Z,BARC.OT.20170309,,,BARC.OT.20170309.POM.2,,,BARC.OT.20170309.POM.1,,2017-03-09T18:50Z,300,300,,20211221T235957Z,RELEASE-2022
a5f693c4-df3f-4825-b37e-22f45d4b203c,D03,BARC,BARC.AOS.buoy.c0,2017-04-05T13:53Z,BARC.C0.20170405,,,BARC.C0.20170405.POM.2,,,BARC.C0.20170405.POM.1,,2017-04-05T16:57Z,500,500,,20211222T030732Z,RELEASE-2022
fc34c6a2-6af2-4fe4-9119-27f2b3ef722e,D03,BARC,BARC.AOS.littoral1,2017-04-05T14:29Z,BARC.IN.20170405,,,BARC.IN.20170405.POM.2,,,BARC.IN.20170405.POM.1,,2017-04-05T18:41Z,400,400,,20211222T030732Z,RELEASE-2022
bf987806-212c-4eba-a43d-49db619d1ff7,D03,BARC,BARC.AOS.littoral2,2017-04-05T14:55Z,BARC.OT.20170405,,,BARC.OT.20170405.POM.2,,,BARC.OT.20170405.POM.1,,2017-04-05T18:28Z,300,300,,20211222T030732Z,RELEASE-2022
82c0518a-773e-4e9b-9260-32a3fa52b571,D03,BARC,BARC.AOS.buoy.c0,2017-05-02T13:45Z,BARC.C0.20170502,,Sample condition ok,BARC.C0.20170502.POM.2,,Sample condition ok,BARC.C0.20170502.POM.1,,2017-05-02T16:31Z,500,500,,20211222T000117Z,RELEASE-2022
305a9160-9c8b-4d11-be31-afa19e1cd689,D03,BARC,BARC.AOS.littoral1,2017-05-02T14:02Z,BARC.IN.20170502,,Sample condition ok,BARC.IN.20170502.POM.2,,Sample condition ok,BARC.IN.20170502.POM.1,,2017-05-02T17:01Z,450,450,,20211222T000117Z,RELEASE-2022
0745c658-5cb1-4a51-839a-174c38479814,D03,BARC,BARC.AOS.littoral2,2017-05-02T14:55Z,BARC.OT.20170502,,Sample condition ok,BARC.OT.20170502.POM.2,,Sample condition ok,BARC.OT.20170502.POM.1,,2017-05-02T17:21Z,400,400,,20211222T000117Z,RELEASE-2022
f0a45d6e-60cd-4f9b-b825-14ef62d0ee29,D03,BARC,BARC.AOS.buoy.c0,2017-06-08T14:04Z,BARC.C0.20170608,,Sample condition ok,,,Sample condition ok,BARC.C0.20170608.POM.1,,2017-06-08T17:17Z,300,,,20211222T001334Z,RELEASE-2022
8a1a7be8-58b0-4644-afe3-4cc6c3ace807,D03,BARC,BARC.AOS.littoral1,2017-06-08T14:30Z,BARC.IN.20170608,,Sample condition ok,,,Sample condition ok,BARC.IN.20170608.POM.1,,2017-06-08T17:44Z,250,,,20211222T001334Z,RELEASE-2022
3235dfd2-22e0-43d8-9de6-720405443a10,D03,BARC,BARC.AOS.littoral2,2017-06-08T15:00Z,BARC.OT.20170608,,Sample condition ok,,,Sample condition ok,BARC.OT.20170608.POM.1,,2017-06-08T18:18Z,250,,,20211222T001334Z,RELEASE-2022
721fa2f7-d0bf-4dcc-81ae-5c4b1c6d1a75,D03,BARC,BARC.AOS.buoy.c0,2017-06-27T12:51Z,BARC.C0.20170627,,Sample condition ok,,,Sample condition ok,BARC.C0.20170627.POM.1,,2017-06-27T15:39Z,300,,,20211222T001334Z,RELEASE-2022
e167a960-0e3f-4f33-8a20-bf270c4c2b08,D03,BARC,BARC.AOS.littoral1,2017-06-27T13:17Z,BARC.IN.20170627,,Sample condition ok,,,Sample condition ok,BARC.IN.20170627.POM.1,,"",250,,,20211222T001334Z,RELEASE-2022
e2a27e6d-abc5-46d0-a332-c8db83252db9,D03,BARC,BARC.AOS.littoral2,2017-06-27T13:45Z,BARC.OT.20170627,,Sample condition ok,,,Sample condition ok,BARC.OT.20170627.POM.1,,2017-06-27T16:28Z,250,,,20211222T001334Z,RELEASE-2022
4ae1cbae-ef5a-48a2-9e40-ce09cc10a20b,D03,BARC,BARC.AOS.buoy.c0,2017-08-02T13:04Z,BARC.C0.20170802,,Sample condition ok,,,Sample condition ok,BARC.C0.20170802.POM.1,,2017-08-02T15:28Z,450,,,20211222T023022Z,RELEASE-2022
9f9001b9-d22b-4c19-a506-2533b683b391,D03,BARC,BARC.AOS.littoral1,2017-08-02T13:27Z,BARC.IN.20170802,,Sample condition ok,,,Sample condition ok,BARC.IN.20170802.POM.1,,2017-08-02T15:52Z,300,,,20211222T023022Z,RELEASE-2022
18071d91-9009-4c86-b1f9-a58e66435833,D03,BARC,BARC.AOS.littoral2,2017-08-02T13:50Z,BARC.OT.20170802,,Sample condition ok,,,Sample condition ok,BARC.OT.20170802.POM.1,,2017-08-02T16:16Z,250,,,20211222T023022Z,RELEASE-2022
5753f52d-b935-4fd8-bcbb-9152559d7e66,D03,BARC,BARC.AOS.buoy.c0,2017-09-05T13:30Z,BARC.C0.20170905,,Sample condition ok,,,Sample condition ok,BARC.C0.20170905.POM.1,,2017-09-05T15:48Z,200,,,20211221T212141Z,RELEASE-2022
66cb4d00-cac6-4bc0-a0ab-ec9a2fe498b5,D03,BARC,BARC.AOS.littoral1,2017-09-05T13:45Z,BARC.IN.20170905,,Sample condition ok,,,Sample condition ok,BARC.IN.20170905.POM.1,,2017-09-05T16:09Z,150,,,20211221T212141Z,RELEASE-2022
bef70705-8702-4bca-b735-86d2b4d93673,D03,BARC,BARC.AOS.littoral2,2017-09-05T14:08Z,BARC.OT.20170905,,Sample condition ok,,,Sample condition ok,BARC.OT.20170905.POM.1,,2017-09-05T16:31Z,200,,,20211221T212141Z,RELEASE-2022
5f5ae2b9-1802-424a-913b-bafe7c26e687,D03,BARC,BARC.AOS.buoy.c0,2017-10-10T14:03Z,BARC.C0.20171010,,Sample condition ok,BARC.C0.20171010.POM.2,,Sample condition ok,BARC.C0.20171010.POM.1,,2017-10-10T16:44Z,300,300,,20211221T215527Z,RELEASE-2022
413981c9-edc5-4045-9fe7-524150639e85,D03,BARC,BARC.AOS.littoral1,2017-10-10T14:26Z,BARC.IN.20171010,,Sample condition ok,BARC.IN.20171010.POM.2,,Sample condition ok,BARC.IN.20171010.POM.1,,2017-10-10T17:09Z,250,250,,20211221T215527Z,RELEASE-2022
e7906c4b-25d2-4b56-8697-588a0be653cb,D03,BARC,BARC.AOS.littoral2,2017-10-10T14:54Z,BARC.OT.20171010,,Sample condition ok,BARC.OT.20171010.POM.2,,Sample condition ok,BARC.OT.20171010.POM.1,,2017-10-10T17:44Z,250,250,,20211221T215527Z,RELEASE-2022
3f68038a-555c-442a-909c-7b0ca7171e09,D03,BARC,BARC.AOS.buoy.c0,2017-11-07T16:05Z,BARC.C0.20171107,,Sample condition ok,BARC.C0.20171107.POM.2,,Sample condition ok,BARC.C0.20171107.POM.1,,2017-11-07T18:09Z,400,400,,20211221T231319Z,RELEASE-2022
1b4104f7-8ea6-4b45-b3df-2317154d4fe6,D03,BARC,BARC.AOS.littoral1,2017-11-07T16:39Z,BARC.IN.20171107,,Sample condition ok,BARC.IN.20171107.POM.2,,Sample condition ok,BARC.IN.20171107.POM.1,,2017-11-07T18:45Z,300,300,,20211221T231319Z,RELEASE-2022
f85ff8fd-ba9f-4f25-9ab7-805a07c196ef,D03,BARC,BARC.AOS.littoral2,2017-11-07T16:57Z,BARC.OT.20171107,,Sample condition ok,BARC.OT.20171107.POM.2,,Sample condition ok,BARC.OT.20171107.POM.1,,2017-11-07T19:00Z,250,250,,20211221T231319Z,RELEASE-2022
51cf24d1-bacc-49ab-9b90-cbaef90aea25,D03,BARC,BARC.AOS.buoy.c0,2017-12-05T15:57Z,BARC.C0.20171205,,Sample condition ok,BARC.C0.20171205.POM.2,,Sample condition ok,BARC.C0.20171205.POM.1,,2017-12-05T17:52Z,400,400,,20211222T023237Z,RELEASE-2022
df023569-4443-4140-8138-f5033edd416f,D03,BARC,BARC.AOS.littoral1,2017-12-05T16:14Z,BARC.IN.20171205,,Sample condition ok,BARC.IN.20171205.POM.2,,Sample condition ok,BARC.IN.20171205.POM.1,,2017-12-05T18:39Z,400,400,,20211222T023237Z,RELEASE-2022
d49c6f3e-a47b-45dc-875a-420a776f6056,D03,BARC,BARC.AOS.littoral2,2017-12-05T16:38Z,BARC.OT.20171205,,Sample condition ok,BARC.OT.20171205.POM.2,,Sample condition ok,BARC.OT.20171205.POM.1,,2017-12-05T19:10Z,300,300,,20211222T023237Z,RELEASE-2022
150d593d-017b-42f9-879e-b5917a6e12ca,D03,BARC,BARC.AOS.buoy.c0,2018-01-04T15:55Z,BARC.C0.20180104,,Sample condition ok,BARC.C0.20180104.POM.2,,Sample condition ok,BARC.C0.20180104.POM.1,,2018-01-04T17:25Z,400,400,,20211222T043059Z,RELEASE-2022
9dab9a13-e04b-45c3-843f-103be58311c3,D03,BARC,BARC.AOS.buoy.c0,2018-02-06T15:45Z,BARC.C0.20180206,,Sample condition ok,BARC.C0.20180206.POM.2,,Sample condition ok,BARC.C0.20180206.POM.1,,2018-02-06T17:05Z,400,400,,20211222T042649Z,RELEASE-2022
0ea2e1b3-17a9-4e9b-933b-795143959ffa,D03,BARC,BARC.AOS.buoy.c0,2018-03-05T15:46Z,BARC.C0.20180305,,Sample condition ok,BARC.C0.20180305.POM.2,,Sample condition ok,BARC.C0.20180305.POM.1,,2018-03-05T18:24Z,150,150,,20211221T232507Z,RELEASE-2022
f3307f9b-0d47-457a-9511-be6638b50ab9,D03,BARC,BARC.AOS.buoy.c0,2018-04-02T15:13Z,BARC.C0.20180402,,Sample condition ok,BARC.C0.20180402.POM.2,"",Sample condition ok,BARC.C0.20180402.POM.1,"",2018-04-02T18:30Z,400,400,,20211222T011726Z,RELEASE-2022
578f284a-3076-43b7-855e-274675229460,D03,BARC,BARC.AOS.buoy.c0,2018-04-30T16:07Z,BARC.C0.20180430,,Sample condition ok,BARC.C0.20180430.POM.2,A00000003848,Sample condition ok,BARC.C0.20180430.POM.1,A00000003847,2018-04-30T16:07Z,300,300,,20211222T011726Z,RELEASE-2022
9643e10b-0fe4-44c0-a1bb-9cc3ede3e31c,D03,BARC,BARC.AOS.buoy.c0,2018-06-05T17:08Z,BARC.C0.20180605,,"","","","","","","",,,,20211221T233247Z,RELEASE-2022
54ea02c1-bb81-4c59-9ee1-4c9062f8d1ff,D03,BARC,BARC.AOS.buoy.c0,2018-06-05T17:08Z,BARC.C0.20180605,,"","","","","","","",,,,20211221T233247Z,RELEASE-2022
06b7e212-6218-4815-8d75-9de81af785c8,D03,BARC,BARC.AOS.buoy.c0,2018-06-05T17:08Z,BARC.C0.20180605,,Sample condition ok,BARC.C0.20180605.POM.2,A00000003749,Sample condition ok,BARC.C0.20180605.POM.1,A00000003748,2018-06-05T18:40Z,300,300,,20211221T233247Z,RELEASE-2022
da35fbae-60ce-475b-b985-d5794ca527e0,D03,BARC,BARC.AOS.buoy.c0,2018-07-10T03:27Z,BARC.C0.20180709,,Sample condition ok,BARC.C0.20180709.POM.2,A00000003600,Sample condition ok,BARC.C0.20180709.POM.1,A00000003599,2018-07-09T17:23Z,300,300,,20211222T022110Z,RELEASE-2022
38dec214-55f0-43ee-b193-4b887c6a0c13,D03,BARC,BARC.AOS.buoy.c0,2018-07-31T14:30Z,BARC.C0.20180731,,"","","","","","","",,,,20211222T022110Z,RELEASE-2022
1bf4dad3-7f16-445f-aaf7-dfed874c7574,D03,BARC,BARC.AOS.buoy.c0,2018-07-31T14:30Z,BARC.C0.20180731,,"","","","","","","",,,,20211222T022110Z,RELEASE-2022
b96f5d9a-607e-40f1-b4a4-fd98ec7e6aca,D03,BARC,BARC.AOS.buoy.c0,2018-07-31T14:30Z,BARC.C0.20180731,,Sample condition ok,BARC.C0.20180731.POM.2,A00000003543,Sample condition ok,BARC.C0.20180731.POM.1,A00000003542,2018-07-31T16:05Z,200,200,,20211222T022110Z,RELEASE-2022
3d15f878-7902-4945-b06a-7284bf24d385,D03,BARC,BARC.AOS.buoy.c0,2018-09-05T14:27Z,BARC.C0.20180905,,"","","","","","","",,,,20211221T225825Z,RELEASE-2022
882dd2d6-c522-4f63-a066-b83ad572124a,D03,BARC,BARC.AOS.buoy.c0,2018-09-05T14:27Z,BARC.C0.20180905,,"","","","","","","",,,,20211221T225825Z,RELEASE-2022
f6e33ba3-72c3-4192-9455-a592d28d5aec,D03,BARC,BARC.AOS.buoy.c0,2018-09-05T14:27Z,BARC.C0.20180905,,Sample condition ok,BARC.C0.20180905.POM.2,A00000005357,Sample condition ok,BARC.C0.20180905.POM.1,A00000005356,2018-09-05T14:57Z,300,300,,20211221T225825Z,RELEASE-2022
5fde237b-7947-442b-a056-eb95d87f4b02,D03,BARC,BARC.AOS.buoy.c0,2018-10-01T15:29Z,BARC.C0.20181001,,Sample condition ok,BARC.C0.20181001.POM.2,A00000003586,Sample condition ok,BARC.C0.20181001.POM.1,A00000003567,2018-10-01T19:56Z,300,200,,20211222T042413Z,RELEASE-2022
921bb200-4919-4945-a72f-17b34c981f27,D03,BARC,BARC.AOS.buoy.c0,2018-11-05T16:12Z,BARC.C0.20181105,,Sample condition ok,BARC.C0.20181105.POM.2,A00000036777,Sample condition ok,BARC.C0.20181105.POM.1,A00000036776,2018-11-05T18:55Z,250,250,,20211221T203130Z,RELEASE-2022
12599800-87c1-4250-a1ad-3bb2a97442d3,D03,BARC,BARC.AOS.buoy.c0,2018-12-03T17:33Z,BARC.C0.20181203,,Sample condition ok,BARC.C0.20181203.POM.2,A00000037286,Sample condition ok,BARC.C0.20181203.POM.1,A00000037285,2018-12-03T21:15Z,300,300,,20211222T011212Z,RELEASE-2022
5f1ee378-8195-4b26-a28d-78f6580682fd,D03,BARC,BARC.AOS.buoy.c0,2019-01-07T19:20Z,BARC.C0.20190107,,Sample condition ok,BARC.C0.20190107.POM.2,A00000037298,Sample condition ok,BARC.C0.20190107.POM.1,A00000037333,2019-01-07T20:53Z,200,200,,20211222T020825Z,RELEASE-2022
69ff4ba9-7a67-4597-a996-310504ded6f0,D03,BARC,BARC.AOS.buoy.c0,2019-02-05T16:57Z,BARC.C0.20190205,,Sample condition ok,BARC.C0.20190205.POM.2,A00000037153,Sample condition ok,BARC.C0.20190205.POM.1,A00000037152,2019-02-05T18:00Z,300,300,,20211222T013120Z,RELEASE-2022
38d0f81f-97bf-43d3-aa80-4062d79b77fb,D03,BARC,BARC.AOS.buoy.c0,2019-03-05T16:11Z,BARC.C0.20190305,,Sample condition ok,BARC.C0.20190305.POM.2,A00000037188,Sample condition ok,BARC.C0.20190305.POM.1,A00000037187,2019-03-05T17:24Z,300,200,,20211221T230132Z,RELEASE-2022
9486a9aa-6091-4be2-9fe5-8da5ca561256,D03,BARC,BARC.AOS.buoy.c0,2019-04-11T14:42Z,BARC.C0.20190411,,Sample condition ok,BARC.C0.20190411.POM.2,A00000037469,Sample condition ok,BARC.C0.20190411.POM.1,A00000037468,,200,200,,20211222T003528Z,RELEASE-2022
df5c4846-7560-44c5-b3cc-c834b1bb5a80,D03,BARC,BARC.AOS.buoy.c0,2019-05-08T14:32Z,BARC.C0.20190508,,Sample condition ok,BARC.C0.20190508.POM.2,A00000037496,Sample condition ok,BARC.C0.20190508.POM.1,A00000037495,2019-05-08T15:36Z,300,300,,20211222T014541Z,RELEASE-2022
b110e435-967d-4dde-ad1c-0359aea4980e,D03,BARC,BARC.AOS.buoy.c0,2019-06-11T14:56Z,BARC.C0.20190611,,Sample condition ok,BARC.C0.20190611.POM.2,A00000073428,Sample condition ok,BARC.C0.20190611.POM.1,A00000073427,2019-06-11T17:15Z,300,300,,20211221T194436Z,RELEASE-2022
a6587040-a44d-4222-9789-7a8021afc5b0,D03,BARC,BARC.AOS.buoy.c0,2019-07-08T14:02Z,BARC.C0.20190708,,Sample condition ok,BARC.C0.20190708.POM.2,A00000037796,Sample condition ok,BARC.C0.20190708.POM.1,A00000037795,2019-07-08T16:34Z,300,300,,20211221T234754Z,RELEASE-2022
1c52b3cd-07ac-4408-ad5d-af3c297596b6,D03,BARC,BARC.AOS.buoy.c0,2019-08-13T16:46Z,BARC.C0.20190813,,Sample condition ok,BARC.C0.20190813.POM.2,A00000075596,Sample condition ok,BARC.C0.20190813.POM.1,A00000075595,,300,300,,20211221T225922Z,RELEASE-2022
cf9c9016-abcf-4c40-935e-753f6c043c24,D03,BARC,BARC.AOS.buoy.c0,2019-09-10T12:45Z,BARC.C0.20190910,,Sample condition ok,BARC.C0.20190910.POM.2,A00000075623,Sample condition ok,BARC.C0.20190910.POM.1,A00000075622,2019-09-10T14:15Z,300,300,,20211221T232610Z,RELEASE-2022
c611a779-a3aa-4317-b1a2-d1fa9fb6e8c2,D03,BARC,BARC.AOS.buoy.c0,2019-10-01T14:30Z,BARC.C0.20191001,,Sample condition ok,BARC.C0.20191001.POM.2,A00000075680,Sample condition ok,BARC.C0.20191001.POM.1,A00000075679,2019-10-01T17:40Z,225,225,,20211222T022221Z,RELEASE-2022
5dd46e62-15db-4c0e-9692-e9f8fd03b420,D03,BARC,BARC.AOS.buoy.c0,2019-11-04T15:00Z,BARC.C0.20191104,,Sample condition ok,BARC.C0.20191104.POM.2,A00000128921,Sample condition ok,BARC.C0.20191104.POM.1,A00000128920,2019-11-04T15:00Z,300,300,,20211221T195154Z,RELEASE-2022
15da60e9-3cd5-4c6b-86df-49c5da3d54ce,D03,BARC,BARC.AOS.buoy.c0,2019-12-09T13:30Z,BARC.C0.20191209,,Sample condition ok,BARC.C0.20191209.POM.2,A00000129005,Sample condition ok,BARC.C0.20191209.POM.1,A00000129004,2019-12-09T13:30Z,400,400,,20211221T212120Z,RELEASE-2022
ab5429dd-09fb-42b2-b814-1f0cb0073d4f,D03,BARC,BARC.AOS.buoy.c0,2020-01-07T14:01Z,BARC.C0.20200107,,Sample condition ok,BARC.C0.20200107.POM.2,A00000129017,Sample condition ok,BARC.C0.20200107.POM.1,A00000129016,2020-01-07T16:08Z,300,300,,20211221T195249Z,PROVISIONAL
a1cf6a42-d8c3-4d5a-ad3e-392077aedc59,D03,BARC,BARC.AOS.buoy.c0,2020-02-04T14:49Z,BARC.C0.20200204,,Sample condition ok,BARC.C0.20200204.POM.2,A00000075493,Sample condition ok,BARC.C0.20200204.POM.1,A00000075492,2020-02-04T16:36Z,300,300,,20211221T201345Z,PROVISIONAL
a336200e-ecc1-4917-9282-dc8e25188595,D03,BARC,BARC.AOS.buoy.c0,2020-03-03T14:30Z,BARC.C0.20200303,,Sample condition ok,BARC.C0.20200303.POM.2,A00000129901,Sample condition ok,BARC.C0.20200303.POM.1,A00000129900,2020-03-03T17:03Z,300,300,,20211222T013202Z,PROVISIONAL
b0705787-66c8-4f21-a578-834897ffb00a,D03,BARC,BARC.AOS.buoy.c0,2020-06-16T13:18Z,BARC.C0.20200616,,Sample condition ok,BARC.C0.20200616.POM.2,A00000129954,Sample condition ok,BARC.C0.20200616.POM.1,A00000129958,2020-06-16T15:47Z,200,200,,20211222T005351Z,PROVISIONAL
70b711a5-3dcc-4da4-8bce-de99a8078e46,D03,BARC,BARC.AOS.buoy.c0,2020-07-07T13:47Z,BARC.C0.20200707,,Sample condition ok,BARC.C0.20200707.POM.2,A00000131387,Sample condition ok,BARC.C0.20200707.POM.1,A00000131386,2020-07-07T13:47Z,200,200,,20211221T225932Z,PROVISIONAL
679b3e37-51c8-4acc-9092-cfe11f49eecf,D03,BARC,BARC.AOS.buoy.c0,2020-10-13T12:34Z,BARC.C0.20201013,,Sample condition ok,BARC.C0.20201013.POM.2,A00000131662,Sample condition ok,BARC.C0.20201013.POM.1,A00000131661,2020-10-13T12:34Z,300,300,,20211222T040111Z,PROVISIONAL
ff664377-5e7c-45e3-9159-e1a84f7cbce7,D03,BARC,BARC.AOS.buoy.c0,2020-11-03T14:55Z,BARC.C0.20201103,,Sample condition ok,BARC.C0.20201103.POM.2,A00000132058,Sample condition ok,BARC.C0.20201103.POM.1,A00000132057,2020-11-03T14:55Z,300,300,,20211221T235133Z,PROVISIONAL
4026b401-ca58-4958-b5ab-806f78d73289,D03,BARC,BARC.AOS.buoy.c0,2020-12-01T13:35Z,BARC.C0.20201201,,Sample condition ok,BARC.C0.20201201.POM.2,A00000132130,Sample condition ok,BARC.C0.20201201.POM.1,A00000132129,,300,300,,20211222T040917Z,PROVISIONAL
c09b0182-a55d-4f0a-854d-f3d9b39f410f,D03,BARC,BARC.AOS.buoy.c0,2021-01-05T15:07Z,BARC.C0.20210105,,Sample condition ok,BARC.C0.20210105.POM.2,A00000132142,Sample condition ok,BARC.C0.20210105.POM.1,A00000132141,2021-01-05T16:58Z,300,300,,20211221T232505Z,PROVISIONAL
4d48ce9a-7c3c-4e8d-bcea-503ca8dcebc6,D03,BARC,BARC.AOS.buoy.c0,2021-01-26T13:58Z,BARC.C0.20210126,,Sample condition ok,BARC.C0.20210126.POM.2,A00000036497,Sample condition ok,BARC.C0.20210126.POM.1,A00000036514,2021-01-26T13:58Z,300,300,,20211221T232505Z,PROVISIONAL
737c6b0d-4622-42b3-b22a-ed54a9f2b1af,D03,BARC,BARC.AOS.buoy.c0,2021-03-09T13:45Z,BARC.C0.20210309,,Sample condition ok,BARC.C0.20210309.POM.2,A00000132583,Sample condition ok,BARC.C0.20210309.POM.1,A00000132584,2021-03-09T16:05Z,300,300,,20211222T022137Z,PROVISIONAL
7a63123c-7fb6-43cc-a648-2bcbe665cfc8,D03,BARC,BARC.AOS.buoy.c0,2021-04-07T14:55Z,BARC.C0.20210407,,Sample condition ok,BARC.C0.20210407.POM.2,A00000132625,Sample condition ok,BARC.C0.20210407.POM.1,A00000132626,2021-04-07T17:50Z,300,300,,20211221T234101Z,PROVISIONAL
4470c1ff-269d-41dd-9c63-29ce7ace199f,D03,BARC,BARC.AOS.buoy.c0,2021-05-04T12:45Z,BARC.C0.20210504,,Sample condition ok,BARC.C0.20210504.POM.2,A00000132785,Sample condition ok,BARC.C0.20210504.POM.1,A00000132784,2021-05-04T15:39Z,300,300,,20211221T223033Z,PROVISIONAL
5b0eee71-29e6-4765-bca6-1ba40513f204,D03,BARC,BARC.AOS.buoy.c0,2021-06-07T15:01Z,BARC.C0.20210607,,"","","","","","","",,,,20211222T032613Z,PROVISIONAL
ebabdd43-4fc4-4f2b-bb60-f3c8d78b7dc7,D03,BARC,BARC.AOS.buoy.c0,2021-06-07T15:01Z,BARC.C0.20210607,,Sample condition ok,BARC.C0.20210607.POM.2,A00000132807,Sample condition ok,BARC.C0.20210607.POM.1,A00000132806,2021-06-07T18:27Z,300,300,,20211222T032613Z,PROVISIONAL
a1d26bec-6219-44a6-8aa7-790d482c49aa,D03,BARC,BARC.AOS.buoy.c0,2021-06-07T15:01Z,BARC.C0.20210607,,"","","","","","","",,,,20211222T032613Z,PROVISIONAL
f9dd0213-472a-4987-a0cb-c374653110a6,D03,BARC,BARC.AOS.buoy.c0,2021-07-12T14:22Z,BARC.C0.20210712,,Sample condition ok,BARC.C0.20210712.POM.2,A00000132750,Sample condition ok,BARC.C0.20210712.POM.1,A00000132749,2021-07-12T14:22Z,300,300,,20220125T175457Z,PROVISIONAL
afe96c10-fb71-457f-9309-2e940bd9cd12,D03,BARC,BARC.AOS.buoy.c0,2021-08-10T14:36Z,BARC.C0.20210810,,Sample condition ok,BARC.C0.20210810.POM.2,A00000132852,Sample condition ok,BARC.C0.20210810.POM.1,A00000132851,2021-08-10T16:45Z,,,,20220125T180508Z,PROVISIONAL
8f3025c7-349a-4468-a592-0a72b3437b33,D03,BARC,BARC.AOS.buoy.c0,2021-09-07T14:46Z,BARC.C0.20210907,,Sample condition ok,BARC.C0.20210907.POM.2,A00000132884,Sample condition ok,BARC.C0.20210907.POM.1,A00000132883,,300,300,,20211221T225419Z,PROVISIONAL
0f66ba39-8051-49c1-a88b-2859a2d8b5b1,D03,BARC,BARC.AOS.buoy.c0,2021-10-05T12:54Z,BARC.C0.20211005,,Sample condition ok,BARC.C0.20211005.POM.2,A00000132908,Sample condition ok,BARC.C0.20211005.POM.1,A00000132909,,300,300,,20220112T212309Z,PROVISIONAL
0df6f18b-7a9b-48ff-8923-d396514c9e03,D03,SUGG,SUGG.AOS.littoral2,2015-06-23T14:31Z,SUGG.OT.20150623,,,SUGG.OT.20150623.POM.2,,,SUGG.OT.20150623.POM.1,,2015-06-23T20:50Z,40,40,,20211221T200707Z,RELEASE-2022
31745ba3-3a39-4552-8947-49da69ec5aee,D03,SUGG,SUGG.AOS.buoy.c0,2015-06-23T14:31Z,SUGG.C0.20150623,,,SUGG.C0.20150623.POM.2,,,SUGG.C0.20150623.POM.1,,2015-06-23T21:30Z,40,40,,20211221T200707Z,RELEASE-2022
bcd30e8b-5581-448f-b2b2-3801ce5e2307,D03,SUGG,SUGG.AOS.littoral1,2015-06-23T14:31Z,SUGG.IN.20150623,,,SUGG.IN.20150623.POM.2,,,SUGG.IN.20150623.POM.1,,2015-06-23T20:20Z,120,120,,20211221T200707Z,RELEASE-2022
64d89836-28e2-4a4a-9874-016079e60af3,D03,SUGG,SUGG.AOS.buoy.c0,2015-07-23T13:20Z,SUGG.C0.20150723,,,SUGG.C0.20150723.POM.2,,,SUGG.C0.20150723.POM.1,,2015-07-23T18:00Z,60,75,,20211222T010505Z,RELEASE-2022
7aa67fbe-153d-4308-85e7-12a08fd884a6,D03,SUGG,SUGG.AOS.littoral2,2015-07-23T13:20Z,SUGG.OT.20150723,,,SUGG.OT.20150723.POM.2,,,SUGG.OT.20150723.POM.1,,2015-07-23T18:30Z,75,75,,20211222T010505Z,RELEASE-2022
bcec789d-2ee8-4034-b1a3-ac5a22b7819c,D03,SUGG,SUGG.AOS.littoral1,2015-07-23T13:20Z,SUGG.IN.20150723,,,SUGG.IN.20150723.POM.2,,,SUGG.IN.20150723.POM.1,,2015-07-23T18:20Z,200,200,,20211222T010505Z,RELEASE-2022
0b9fc2dd-a424-4d44-8b31-f634ac441e19,D03,SUGG,SUGG.AOS.littoral2,2015-08-26T13:00Z,SUGG.OT.20150826,,,SUGG.OT.20150826.POM.2,,,SUGG.OT.20150826.POM.1,,2015-08-26T17:00Z,70,70,,20211221T233616Z,RELEASE-2022
b7cb147f-1135-49de-8c87-ac59946a5a79,D03,SUGG,SUGG.AOS.buoy.c0,2015-08-26T13:00Z,SUGG.C0.20150826,,,SUGG.C0.20150826.POM.2,,,SUGG.C0.20150826.POM.1,,2015-08-26T17:00Z,100,100,,20211221T233616Z,RELEASE-2022
db645618-839b-46e4-814b-5fc9222282de,D03,SUGG,SUGG.AOS.littoral1,2015-08-26T13:00Z,SUGG.IN.20150826,,,SUGG.IN.20150826.POM.2,,,SUGG.IN.20150826.POM.1,,2015-08-26T17:00Z,150,150,,20211221T233616Z,RELEASE-2022
c90b067a-d23e-4142-91ab-c5bff5ac1aa5,D03,SUGG,SUGG.AOS.littoral1,2015-10-21T14:00Z,SUGG.IN.20151021,,,SUGG.IN.20151021.POM.2,,,SUGG.IN.20151021.POM.1,,2015-10-21T16:00Z,200,200,,20211222T033407Z,RELEASE-2022
c8b4a9e1-a85c-4a6e-8edb-4a54fdf50501,D03,SUGG,SUGG.AOS.littoral2,2015-10-21T14:00Z,SUGG.OT.20151021,,,SUGG.OT.20151021.POM.2,,,SUGG.OT.20151021.POM.1,,2015-10-21T16:00Z,200,200,,20211222T033407Z,RELEASE-2022
19bc484f-024f-4826-92f7-36484480b40b,D03,SUGG,SUGG.AOS.buoy.c0,2015-10-21T14:00Z,SUGG.C0.20151021,,,SUGG.C0.20151021.POM.2,,,SUGG.C0.20151021.POM.1,,2015-10-21T16:00Z,175,175,,20211222T033407Z,RELEASE-2022
658ecaa8-79f9-4174-9991-42e1fd38fa2d,D03,SUGG,SUGG.AOS.littoral1,2015-11-10T15:00Z,SUGG.IN.20151110,,,SUGG.IN.20151110.POM.2,,,SUGG.IN.20151110.POM.1,,2015-11-10T17:00Z,200,200,,20211222T042016Z,RELEASE-2022
e948d53b-076c-42dd-8def-c8f3896ac4c0,D03,SUGG,SUGG.AOS.littoral2,2015-11-10T15:00Z,SUGG.OT.20151110,,,SUGG.OT.20151110.POM.2,,,SUGG.OT.20151110.POM.1,,2015-11-10T17:00Z,200,200,,20211222T042016Z,RELEASE-2022
824d2c8e-6636-4b89-bcd9-4be1eb8b40bb,D03,SUGG,SUGG.AOS.buoy.c0,2015-11-10T15:00Z,SUGG.C0.20151110,,,SUGG.C0.20151110.POM.2,,,SUGG.C0.20151110.POM.1,,2015-11-10T17:00Z,200,200,,20211222T042016Z,RELEASE-2022
3ef54062-8eff-4f0c-b69d-44422dfbfd37,D03,SUGG,SUGG.AOS.littoral1,2015-12-28T17:10Z,SUGG.IN.20151228,,,SUGG.IN.20151228.POM.2,,,SUGG.IN.20151228.POM.1,,2015-12-28T22:45Z,150,150,,20211221T194517Z,RELEASE-2022
56fb730c-8770-42c6-94a0-e7d5db3a84b2,D03,SUGG,SUGG.AOS.buoy.c0,2015-12-28T17:10Z,SUGG.C0.20151228,,,SUGG.C0.20151228.POM.2,,,SUGG.C0.20151228.POM.1,,2015-12-28T22:30Z,150,150,,20211221T194517Z,RELEASE-2022
032810fb-0c83-4fb0-b037-568f6dc65681,D03,SUGG,SUGG.AOS.littoral2,2015-12-28T17:10Z,SUGG.OT.20151228,,,SUGG.OT.20151228.POM.2,,,SUGG.OT.20151228.POM.1,,2015-12-28T21:00Z,150,150,,20211221T194517Z,RELEASE-2022
f542129f-1685-4e3d-beb4-77df9fb33ed3,D03,SUGG,SUGG.AOS.littoral2,2016-04-13T16:15Z,SUGG.OT.20160413,,"",SUGG.OT.20160413.POM.2,,"",SUGG.OT.20160413.POM.1,,2016-04-13T18:15Z,200,200,,20211221T232632Z,RELEASE-2022
21313c07-e3e2-439b-96e6-83b87dc84ea7,D03,SUGG,SUGG.AOS.buoy.c0,2016-04-13T16:15Z,SUGG.C0.20160413,,Sample condition ok,SUGG.C0.20160413.POM.2,,Sample condition ok,SUGG.C0.20160413.POM.1,,2016-04-13T17:00Z,250,250,,20211221T232632Z,RELEASE-2022
9663ee81-1099-4c09-bf9c-f60ed3f9ecc3,D03,SUGG,SUGG.AOS.littoral1,2016-04-13T16:15Z,SUGG.IN.20160413,,"",SUGG.IN.20160413.POM.2,,"",SUGG.IN.20160413.POM.1,,2016-04-13T17:42Z,250,250,,20211221T232632Z,RELEASE-2022
27389d92-067c-4a53-95b5-a4f374845c46,D03,SUGG,SUGG.AOS.littoral1,2016-06-14T13:25Z,SUGG.IN.20160614,,Sample condition ok,SUGG.IN.20160614.POM.2,,Sample condition ok,SUGG.IN.20160614.POM.1,,2016-06-14T19:15Z,350,325,,20211221T212024Z,RELEASE-2022
c8f5c5f3-b9be-46ba-b21a-3b8047d4d0f4,D03,SUGG,SUGG.AOS.littoral2,2016-06-14T13:45Z,SUGG.OT.20160614,,"",SUGG.OT.20160614.POM.2,,"",SUGG.OT.20160614.POM.1,,2016-06-14T20:07Z,350,350,,20211221T212024Z,RELEASE-2022
85587419-1d5e-4843-94a2-684f9a897c2e,D03,SUGG,SUGG.AOS.buoy.c0,2016-06-14T14:00Z,SUGG.C0.20160614,,"",SUGG.C0.20160614.POM.2,,"",SUGG.C0.20160614.POM.1,,2016-06-14T21:05Z,200,200,,20211221T212024Z,RELEASE-2022
ddc98aad-dfa4-4964-96b5-e807bc9f92cc,D03,SUGG,SUGG.AOS.buoy.c0,2016-07-05T12:55Z,SUGG.C0.20160705,,,SUGG.C0.20160705.POM.2,,,SUGG.C0.20160705.POM.1,,2016-07-05T17:50Z,300,300,,20211221T235946Z,RELEASE-2022
acb64d2d-7fb0-4946-afc7-6bb2dd32a44c,D03,SUGG,SUGG.AOS.littoral2,2016-07-05T13:30Z,SUGG.OT.20160705,,,SUGG.OT.20160705.POM.2,,,SUGG.OT.20160705.POM.1,,2016-07-05T18:10Z,300,300,,20211221T235946Z,RELEASE-2022
e89a543a-5bd1-428f-ab01-812c1470d4d3,D03,SUGG,SUGG.AOS.littoral1,2016-07-05T14:00Z,SUGG.IN.20160705,,,SUGG.IN.20160705.POM.2,,,SUGG.IN.20160705.POM.1,,2016-07-05T18:30Z,250,250,,20211221T235946Z,RELEASE-2022
e8bf2d70-bfcc-4625-8ffb-d2d434c8d767,D03,SUGG,SUGG.AOS.buoy.c0,2016-08-09T13:30Z,SUGG.C0.20160809,,,SUGG.C0.20160809.POM.2,,,SUGG.C0.20160809.POM.1,,2016-08-09T18:20Z,500,500,,20211221T210858Z,RELEASE-2022
4e54fe85-7f50-4344-9ef7-1c29f3d28f83,D03,SUGG,SUGG.AOS.littoral1,2016-08-09T14:30Z,SUGG.IN.20160809,,,SUGG.IN.20160809.POM.2,,,SUGG.IN.20160809.POM.1,,2016-08-09T18:50Z,300,300,,20211221T210858Z,RELEASE-2022
c95d9981-cafd-4bb0-8778-a0cd25edae9b,D03,SUGG,SUGG.AOS.littoral2,2016-08-09T15:02Z,SUGG.OT.20160809,,,SUGG.OT.20160809.POM.2,,,SUGG.OT.20160809.POM.1,,2016-08-09T19:20Z,350,350,,20211221T210858Z,RELEASE-2022
b9b474b8-39cd-4acf-ba2b-f29740458bf0,D03,SUGG,SUGG.AOS.buoy.c0,2016-09-06T14:07Z,SUGG.C0.20160906,,,SUGG.C0.20160906.POM.2,,,SUGG.C0.20160906.POM.1,,2016-09-06T16:50Z,450,450,,20211222T043624Z,RELEASE-2022
ba7ffea5-16cc-44fa-885a-69a563e7b19d,D03,SUGG,SUGG.AOS.littoral2,2016-09-06T14:27Z,SUGG.OT.20160906,,,SUGG.OT.20160906.POM.2,,,SUGG.OT.20160906.POM.1,,2016-09-06T17:15Z,300,300,,20211222T043624Z,RELEASE-2022
d2ea4730-eb3c-47d4-a786-bc149a3635c7,D03,SUGG,SUGG.AOS.littoral1,2016-09-06T14:50Z,SUGG.IN.20160906,,,SUGG.IN.20160906.POM.2,,,SUGG.IN.20160906.POM.1,,2016-09-06T17:35Z,350,350,,20211222T043624Z,RELEASE-2022
07ba7bfa-b15b-4a29-9174-c0e9acb40d5c,D03,SUGG,SUGG.AOS.buoy.c0,2016-10-11T14:22Z,SUGG.C0.20161011,,"",SUGG.C0.20161011.POM.2,,"",SUGG.C0.20161011.POM.1,,2016-10-11T17:05Z,300,300,,20211221T205722Z,RELEASE-2022
37b8b1ff-b534-491c-b1c0-5ea76b5d541c,D03,SUGG,SUGG.AOS.littoral1,2016-10-11T14:52Z,SUGG.IN.20161011,,"",SUGG.IN.20161011.POM.2,,"",SUGG.IN.20161011.POM.1,,2016-10-11T17:35Z,200,200,,20211221T205722Z,RELEASE-2022
2abec34d-e43a-41ba-bf84-b81557d469e4,D03,SUGG,SUGG.AOS.littoral2,2016-10-11T15:30Z,SUGG.OT.20161011,,"",SUGG.OT.20161011.POM.2,,"",SUGG.OT.20161011.POM.1,,2016-10-11T18:20Z,200,200,,20211221T205722Z,RELEASE-2022
4db71823-2422-42f2-afdf-15206a81ebe3,D03,SUGG,SUGG.AOS.buoy.c0,2016-10-31T13:30Z,SUGG.C0.20161031,,"",SUGG.C0.20161031.POM.2,,"",SUGG.C0.20161031.POM.1,,2016-10-31T17:39Z,350,350,,20211221T205722Z,RELEASE-2022
21a7f2bb-e7ea-4b69-90eb-dc297bf038b1,D03,SUGG,SUGG.AOS.littoral1,2016-10-31T14:05Z,SUGG.IN.20161031,,Sample condition ok,SUGG.IN.20161031.POM.2,,Sample condition ok,SUGG.IN.20161031.POM.1,,2016-10-31T18:10Z,225,225,,20211221T205722Z,RELEASE-2022
aff0ef61-12ba-4076-9714-854dd4453b39,D03,SUGG,SUGG.AOS.littoral2,2016-10-31T14:50Z,SUGG.OT.20161031,,"",SUGG.OT.20161031.POM.2,,"",SUGG.OT.20161031.POM.1,,2016-10-31T18:53Z,175,175,,20211221T205722Z,RELEASE-2022
f9563a0b-1467-4df1-a81f-da12af3732c6,D03,SUGG,SUGG.AOS.buoy.c0,2016-12-05T15:50Z,SUGG.C0.20161205,,,SUGG.C0.20161205.POM.2,,,SUGG.C0.20161205.POM.1,,2016-12-05T19:25Z,300,300,,20211221T203747Z,RELEASE-2022
6ffb99c5-87a2-4148-ae00-f6e171c91897,D03,SUGG,SUGG.AOS.littoral1,2016-12-05T16:26Z,SUGG.IN.20161205,,,SUGG.IN.20161205.POM.2,,,SUGG.IN.20161205.POM.1,,2016-12-05T19:50Z,250,250,,20211221T203747Z,RELEASE-2022
426c8e82-d284-47bc-b5c5-b2dbca0009b3,D03,SUGG,SUGG.AOS.littoral2,2016-12-05T17:02Z,SUGG.OT.20161205,,,SUGG.OT.20161205.POM.2,,,SUGG.OT.20161205.POM.1,,2016-12-05T20:22Z,250,250,,20211221T203747Z,RELEASE-2022
c55f70f9-1317-4f71-9ed4-75ce9b09dfd8,D03,SUGG,SUGG.AOS.buoy.c0,2017-01-31T14:57Z,SUGG.C0.20170131,,,SUGG.C0.20170131.POM.2,,,SUGG.C0.20170131.POM.1,,2017-01-31T17:54Z,300,300,,20211221T215555Z,RELEASE-2022
15befd18-c993-4a01-a6bd-4dadd653fc92,D03,SUGG,SUGG.AOS.littoral1,2017-01-31T15:30Z,SUGG.IN.20170131,,,SUGG.IN.20170131.POM.2,,,SUGG.IN.20170131.POM.1,,2017-01-31T18:22Z,300,300,,20211221T215555Z,RELEASE-2022
7e9c2445-7ef3-4734-b1f1-afcb832ec28c,D03,SUGG,SUGG.AOS.littoral2,2017-01-31T16:02Z,SUGG.OT.20170131,,,SUGG.OT.20170131.POM.2,,,SUGG.OT.20170131.POM.1,,2017-01-31T19:26Z,260,260,,20211221T215555Z,RELEASE-2022
199461e0-44ae-41d4-87ff-a732c19e90e7,D03,SUGG,SUGG.AOS.buoy.c0,2017-02-28T14:40Z,SUGG.C0.20170228,,,SUGG.C0.20170228.POM.2,,,SUGG.C0.20170228.POM.1,,2017-02-28T16:55Z,300,300,,20211222T000605Z,RELEASE-2022
f29cef4c-a431-46e5-b052-68ac2315b5d1,D03,SUGG,SUGG.AOS.littoral1,2017-02-28T15:15Z,SUGG.IN.20170228,,,SUGG.IN.20170228.POM.2,,,SUGG.IN.20170228.POM.1,,2017-02-28T17:30Z,250,250,,20211222T000605Z,RELEASE-2022
71b35817-4d93-41ee-b7a4-c6ed0e9a554e,D03,SUGG,SUGG.AOS.littoral2,2017-02-28T15:34Z,SUGG.OT.20170228,,,SUGG.OT.20170228.POM.2,,,SUGG.OT.20170228.POM.1,,2017-02-28T17:52Z,250,250,,20211222T000605Z,RELEASE-2022
ddb05acb-222e-44ea-9692-42a07ad95394,D03,SUGG,SUGG.AOS.buoy.c0,2017-04-03T13:36Z,SUGG.C0.20170403,,,SUGG.C0.20170403.POM.2,,,SUGG.C0.20170403.POM.1,,2017-04-03T16:21Z,325,325,,20211221T210542Z,RELEASE-2022
e18db95b-6b9a-4f53-a3eb-c1928445b1ec,D03,SUGG,SUGG.AOS.littoral1,2017-04-03T14:00Z,SUGG.IN.20170403,,,SUGG.IN.20170403.POM.2,,,SUGG.IN.20170403.POM.1,,2017-04-03T17:08Z,300,300,,20211221T210542Z,RELEASE-2022
ac805373-cf0a-4f2e-a678-2611a707ccf0,D03,SUGG,SUGG.AOS.littoral2,2017-04-03T14:30Z,SUGG.OT.20170403,,,SUGG.OT.20170403.POM.2,,,SUGG.OT.20170403.POM.1,,2017-04-03T17:51Z,300,300,,20211221T210542Z,RELEASE-2022
9bac652d-a78d-4bf2-b73e-3f3ce8f01e7f,D03,SUGG,SUGG.AOS.buoy.c0,2017-05-01T14:36Z,SUGG.C0.20170501,,Sample condition ok,SUGG.C0.20170501.POM.2,,Sample condition ok,SUGG.C0.20170501.POM.1,,2017-05-01T16:58Z,400,400,,20211222T030430Z,RELEASE-2022
abce37d8-61c1-4a20-b7e3-ae2bfdcc6464,D03,SUGG,SUGG.AOS.littoral1,2017-05-01T14:48Z,SUGG.IN.20170501,,Sample condition ok,SUGG.IN.20170501.POM.2,,Sample condition ok,SUGG.IN.20170501.POM.1,,2017-05-01T17:13Z,300,300,,20211222T030430Z,RELEASE-2022
4885ddbc-9685-4679-8319-a26e927a2fcb,D03,SUGG,SUGG.AOS.littoral2,2017-05-01T15:20Z,SUGG.OT.20170501,,Sample condition ok,SUGG.OT.20170501.POM.2,,Sample condition ok,SUGG.OT.20170501.POM.1,,2017-05-01T17:37Z,300,300,,20211222T030430Z,RELEASE-2022
d624de22-4004-43ce-a26d-92fa8ce2deed,D03,SUGG,SUGG.AOS.buoy.c0,2017-06-06T13:57Z,SUGG.C0.20170606,,Sample condition ok,,,Sample condition ok,SUGG.C0.20170606.POM.1,,2017-06-06T16:30Z,350,,,20211221T213540Z,RELEASE-2022
6d117fe8-189a-4327-86a3-91eea9cb4bac,D03,SUGG,SUGG.AOS.littoral1,2017-06-06T14:25Z,SUGG.IN.20170606,,Sample condition ok,,,Sample condition ok,SUGG.IN.20170606.POM.1,,2017-06-06T17:10Z,300,,,20211221T213540Z,RELEASE-2022
6333e871-61a8-4df2-8091-4ad9b4f4abcf,D03,SUGG,SUGG.AOS.littoral2,2017-06-06T14:52Z,SUGG.OT.20170606,,Sample condition ok,,,Sample condition ok,SUGG.OT.20170606.POM.1,,2017-06-06T17:35Z,300,,,20211221T213540Z,RELEASE-2022
ad4639d3-48d5-4db0-acb7-a9b9d917c22c,D03,SUGG,SUGG.AOS.buoy.c0,2017-06-26T14:19Z,SUGG.C0.20170626,,Sample condition ok,,,Sample condition ok,SUGG.C0.20170626.POM.1,,"",300,,,20211221T213540Z,RELEASE-2022
5a3a86b3-bb10-4848-90dc-7b01576a7920,D03,SUGG,SUGG.AOS.littoral1,2017-06-26T14:29Z,SUGG.IN.20170626,,Sample condition ok,,,Sample condition ok,SUGG.IN.20170626.POM.1,,2017-06-26T17:07Z,200,,,20211221T213540Z,RELEASE-2022
ed0fc581-0d91-4ed7-9970-31e98d007fdf,D03,SUGG,SUGG.AOS.littoral2,2017-06-26T15:21Z,SUGG.OT.20170626,,Sample condition ok,,,Sample condition ok,SUGG.OT.20170626.POM.1,,2017-06-26T17:32Z,250,,,20211221T213540Z,RELEASE-2022
7968c84e-fd24-43c0-9b43-3d103e9f8881,D03,SUGG,SUGG.AOS.buoy.c0,2017-08-01T14:10Z,SUGG.C0.20170801,,Sample condition ok,,,Sample condition ok,SUGG.C0.20170801.POM.1,,"",400,,,20211222T035106Z,RELEASE-2022
320f7087-f166-4f50-81d2-dba3f4d748a7,D03,SUGG,SUGG.AOS.littoral1,2017-08-01T14:29Z,SUGG.IN.20170801,,Sample condition ok,,,Sample condition ok,SUGG.IN.20170801.POM.1,,2017-08-01T18:10Z,350,,,20211222T035106Z,RELEASE-2022
7433cc20-c0ab-44a7-a415-0c63ada1d1cc,D03,SUGG,SUGG.AOS.littoral2,2017-08-01T14:53Z,SUGG.OT.20170801,,Sample condition ok,,,Sample condition ok,SUGG.OT.20170801.POM.1,,2017-08-01T18:39Z,350,,,20211222T035106Z,RELEASE-2022
4701904f-7591-4f47-a1ab-9954d4914a5e,D03,SUGG,SUGG.AOS.buoy.c0,2017-09-04T14:18Z,SUGG.C0.20170904,,Sample condition ok,,,Sample condition ok,SUGG.C0.20170904.POM.1,,2017-09-04T16:49Z,500,,,20211221T200757Z,RELEASE-2022
1bf4a43e-6c51-46ea-9310-08f07e421dac,D03,SUGG,SUGG.AOS.littoral1,2017-09-04T14:42Z,SUGG.IN.20170904,,Sample condition ok,,,Sample condition ok,SUGG.IN.20170904.POM.1,,2017-09-04T16:00Z,500,,,20211221T200757Z,RELEASE-2022
f4b9d39c-83e6-40c3-b1e8-fd79c50e93e9,D03,SUGG,SUGG.AOS.littoral2,2017-09-04T15:05Z,SUGG.OT.20170904,,Sample condition ok,,,Sample condition ok,SUGG.OT.20170904.POM.1,,2017-09-04T17:39Z,500,,,20211221T200757Z,RELEASE-2022
746d0174-4b3a-4225-a20f-d81ecbf51299,D03,SUGG,SUGG.AOS.buoy.c0,2017-10-03T14:10Z,SUGG.C0.20171003,,Sample condition ok,,,Sample condition ok,SUGG.C0.20171003.POM.1,,2017-10-03T16:45Z,130,,,20211222T035504Z,RELEASE-2022
19a283c5-54f9-4a9d-9406-823f25cb1b75,D03,SUGG,SUGG.AOS.littoral1,2017-10-03T14:35Z,SUGG.IN.20171003,,Sample condition ok,,,Sample condition ok,SUGG.IN.20171003.POM.1,,2017-10-03T17:15Z,150,,,20211222T035504Z,RELEASE-2022
374114e6-2542-4365-b01b-b08f00391d48,D03,SUGG,SUGG.AOS.littoral2,2017-10-03T15:05Z,SUGG.OT.20171003,,Sample condition ok,,,Sample condition ok,SUGG.OT.20171003.POM.1,,2017-10-03T17:45Z,150,,,20211222T035504Z,RELEASE-2022
2cae1303-b86a-47c9-ac1d-2ee6bdcac960,D03,SUGG,SUGG.AOS.buoy.c0,2017-11-06T15:52Z,SUGG.C0.20171106,,Sample condition ok,SUGG.C0.20171106.POM.2,,Sample condition ok,SUGG.C0.20171106.POM.1,,2017-11-06T18:24Z,500,500,,20211221T204547Z,RELEASE-2022
c1b23bcd-b590-4dae-b7c8-cc9fafe16946,D03,SUGG,SUGG.AOS.littoral1,2017-11-06T16:19Z,SUGG.IN.20171106,,Sample condition ok,SUGG.IN.20171106.POM.2,,Sample condition ok,SUGG.IN.20171106.POM.1,,2017-11-06T18:51Z,300,300,,20211221T204547Z,RELEASE-2022
cb13bf8b-79b1-4b34-b59f-d999da715c45,D03,SUGG,SUGG.AOS.littoral2,2017-11-06T16:28Z,SUGG.OT.20171106,,Sample condition ok,SUGG.OT.20171106.POM.2,,Sample condition ok,SUGG.OT.20171106.POM.1,,2017-11-06T19:10Z,300,300,,20211221T204547Z,RELEASE-2022
ea66c092-375b-498d-a0e6-898d95919ebf,D03,SUGG,SUGG.AOS.buoy.c0,2017-12-04T15:52Z,SUGG.C0.20171204,,Sample condition ok,SUGG.C0.20171204.POM.2,,Sample condition ok,SUGG.C0.20171204.POM.1,,2017-12-04T18:08Z,500,500,,20211221T224542Z,RELEASE-2022
75551aa8-59b4-4953-bf2e-812d60ad2a0b,D03,SUGG,SUGG.AOS.littoral1,2017-12-04T16:11Z,SUGG.IN.20171204,,Sample condition ok,SUGG.IN.20171204.POM.2,,Sample condition ok,SUGG.IN.20171204.POM.1,,2017-12-04T18:29Z,300,300,,20211221T224542Z,RELEASE-2022
ab284823-16c1-4791-874f-9a66994a66ba,D03,SUGG,SUGG.AOS.littoral2,2017-12-04T16:31Z,SUGG.OT.20171204,,Sample condition ok,SUGG.OT.20171204.POM.2,,Sample condition ok,SUGG.OT.20171204.POM.1,,2017-12-04T18:54Z,300,300,,20211221T224542Z,RELEASE-2022
099202c9-b7f4-4221-91d4-c0a571e0611f,D03,SUGG,SUGG.AOS.buoy.c0,2018-01-03T16:14Z,SUGG.C0.20180103,,Sample condition ok,SUGG.C0.20180103.POM.2,,Sample condition ok,SUGG.C0.20180103.POM.1,,2018-01-03T18:32Z,450,450,,20211222T004458Z,RELEASE-2022
815b4b2c-c40c-4588-ba93-be8daa7abce1,D03,SUGG,SUGG.AOS.buoy.c0,2018-02-05T15:53Z,SUGG.C0.20180205,,Sample condition ok,SUGG.C0.20180205.POM.2,,Sample condition ok,SUGG.C0.20180205.POM.1,,2018-02-05T17:30Z,500,500,,20211221T235621Z,RELEASE-2022
00426429-e405-4581-b4df-0c466c9c4188,D03,SUGG,SUGG.AOS.buoy.c0,2018-03-05T18:01Z,SUGG.C0.20180305,,Sample condition ok,SUGG.C0.20180305.POM.2,,Sample condition ok,SUGG.C0.20180305.POM.1,,2018-03-05T18:55Z,200,200,,20211221T201534Z,RELEASE-2022
70344b5e-6377-45bb-8efc-76c07b07d037,D03,SUGG,SUGG.AOS.buoy.c0,2018-04-02T17:03Z,SUGG.C0.20180402,,Sample condition ok,SUGG.C0.20180402.POM.2,"",Sample condition ok,SUGG.C0.20180402.POM.1,"",2018-04-02T17:03Z,400,400,,20211222T034020Z,RELEASE-2022
aa7201fd-815b-4ec8-8442-65042cb070d5,D03,SUGG,SUGG.AOS.buoy.c0,2018-04-30T14:40Z,SUGG.C0.20180430,,Sample condition ok,SUGG.C0.20180430.POM.2,A00000003844,Sample condition ok,SUGG.C0.20180430.POM.1,A00000003843,2018-04-30T17:36Z,500,500,,20211222T034020Z,RELEASE-2022
415a8f07-2759-4245-b4c4-782eef18db18,D03,SUGG,SUGG.AOS.buoy.c0,2018-06-04T16:00Z,SUGG.C0.20180604,,"","","","","","","",,,,20211222T004527Z,RELEASE-2022
8d0e0a3e-559e-42b8-b1e0-17e8ea97cbf9,D03,SUGG,SUGG.AOS.buoy.c0,2018-06-04T16:00Z,SUGG.C0.20180604,,Sample condition ok,SUGG.C0.20180604.POM.2,A00000003786,Sample condition ok,SUGG.C0.20180604.POM.1,A00000003769,2018-06-04T17:28Z,450,450,,20211222T004527Z,RELEASE-2022
c9a00f94-c1ee-4e4b-b855-d2db72bff6bb,D03,SUGG,SUGG.AOS.buoy.c0,2018-06-04T16:00Z,SUGG.C0.20180604,,"","","","","","","",,,,20211222T004527Z,RELEASE-2022
56a05bcb-e4b8-4d56-92b8-8f52cd4d2c32,D03,SUGG,SUGG.AOS.buoy.c0,2018-07-09T14:09Z,SUGG.C0.20180709,,Sample condition ok,SUGG.C0.20180709.POM.2,A00000003601,Sample condition ok,SUGG.C0.20180709.POM.1,A00000003602,2018-07-09T17:50Z,500,500,,20211221T223924Z,RELEASE-2022
c7e72bf6-8a75-4289-891b-881094249754,D03,SUGG,SUGG.AOS.buoy.c0,2018-07-30T14:30Z,SUGG.C0.20180730,,Sample condition ok,SUGG.C0.20180730.POM.2,A00000003521,Sample condition ok,SUGG.C0.20180730.POM.1,A00000003520,"",500,500,,20211221T223924Z,RELEASE-2022
0320595b-417a-4a63-bbbc-ffb76d109428,D03,SUGG,SUGG.AOS.buoy.c0,2018-07-30T14:30Z,SUGG.C0.20180730,,"","","","","","","",,,,20211221T223924Z,RELEASE-2022
f7084267-9c6b-4c07-a23a-2cc2ef562458,D03,SUGG,SUGG.AOS.buoy.c0,2018-07-30T14:30Z,SUGG.C0.20180730,,"","","","","","","",,,,20211221T223924Z,RELEASE-2022
6a173aa8-8146-4005-ba36-57d2893ab015,D03,SUGG,SUGG.AOS.buoy.c0,2018-09-04T14:27Z,SUGG.C0.20180904,,"","","","","","","",,,,20211221T200303Z,RELEASE-2022
86bc183f-b5ad-4fbf-bfbd-e5d73e03027a,D03,SUGG,SUGG.AOS.buoy.c0,2018-09-04T14:27Z,SUGG.C0.20180904,,"","","","","","","",,,,20211221T200303Z,RELEASE-2022
229e87a8-d7b8-46c4-8830-18c1253a08f3,D03,SUGG,SUGG.AOS.buoy.c0,2018-09-04T14:27Z,SUGG.C0.20180904,,Sample condition ok,SUGG.C0.20180904.POM.2,A00000005266,Sample condition ok,SUGG.C0.20180904.POM.1,A00000005267,2018-09-04T15:37Z,450,450,,20211221T200303Z,RELEASE-2022
9eb4d563-db72-45c5-a29e-4ead0b046650,D03,SUGG,SUGG.AOS.buoy.c0,2018-10-01T16:50Z,SUGG.C0.20181001,,Sample condition ok,SUGG.C0.20181001.POM.2,A00000003588,Sample condition ok,SUGG.C0.20181001.POM.1,A00000003571,2018-10-01T20:34Z,300,300,,20211222T015555Z,RELEASE-2022
2314d836-4562-4453-b4ec-0d88670cbd0c,D03,SUGG,SUGG.AOS.buoy.c0,2018-11-05T17:16Z,SUGG.C0.20181105,,Sample condition ok,SUGG.C0.20181105.POM.2,A00000036789,Sample condition ok,SUGG.C0.20181105.POM.1,A00000036788,2018-11-05T19:23Z,300,300,,20211222T011447Z,RELEASE-2022
926f32fd-9448-46fb-9a1b-4400940cba02,D03,SUGG,SUGG.AOS.buoy.c0,2018-12-04T17:52Z,SUGG.C0.20181204,,Sample condition ok,SUGG.C0.20181204.POM.2,A00000037289,Sample condition ok,SUGG.C0.20181204.POM.1,A00000037288,2018-12-04T19:30Z,500,500,,20211221T205838Z,RELEASE-2022
1319232d-723e-48eb-9af9-2b0ebe3c830d,D03,SUGG,SUGG.AOS.buoy.c0,2019-01-07T17:42Z,SUGG.C0.20190107,,Sample condition ok,SUGG.C0.20190107.POM.2,A00000037317,Sample condition ok,SUGG.C0.20190107.POM.1,A00000037300,2019-01-07T20:06Z,400,400,,20211222T015740Z,RELEASE-2022
7d5d0457-879c-4f7d-a956-bdf54ca964bc,D03,SUGG,SUGG.AOS.buoy.c0,2019-02-04T18:48Z,SUGG.C0.20190204,,Sample condition ok,SUGG.C0.20190204.POM.2,A00000037142,Sample condition ok,SUGG.C0.20190204.POM.1,A00000037141,2019-02-04T19:56Z,500,500,,20211221T201624Z,RELEASE-2022
ceeb4caf-15c4-4389-ad59-228e19057e99,D03,SUGG,SUGG.AOS.buoy.c0,2019-03-04T17:06Z,SUGG.C0.20190304,,Sample condition ok,SUGG.C0.20190304.POM.2,A00000037182,Sample condition ok,SUGG.C0.20190304.POM.1,A00000037181,2019-03-04T18:17Z,300,300,,20211222T021958Z,RELEASE-2022
73fb96a7-b8a1-47d6-aac3-73e0712c795d,D03,SUGG,SUGG.AOS.buoy.c0,2019-04-11T15:58Z,SUGG.C0.20190411,,Sample condition ok,SUGG.C0.20190411.POM.2,A00000037473,Sample condition ok,SUGG.C0.20190411.POM.1,A00000037472,2019-04-11T17:00Z,300,300,,20211222T021937Z,RELEASE-2022
a3bca54e-b0fd-45d3-9175-f73799a4201a,D03,SUGG,SUGG.AOS.buoy.c0,2019-05-07T14:07Z,SUGG.C0.20190507,,Sample condition ok,SUGG.C0.20190507.POM.2,A00000037486,Sample condition ok,SUGG.C0.20190507.POM.1,A00000037485,2019-05-07T16:03Z,600,600,,20211221T201307Z,RELEASE-2022
5359be86-8e67-4116-aadb-e4815ba7b48e,D03,SUGG,SUGG.AOS.buoy.c0,2019-06-10T16:30Z,SUGG.C0.20190610,,Sample condition ok,SUGG.C0.20190610.POM.2,A00000073412,Sample condition ok,SUGG.C0.20190610.POM.1,A00000073411,2019-06-10T17:50Z,300,300,,20211221T235311Z,RELEASE-2022
c96f4d0f-5417-4c00-8621-8f078979782c,D03,SUGG,SUGG.AOS.buoy.c0,2019-07-08T15:02Z,SUGG.C0.20190708,,Sample condition ok,SUGG.C0.20190708.POM.2,A00000037783,Sample condition ok,SUGG.C0.20190708.POM.1,A00000037782,2019-07-08T16:13Z,450,450,,20211221T222716Z,RELEASE-2022
18dd5f46-1159-4699-b371-7e81500f0d76,D03,SUGG,SUGG.AOS.buoy.c0,2019-08-13T15:30Z,SUGG.C0.20190813,,Sample condition ok,SUGG.C0.20190813.POM.2,A00000075594,Sample condition ok,SUGG.C0.20190813.POM.1,A00000075593,2019-08-13T15:30Z,300,300,,20211222T003731Z,RELEASE-2022
5849aaca-2014-41a5-8372-b748b01ddd89,D03,SUGG,SUGG.AOS.buoy.c0,2019-09-10T13:50Z,SUGG.C0.20190910,,Sample condition ok,SUGG.C0.20190910.POM.2,A00000075630,Sample condition ok,SUGG.C0.20190910.POM.1,A00000075629,2019-09-10T15:03Z,400,400,,20211222T013029Z,RELEASE-2022
20e632fd-b39b-4ddb-9ba8-45bd0dd85477,D03,SUGG,SUGG.AOS.buoy.c0,2019-10-01T15:34Z,SUGG.C0.20191001,,Sample condition ok,SUGG.C0.20191001.POM.2,A00000075684,Sample condition ok,SUGG.C0.20191001.POM.1,A00000075683,,400,400,,20211222T041304Z,RELEASE-2022
552f8d7c-8c78-4543-ae00-602c98804793,D03,SUGG,SUGG.AOS.buoy.c0,2019-11-04T16:31Z,SUGG.C0.20191104,,Sample condition ok,SUGG.C0.20191104.POM.2,A00000128934,Sample condition ok,SUGG.C0.20191104.POM.1,A00000128933,2019-11-04T16:31Z,300,300,,20211221T231716Z,RELEASE-2022
f3d9b9b8-0988-4f10-8ff8-d6515277d680,D03,SUGG,SUGG.AOS.buoy.c0,2019-12-09T15:28Z,SUGG.C0.20191209,,Sample condition ok,SUGG.C0.20191209.POM.2,A00000129023,Sample condition ok,SUGG.C0.20191209.POM.1,A00000129024,2019-12-09T15:28Z,400,400,,20211222T004216Z,RELEASE-2022
4279f1e3-64c7-4b86-b033-8efc95b4ee5c,D03,SUGG,SUGG.AOS.buoy.c0,2020-01-07T14:56Z,SUGG.C0.20200107,,Sample condition ok,SUGG.C0.20200107.POM.2,A00000129018,Sample condition ok,SUGG.C0.20200107.POM.1,A00000129019,2020-01-07T16:21Z,400,400,,20211221T214936Z,PROVISIONAL
64d0ae76-6d3f-4281-bd9b-def301c575d5,D03,SUGG,SUGG.AOS.buoy.c0,2020-02-04T15:48Z,SUGG.C0.20200204,,Sample condition ok,SUGG.C0.20200204.POM.2,A00000075510,Sample condition ok,SUGG.C0.20200204.POM.1,A00000075511,2020-02-04T17:42Z,300,300,,20211222T014105Z,PROVISIONAL
0deaeb7f-3be4-4242-be9c-52e6d27e894d,D03,SUGG,SUGG.AOS.buoy.c0,2020-03-03T16:00Z,SUGG.C0.20200303,,Sample condition ok,SUGG.C0.20200303.POM.2,A00000129908,Sample condition ok,SUGG.C0.20200303.POM.1,A00000129907,,300,300,,20211222T034234Z,PROVISIONAL
93f61154-0884-41e1-a2a4-941e6601b9bb,D03,SUGG,SUGG.AOS.buoy.c0,2020-06-16T14:24Z,SUGG.C0.20200616,,Sample condition ok,SUGG.C0.20200616.POM.2,A00000129966,Sample condition ok,SUGG.C0.20200616.POM.1,A00000129965,2020-06-16T16:48Z,300,300,,20211222T025210Z,PROVISIONAL
89a416ce-c803-4c79-b5f3-287e840dbe09,D03,SUGG,SUGG.AOS.buoy.c0,2020-07-07T14:55Z,SUGG.C0.20200707,,Sample condition ok,SUGG.C0.20200707.POM.2,A00000131395,Sample condition ok,SUGG.C0.20200707.POM.1,A00000131394,2020-07-07T14:55Z,300,300,,20211221T221850Z,PROVISIONAL
22476b29-a233-4767-b24b-abf235cec31e,D03,SUGG,SUGG.AOS.buoy.c0,2020-11-03T13:50Z,SUGG.C0.20201103,,Sample condition ok,SUGG.C0.20201103.POM.2,A00000132052,Sample condition ok,SUGG.C0.20201103.POM.1,A00000132051,2020-11-03T13:50Z,400,400,,20211222T024123Z,PROVISIONAL
597a875e-d597-462d-b5bc-88d43333345c,D03,SUGG,SUGG.AOS.buoy.c0,2020-12-01T14:37Z,SUGG.C0.20201201,,Sample condition ok,SUGG.C0.20201201.POM.2,A00000132151,Sample condition ok,SUGG.C0.20201201.POM.1,A00000132152,2020-12-01T16:42Z,300,300,,20211222T003729Z,PROVISIONAL
ed4175a1-78d2-482a-abb3-b3b537e9f782,D03,SUGG,SUGG.AOS.buoy.c0,2021-01-05T16:15Z,SUGG.C0.20210105,,Sample condition ok,SUGG.C0.20210105.POM.2,A00000132162,Sample condition ok,SUGG.C0.20210105.POM.1,A00000132161,"",300,300,,20211222T002057Z,PROVISIONAL
a458375b-f24d-409d-82a7-2c644869b613,D03,SUGG,SUGG.AOS.buoy.c0,2021-01-26T15:52Z,SUGG.C0.20210126,,Sample condition ok,SUGG.C0.20210126.POM.2,A00000132190,Sample condition ok,SUGG.C0.20210126.POM.1,A00000132189,2021-01-26T18:43Z,300,300,,20211222T002057Z,PROVISIONAL
63a5b627-1146-4465-a37c-1545443016b0,D03,SUGG,SUGG.AOS.buoy.c0,2021-03-09T15:02Z,SUGG.C0.20210309,,Sample condition ok,SUGG.C0.20210309.POM.2,A00000132580,Sample condition ok,SUGG.C0.20210309.POM.1,A00000132579,2021-03-09T15:34Z,300,300,,20211222T041226Z,PROVISIONAL
7d27610f-67b9-4355-8796-d6e9a7c8b10c,D03,SUGG,SUGG.AOS.buoy.c0,2021-04-07T16:15Z,SUGG.C0.20210407,,Sample condition ok,SUGG.C0.20210407.POM.2,A00000132629,Sample condition ok,SUGG.C0.20210407.POM.1,A00000132628,2021-04-07T18:32Z,300,300,,20211222T034743Z,PROVISIONAL
37300765-39e2-44ea-9839-33c60deb09ba,D03,SUGG,SUGG.AOS.buoy.c0,2021-05-04T14:23Z,SUGG.C0.20210504,,Sample condition ok,SUGG.C0.20210504.POM.2,A00000132796,Sample condition ok,SUGG.C0.20210504.POM.1,A00000132795,2021-05-04T16:07Z,300,300,,20211221T212056Z,PROVISIONAL
cea5f570-bb2d-4fd1-9045-6d7051bde7e2,D03,SUGG,SUGG.AOS.buoy.c0,2021-06-07T16:58Z,SUGG.C0.20210607,,"","","","","","","",,,,20211221T195358Z,PROVISIONAL
f3882220-edbd-4be9-be53-eb97cd52f7f5,D03,SUGG,SUGG.AOS.buoy.c0,2021-06-07T16:58Z,SUGG.C0.20210607,,"","","","","","","",,,,20211221T195358Z,PROVISIONAL
68cb75b2-63a1-471f-a23c-8ba9053ed0c2,D03,SUGG,SUGG.AOS.buoy.c0,2021-06-07T16:58Z,SUGG.C0.20210607,,Sample condition ok,SUGG.C0.20210607.POM.2,A00000132817,Sample condition ok,SUGG.C0.20210607.POM.1,A00000132818,2021-06-07T19:44Z,300,300,,20211221T195358Z,PROVISIONAL
2ccee4c7-3ff2-4240-95c6-954f78354dee,D03,SUGG,SUGG.AOS.buoy.c0,2021-07-12T15:43Z,SUGG.C0.20210712,,Sample condition ok,SUGG.C0.20210712.POM.2,A00000132725,Sample condition ok,SUGG.C0.20210712.POM.1,A00000132726,2021-07-12T16:49Z,300,300,,20220125T180828Z,PROVISIONAL
53328e24-a528-453d-81ed-b0d907f2bd42,D03,SUGG,SUGG.AOS.buoy.c0,2021-08-10T15:50Z,SUGG.C0.20210810,,Sample condition ok,SUGG.C0.20210810.POM.2,A00000132870,Sample condition ok,SUGG.C0.20210810.POM.1,A00000132880,2021-08-10T17:07Z,300,300,,20220125T180556Z,PROVISIONAL
ed1a19c1-ceac-4b9e-9219-fea383bd1fe2,D03,SUGG,SUGG.AOS.buoy.c0,2021-09-07T16:25Z,SUGG.C0.20210907,,Sample condition ok,SUGG.C0.20210907.POM.2,A00000132917,Sample condition ok,SUGG.C0.20210907.POM.1,A00000132916,,300,,,20211221T203257Z,PROVISIONAL
247cae60-8f20-4102-bc9e-daeef480d074,D03,SUGG,SUGG.AOS.buoy.c0,2021-10-05T14:20Z,SUGG.C0.20211005,,Sample condition ok,SUGG.C0.20211005.POM.2,A00000132907,Sample condition ok,SUGG.C0.20211005.POM.1,A00000132906,,300,300,,20220112T211814Z,PROVISIONAL
1c8c6ec2-07fe-4fe5-bda7-c833e9d82e7f,D05,CRAM,CRAM.AOS.littoral2,2015-08-04T16:45Z,CRAM.OT.20150804,,,CRAM.OT.20150804.POM.2,,,CRAM.OT.20150804.POM.1,,2015-08-04T22:50Z,250,250,,20211222T041223Z,RELEASE-2022
898114fc-79c7-42aa-9ad0-c6dcff462490,D05,CRAM,CRAM.AOS.littoral1,2015-08-04T18:30Z,CRAM.IN.20150804,,,CRAM.IN.20150804.POM.2,,,CRAM.IN.20150804.POM.1,,2015-08-04T22:10Z,250,250,,20211222T041223Z,RELEASE-2022
8c6c2cc0-6bd3-47d2-98c1-1c87c12c35fa,D05,CRAM,CRAM.AOS.buoy.c1,2015-08-04T19:45Z,CRAM.C1.20150804,,,CRAM.C1.20150804.POM.2,,,CRAM.C1.20150804.POM.1,,2015-08-04T21:45Z,300,300,,20211222T041223Z,RELEASE-2022
c29864c8-dded-495f-a107-01b42e1983e9,D05,CRAM,CRAM.AOS.buoy.c2,2015-08-04T20:15Z,CRAM.C2.20150804,,,CRAM.C2.20150804.POM.2,,,CRAM.C2.20150804.POM.1,,2015-08-04T21:45Z,200,200,,20211222T041223Z,RELEASE-2022
ac9fb7ed-6b61-4b9e-8bc3-e8f0f338cf5f,D05,CRAM,CRAM.AOS.littoral2,2015-09-01T14:45Z,CRAM.OT.20150901,,,CRAM.OT.20150901.POM.2,,,CRAM.OT.20150901.POM.1,,2015-09-01T19:45Z,260,250,,20211221T221223Z,RELEASE-2022
58947f41-076a-4cb4-99d6-c895cd9f6c69,D05,CRAM,CRAM.AOS.littoral1,2015-09-01T15:30Z,CRAM.IN.20150901,,,CRAM.IN.20150901.POM.2,,,CRAM.IN.20150901.POM.1,,2015-09-01T19:45Z,250,260,,20211221T221223Z,RELEASE-2022
ba1a8ad9-20fa-4211-94a7-44f8d92ebc05,D05,CRAM,CRAM.AOS.buoy.c1,2015-09-01T17:15Z,CRAM.C1.20150901,,,CRAM.C1.20150901.POM.2,,,CRAM.C1.20150901.POM.1,,2015-09-01T19:45Z,200,200,,20211221T221223Z,RELEASE-2022
a6426075-12f7-445d-bed2-6e676efa8c7a,D05,CRAM,CRAM.AOS.buoy.c2,2015-09-01T18:00Z,CRAM.C2.20150901,,,CRAM.C2.20150901.POM.2,,,CRAM.C2.20150901.POM.1,,2015-09-01T20:45Z,190,,,20211221T221223Z,RELEASE-2022
e08f55df-7093-48fe-aea9-428f8b59dc61,D05,CRAM,CRAM.AOS.littoral2,2015-09-29T15:30Z,CRAM.OT.20150929,,,CRAM.OT.20150929.POM.2,,,CRAM.OT.20150929.POM.1,,2015-09-29T21:30Z,350,350,,20211221T221223Z,RELEASE-2022
9bab25a4-a3c7-47c3-9005-f9adbc95160f,D05,CRAM,CRAM.AOS.littoral1,2015-09-29T17:30Z,CRAM.IN.20150929,,,CRAM.IN.20150929.POM.2,,,CRAM.IN.20150929.POM.1,,2015-09-29T21:30Z,350,350,,20211221T221223Z,RELEASE-2022
030800b9-c107-4bfc-b12d-ad56add476e5,D05,CRAM,CRAM.AOS.buoy.c1,2015-09-29T19:00Z,CRAM.C1.20150929,,,CRAM.C1.20150929.POM.2,,,CRAM.C1.20150929.POM.1,,2015-09-29T22:00Z,350,350,,20211221T221223Z,RELEASE-2022
02732b9a-de7a-46e6-b121-da336da0513a,D05,CRAM,CRAM.AOS.buoy.c2,2015-09-29T19:45Z,CRAM.C2.20150929,,,CRAM.C2.20150929.POM.2,,,CRAM.C2.20150929.POM.1,,2015-09-29T22:30Z,150,150,,20211221T221223Z,RELEASE-2022
005610f6-7482-4a6f-903e-a7167cd82718,D05,CRAM,CRAM.AOS.littoral2,2015-10-26T15:00Z,CRAM.OT.20151026,,"",CRAM.OT.20151026.POM.2,,"",CRAM.OT.20151026.POM.1,,2015-10-26T19:45Z,400,400,,20211221T221516Z,RELEASE-2022
3e0cb81e-717e-48eb-a383-47b2055590d1,D05,CRAM,CRAM.AOS.buoy.c1,2015-10-26T16:00Z,CRAM.C1.20151026,,Sample condition ok,CRAM.C1.20151026.POM.2,,Sample condition ok,CRAM.C1.20151026.POM.1,,2015-10-26T18:45Z,393,400,,20211221T221516Z,RELEASE-2022
24ca4c59-d6a2-4e49-9c43-a673e6c2afcc,D05,CRAM,CRAM.AOS.littoral1,2015-10-26T16:00Z,CRAM.IN.20151026,,"",CRAM.IN.20151026.POM.2,,"",CRAM.IN.20151026.POM.1,,2015-10-26T18:45Z,400,400,,20211221T221516Z,RELEASE-2022
95f1a483-2739-4a53-bc7a-0c1338e7909c,D05,CRAM,CRAM.AOS.buoy.c2,2015-10-26T16:45Z,CRAM.C2.20151026,,Sample condition ok,CRAM.C2.20151026.POM.2,,Sample condition ok,CRAM.C2.20151026.POM.1,,2015-10-26T18:45Z,400,400,,20211221T221516Z,RELEASE-2022
9ea492f4-5978-4635-9d47-f8befc7002a5,D05,CRAM,CRAM.AOS.littoral2,2015-11-17T15:55Z,CRAM.OT.20151117,,,CRAM.OT.20151117.POM.2,,,CRAM.OT.20151117.POM.1,,2015-11-17T21:30Z,,300,,20211221T234040Z,RELEASE-2022
ca496302-1f0c-48ac-a444-be1d6a57fb77,D05,CRAM,CRAM.AOS.littoral1,2015-11-17T17:15Z,CRAM.IN.20151117,,,CRAM.IN.20151117.POM.2,,,CRAM.IN.20151117.POM.1,,2015-11-17T21:30Z,,300,,20211221T234040Z,RELEASE-2022
65b45f37-1e70-44a4-bfd1-f6778363a55d,D05,CRAM,CRAM.AOS.buoy.c0,2015-11-17T18:30Z,CRAM.C0.20151117,,,CRAM.C0.20151117.POM.2,,,CRAM.C0.20151117.POM.1,,2015-11-17T22:00Z,300,300,,20211221T234040Z,RELEASE-2022
316737da-470f-4cb8-9bba-72379e0b8bf8,D05,CRAM,CRAM.AOS.littoral2,2016-02-02T15:00Z,CRAM.OT.20160202,,,CRAM.OT.20160202.POM.2,,,CRAM.OT.20160202.POM.1,,2016-02-02T19:15Z,500,500,,20211221T200512Z,RELEASE-2022
ce442d05-d7a6-41ba-b84a-fe995cae6c6c,D05,CRAM,CRAM.AOS.buoy.c0,2016-02-02T15:55Z,CRAM.C0.20160202,,,CRAM.C0.20160202.POM.2,,,CRAM.C0.20160202.POM.1,,2016-02-02T19:15Z,500,500,,20211221T200512Z,RELEASE-2022
eacc2906-9a32-45b6-970b-da94f186870b,D05,CRAM,CRAM.AOS.littoral1,2016-02-02T16:30Z,CRAM.IN.20160202,,,CRAM.IN.20160202.POM.2,,,CRAM.IN.20160202.POM.1,,2016-02-02T20:00Z,400,400,,20211221T200512Z,RELEASE-2022
d279372b-da7b-4cd9-84aa-48ff54a13154,D05,CRAM,CRAM.AOS.littoral2,2016-03-01T16:00Z,CRAM.OT.20160301,,,CRAM.OT.20160301.POM.2,,,CRAM.OT.20160301.POM.1,,2016-03-01T20:09Z,400,400,,20211221T195923Z,RELEASE-2022
56684d44-af29-470c-93dc-fd1df1b74438,D05,CRAM,CRAM.AOS.buoy.c0,2016-03-01T16:35Z,CRAM.C0.20160301,,,CRAM.C0.20160301.POM.2,,,CRAM.C0.20160301.POM.1,,2016-03-01T21:02Z,400,400,,20211221T195923Z,RELEASE-2022
2edc2909-2a1b-4f72-aff0-16f9b7e8a60c,D05,CRAM,CRAM.AOS.littoral1,2016-03-01T17:06Z,CRAM.IN.20160301,,,CRAM.IN.20160301.POM.2,,,CRAM.IN.20160301.POM.1,,2016-03-01T20:15Z,400,400,,20211221T195923Z,RELEASE-2022
8460ad04-9f81-47df-be26-28a322508d8e,D05,CRAM,CRAM.AOS.littoral2,2016-04-19T14:50Z,CRAM.OT.20160419,,,CRAM.OT.20160419.POM.2,,,CRAM.OT.20160419.POM.1,,2016-04-19T18:36Z,300,300,,20211221T225614Z,RELEASE-2022
ad79fbc5-77b0-441b-a549-80cdce9ab066,D05,CRAM,CRAM.AOS.littoral1,2016-04-19T15:25Z,CRAM.IN.20160419,,,CRAM.IN.20160419.POM.2,,,CRAM.IN.20160419.POM.1,,2016-04-19T18:36Z,300,300,,20211221T225614Z,RELEASE-2022
cdd4d411-3c84-4be4-af50-72acfdbfdc43,D05,CRAM,CRAM.AOS.buoy.c1,2016-04-19T16:25Z,CRAM.C1.20160419,,,CRAM.C1.20160419.POM.2,,,CRAM.C1.20160419.POM.1,,2016-04-19T19:02Z,350,350,,20211221T225614Z,RELEASE-2022
2a214955-4865-4eda-9f57-5c09a065422f,D05,CRAM,CRAM.AOS.buoy.c2,2016-04-19T17:00Z,CRAM.C2.20160419,,,CRAM.C2.20160419.POM.2,,,CRAM.C2.20160419.POM.1,,2016-04-19T19:20Z,300,300,,20211221T225614Z,RELEASE-2022
13d7acfb-2bcf-469a-9739-8266bd031b12,D05,CRAM,CRAM.AOS.littoral2,2016-05-10T14:25Z,CRAM.OT.20160510,,,CRAM.OT.20160510.POM.2,,,CRAM.OT.20160510.POM.1,,2016-05-10T18:20Z,400,400,,20211221T213653Z,RELEASE-2022
69420fea-1104-4783-a85e-92a2a430a670,D05,CRAM,CRAM.AOS.littoral1,2016-05-10T14:50Z,CRAM.IN.20160510,,,CRAM.IN.20160510.POM.2,,,CRAM.IN.20160510.POM.1,,2016-05-10T18:20Z,400,300,,20211221T213653Z,RELEASE-2022
cce90889-3a80-48b8-9ae8-22b5f349907a,D05,CRAM,CRAM.AOS.buoy.c1,2016-05-10T15:45Z,CRAM.C1.20160510,,,CRAM.C1.20160510.POM.2,,,CRAM.C1.20160510.POM.1,,2016-05-10T18:50Z,350,350,,20211221T213653Z,RELEASE-2022
0905a05f-a637-41ad-a274-d6aee087c19e,D05,CRAM,CRAM.AOS.buoy.c2,2016-05-10T16:00Z,CRAM.C2.20160510,,,CRAM.C2.20160510.POM.2,,,CRAM.C2.20160510.POM.1,,2016-05-10T19:20Z,400,300,,20211221T213653Z,RELEASE-2022
ba4fd1e5-8b01-4b16-98e5-4a8cd47c8164,D05,CRAM,CRAM.AOS.littoral2,2016-06-07T14:45Z,CRAM.OT.20160607,,,CRAM.OT.20160607.POM.2,,,CRAM.OT.20160607.POM.1,,2016-06-07T21:00Z,350,350,,20211222T001247Z,RELEASE-2022
461faf08-ca52-46e9-af40-2d3570b08224,D05,CRAM,CRAM.AOS.littoral1,2016-06-07T16:06Z,CRAM.IN.20160607,,,CRAM.IN.20160607.POM.2,,,CRAM.IN.20160607.POM.1,,2016-06-07T21:00Z,350,350,,20211222T001247Z,RELEASE-2022
ec91332c-9cff-411d-b2b6-466cc92b19b7,D05,CRAM,CRAM.AOS.buoy.c1,2016-06-07T18:40Z,CRAM.C1.20160607,,,CRAM.C1.20160607.POM.2,,,CRAM.C1.20160607.POM.1,,2016-06-07T21:45Z,350,350,,20211222T001247Z,RELEASE-2022
791db544-daae-4ac2-a199-3e93d4aa7292,D05,CRAM,CRAM.AOS.buoy.c2,2016-06-07T19:03Z,CRAM.C2.20160607,,,CRAM.C2.20160607.POM.2,,,CRAM.C2.20160607.POM.1,,2016-06-07T22:34Z,200,200,,20211222T001247Z,RELEASE-2022
924714c9-5b4f-46c4-b80b-5105e30fbddf,D05,CRAM,CRAM.AOS.littoral2,2016-07-05T15:15Z,CRAM.OT.20160705,,,CRAM.OT.20160705.POM.2,,,CRAM.OT.20160705.POM.1,,2016-07-05T19:46Z,300,300,,20211222T015420Z,RELEASE-2022
99cc4e15-a039-4eef-9231-7f99bd51a37c,D05,CRAM,CRAM.AOS.littoral1,2016-07-05T15:55Z,CRAM.IN.20160705,,,CRAM.IN.20160705.POM.2,,,CRAM.IN.20160705.POM.1,,2016-07-05T19:46Z,300,300,,20211222T015420Z,RELEASE-2022
e01bcdea-4e04-4f9f-8d50-67923fc42e34,D05,CRAM,CRAM.AOS.buoy.c1,2016-07-05T16:40Z,CRAM.C1.20160705,,,CRAM.C1.20160705.POM.2,,,CRAM.C1.20160705.POM.1,,2016-07-05T20:20Z,300,300,,20211222T015420Z,RELEASE-2022
ce2db3db-c480-40f4-b2e1-06f4b758ef10,D05,CRAM,CRAM.AOS.buoy.c2,2016-07-05T17:35Z,CRAM.C2.20160705,,,CRAM.C2.20160705.POM.2,,,CRAM.C2.20160705.POM.1,,2016-07-05T21:15Z,100,100,,20211222T015420Z,RELEASE-2022
9dd4f82f-770a-4e9a-a899-d2aad0da9416,D05,CRAM,CRAM.AOS.littoral2,2016-08-09T15:40Z,CRAM.OT.20160809,,,CRAM.OT.20160809.POM.2,,,CRAM.OT.20160809.POM.1,,2016-08-09T21:00Z,200,200,,20211221T231147Z,RELEASE-2022
860245b4-4ad1-46ff-af7d-02e23510b10d,D05,CRAM,CRAM.AOS.littoral1,2016-08-09T16:40Z,CRAM.IN.20160809,,,CRAM.IN.20160809.POM.2,,,CRAM.IN.20160809.POM.1,,2016-08-09T21:00Z,200,200,,20211221T231147Z,RELEASE-2022
1e446d6c-b312-4121-93e9-32c32214c79b,D05,CRAM,CRAM.AOS.buoy.c1,2016-08-09T18:20Z,CRAM.C1.20160809,,,CRAM.C1.20160809.POM.2,,,CRAM.C1.20160809.POM.1,,2016-08-09T22:00Z,200,200,,20211221T231147Z,RELEASE-2022
71233fcf-c723-4a6b-8497-04eccc2e5b92,D05,CRAM,CRAM.AOS.buoy.c2,2016-08-09T19:30Z,CRAM.C2.20160809,,,CRAM.C2.20160809.POM.2,,,CRAM.C2.20160809.POM.1,,2016-08-09T23:00Z,200,200,,20211221T231147Z,RELEASE-2022
74403495-edd1-4b3b-a450-36028969991d,D05,CRAM,CRAM.AOS.littoral2,2016-09-07T14:50Z,CRAM.OT.20160907,,,CRAM.OT.20160907.POM.2,,,CRAM.OT.20160907.POM.1,,2016-09-07T19:00Z,300,300,,20211221T195820Z,RELEASE-2022
705fd693-2fa1-4bee-a5a6-84e1c30a59f9,D05,CRAM,CRAM.AOS.littoral1,2016-09-07T15:20Z,CRAM.IN.20160907,,,CRAM.IN.20160907.POM.2,,,CRAM.IN.20160907.POM.1,,2016-09-07T19:10Z,300,300,,20211221T195820Z,RELEASE-2022
e5680632-3930-410c-854f-68009526564b,D05,CRAM,CRAM.AOS.buoy.c1,2016-09-07T16:15Z,CRAM.C1.20160907,,,CRAM.C1.20160907.POM.2,,,CRAM.C1.20160907.POM.1,,2016-09-07T19:45Z,300,300,,20211221T195820Z,RELEASE-2022
2112b9da-a0b8-47e8-83a4-b743a6c521ad,D05,CRAM,CRAM.AOS.buoy.c2,2016-09-07T16:45Z,CRAM.C2.20160907,,,CRAM.C2.20160907.POM.2,,,CRAM.C2.20160907.POM.1,,2016-09-07T20:45Z,200,200,,20211221T195820Z,RELEASE-2022
b52ea888-2d43-4a79-8293-ce7b7af41749,D05,CRAM,CRAM.AOS.littoral2,2016-09-27T15:57Z,CRAM.OT.20160927,,,CRAM.OT.20160927.POM.2,,,CRAM.OT.20160927.POM.1,,2016-09-27T19:20Z,301,300,,20211221T195820Z,RELEASE-2022
5dc50aa6-cc29-4971-8c3c-0928c72c2cbc,D05,CRAM,CRAM.AOS.littoral1,2016-09-27T16:30Z,CRAM.IN.20160927,,,CRAM.IN.20160927.POM.2,,,CRAM.IN.20160927.POM.1,,2016-09-27T19:20Z,300,300,,20211221T195820Z,RELEASE-2022
635000a1-f5e1-46da-8929-252f601f14f4,D05,CRAM,CRAM.AOS.buoy.c1,2016-09-27T17:20Z,CRAM.C1.20160927,,,CRAM.C1.20160927.POM.2,,,CRAM.C1.20160927.POM.1,,2016-09-27T20:40Z,250,250,,20211221T195820Z,RELEASE-2022
3ea44b1f-1272-4c87-955b-4813531736f3,D05,CRAM,CRAM.AOS.buoy.c2,2016-09-27T17:35Z,CRAM.C2.20160927,,,CRAM.C2.20160927.POM.2,,,CRAM.C2.20160927.POM.1,,2016-09-27T21:20Z,150,150,,20211221T195820Z,RELEASE-2022
77d2e1f6-b937-46bb-a529-b94117703895,D05,CRAM,CRAM.AOS.littoral2,2016-10-18T14:15Z,CRAM.OT.20161018,,,CRAM.OT.20161018.POM.2,,,CRAM.OT.20161018.POM.1,,2016-10-18T16:35Z,300,300,,20211222T040455Z,RELEASE-2022
8271c15d-7ea1-4331-bb6a-d5705bbeb9dc,D05,CRAM,CRAM.AOS.littoral1,2016-10-18T14:35Z,CRAM.IN.20161018,,,CRAM.IN.20161018.POM.2,,,CRAM.IN.20161018.POM.1,,2016-10-18T18:00Z,300,300,,20211222T040455Z,RELEASE-2022
e5e97cb5-3b8d-4aae-9f99-eb0b3aac2844,D05,CRAM,CRAM.AOS.buoy.c1,2016-10-18T15:20Z,CRAM.C1.20161018,,,CRAM.C1.20161018.POM.2,,,CRAM.C1.20161018.POM.1,,2016-10-18T19:10Z,250,250,,20211222T040455Z,RELEASE-2022
09194602-0f9c-4176-95da-8e24943cc335,D05,CRAM,CRAM.AOS.buoy.c2,2016-10-18T15:45Z,CRAM.C2.20161018,,,CRAM.C2.20161018.POM.2,,,CRAM.C2.20161018.POM.1,,2016-10-18T19:50Z,150,150,,20211222T040455Z,RELEASE-2022
6b206b3b-9e08-4bdf-8396-28a07bb28488,D05,CRAM,CRAM.AOS.littoral2,2016-11-08T15:55Z,CRAM.OT.20161108,,,CRAM.OT.20161108.POM.2,,,CRAM.OT.20161108.POM.1,,2016-11-08T18:55Z,250,250,,20211221T224402Z,RELEASE-2022
442d8459-84a4-4b70-8cc8-73541da229bd,D05,CRAM,CRAM.AOS.littoral1,2016-11-08T16:20Z,CRAM.IN.20161108,,,CRAM.IN.20161108.POM.2,,,CRAM.IN.20161108.POM.1,,2016-11-08T19:25Z,250,250,,20211221T224402Z,RELEASE-2022
c3995152-c7e4-45ea-8383-906fbb67b5a6,D05,CRAM,CRAM.AOS.buoy.c1,2016-11-08T17:15Z,CRAM.C1.20161108,,,CRAM.C1.20161108.POM.2,,,CRAM.C1.20161108.POM.1,,2016-11-08T19:50Z,200,200,,20211221T224402Z,RELEASE-2022
61eb532c-4e3d-4375-8f4c-349fabb3ea48,D05,CRAM,CRAM.AOS.buoy.c2,2016-11-08T17:45Z,CRAM.C2.20161108,,,CRAM.C2.20161108.POM.2,,,CRAM.C2.20161108.POM.1,,2016-11-08T20:15Z,200,200,,20211221T224402Z,RELEASE-2022
c1a0ea59-deba-40a7-82a9-cea084891cce,D05,CRAM,CRAM.AOS.littoral2,2016-11-21T15:10Z,CRAM.OT.20161121,,,CRAM.OT.20161121.POM.2,,,CRAM.OT.20161121.POM.1,,2016-11-21T17:45Z,350,350,,20211221T224402Z,RELEASE-2022
fe5a7fe1-3e89-4b71-bbcf-cfb626eab18f,D05,CRAM,CRAM.AOS.littoral1,2016-11-21T15:35Z,CRAM.IN.20161121,,,CRAM.IN.20161121.POM.2,,,CRAM.IN.20161121.POM.1,,2016-11-21T18:45Z,200,200,,20211221T224402Z,RELEASE-2022
378ee07f-d38d-4766-b035-dbaabb9fa443,D05,CRAM,CRAM.AOS.buoy.c0,2016-11-21T16:15Z,CRAM.C0.20161121,,,CRAM.C0.20161121.POM.2,,,CRAM.C0.20161121.POM.1,,2016-11-21T19:15Z,200,200,,20211221T224402Z,RELEASE-2022
d3b1146e-3229-426e-a484-e3a30e42ab7b,D05,CRAM,CRAM.AOS.buoy.c0,2017-02-07T17:15Z,CRAM.C0.20170207,,,CRAM.C0.20170207.POM.2,,,CRAM.C0.20170207.POM.1,,2017-02-07T19:20Z,300,300,,20211222T005730Z,RELEASE-2022
1514c3f8-2771-4182-a288-66e0b094b565,D05,CRAM,CRAM.AOS.buoy.c0,2017-03-08T15:30Z,CRAM.C0.20170308,,,CRAM.C0.20170308.POM.2,,,CRAM.C0.20170308.POM.1,,2017-03-08T17:15Z,400,400,,20211221T233124Z,RELEASE-2022
6d4616b6-69a1-43b0-9d2e-ada0090c6d42,D05,CRAM,CRAM.AOS.littoral2,2017-04-18T14:20Z,CRAM.OT.20170418,,,CRAM.OT.20170418.POM.2,,,CRAM.OT.20170418.POM.1,,2017-04-18T19:27Z,200,200,,20211222T041812Z,RELEASE-2022
08c19575-6779-41a3-8a67-890ab6ab4a27,D05,CRAM,CRAM.AOS.littoral1,2017-04-18T14:55Z,CRAM.IN.20170418,,,CRAM.IN.20170418.POM.2,,,CRAM.IN.20170418.POM.1,,2017-04-18T19:53Z,200,200,,20211222T041812Z,RELEASE-2022
e1e38ff4-5721-4117-8590-8e9dee84b3ed,D05,CRAM,CRAM.AOS.buoy.c1,2017-04-18T15:45Z,CRAM.C1.20170418,,,CRAM.C1.20170418.POM.2,,,CRAM.C1.20170418.POM.1,,2017-04-18T20:08Z,200,200,,20211222T041812Z,RELEASE-2022
6e613000-e12c-4e9c-8093-31f26e254794,D05,CRAM,CRAM.AOS.buoy.c2,2017-04-18T16:30Z,CRAM.C2.20170418,,,CRAM.C2.20170418.POM.2,,,CRAM.C2.20170418.POM.1,,2017-04-18T20:30Z,150,150,,20211222T041812Z,RELEASE-2022
1e7e8c22-18a8-4c91-8721-f10e22dfbcb5,D05,CRAM,CRAM.AOS.littoral2,2017-05-02T14:55Z,CRAM.OT.20170502,,Cold chain broken,CRAM.OT.20170502.POM.2,,Cold chain broken,CRAM.OT.20170502.POM.1,,2017-05-02T18:26Z,150,150,,20211222T015857Z,RELEASE-2022
028ba7f6-eff0-4c61-bb0f-973f2dd2e4fa,D05,CRAM,CRAM.AOS.littoral1,2017-05-02T15:25Z,CRAM.IN.20170502,,Cold chain broken,CRAM.IN.20170502.POM.2,,Cold chain broken,CRAM.IN.20170502.POM.1,,2017-05-02T18:43Z,150,150,,20211222T015857Z,RELEASE-2022
e6f09895-cd34-41f1-aa90-3ffeaa8736d8,D05,CRAM,CRAM.AOS.buoy.c1,2017-05-02T16:13Z,CRAM.C1.20170502,,Cold chain broken,CRAM.C1.20170502.POM.2,,Cold chain broken,CRAM.C1.20170502.POM.1,,2017-05-02T19:20Z,150,150,,20211222T015857Z,RELEASE-2022
af5ca8fb-3bea-4af9-b1ec-b17c2545211d,D05,CRAM,CRAM.AOS.buoy.c2,2017-05-02T16:27Z,CRAM.C2.20170502,,Cold chain broken,CRAM.C2.20170502.POM.2,,Cold chain broken,CRAM.C2.20170502.POM.1,,2017-05-02T19:19Z,150,150,,20211222T015857Z,RELEASE-2022
a0ebfd7c-6d29-4821-bd3d-c18c924c8982,D05,CRAM,CRAM.AOS.littoral2,2017-06-06T14:38Z,CRAM.OT.20170606,,Sample condition ok,,,Cold chain broken,CRAM.OT.20170606.POM.1,,2017-06-06T18:06Z,200,,,20211222T004758Z,RELEASE-2022
1ff7e67d-faaf-4315-9028-b0440a26c023,D05,CRAM,CRAM.AOS.littoral1,2017-06-06T15:03Z,CRAM.IN.20170606,,Sample condition ok,,,Cold chain broken,CRAM.IN.20170606.POM.1,,2017-06-06T18:21Z,200,,,20211222T004758Z,RELEASE-2022
53406541-4e3a-4069-84cb-2aa994e125be,D05,CRAM,CRAM.AOS.buoy.c1,2017-06-06T15:34Z,CRAM.C1.20170606,,Sample condition ok,,,Cold chain broken,CRAM.C1.20170606.POM.1,,2017-06-06T18:22Z,200,,,20211222T004758Z,RELEASE-2022
6158245a-a16d-4498-b7c2-18cbd50f07bf,D05,CRAM,CRAM.AOS.buoy.c2,2017-06-06T16:21Z,CRAM.C2.20170606,,Sample condition ok,,,Cold chain broken,CRAM.C2.20170606.POM.1,,2017-06-06T18:40Z,150,,,20211222T004758Z,RELEASE-2022
ca16709b-7939-4333-93de-286418749d44,D05,CRAM,CRAM.AOS.littoral2,2017-07-11T14:41Z,CRAM.OT.20170711,,Sample condition ok,,,Sample condition ok,CRAM.OT.20170711.POM.1,,2017-07-11T19:39Z,300,,,20211222T040035Z,RELEASE-2022
ccebb0a1-13f8-4275-8ce7-8a48650b2411,D05,CRAM,CRAM.AOS.littoral1,2017-07-11T15:11Z,CRAM.IN.20170711,,Sample condition ok,,,Sample condition ok,CRAM.IN.20170711.POM.1,,2017-07-11T20:46Z,250,,,20211222T040035Z,RELEASE-2022
bb6453b7-b57f-4fb3-8b05-13cae1004084,D05,CRAM,CRAM.AOS.buoy.c1,2017-07-11T16:22Z,CRAM.C1.20170711,,Sample condition ok,,,Sample condition ok,CRAM.C1.20170711.POM.1,,2017-07-11T20:49Z,250,,,20211222T040035Z,RELEASE-2022
6749c589-d381-452b-872f-0987004c67ad,D05,CRAM,CRAM.AOS.buoy.c2,2017-07-11T16:23Z,CRAM.C2.20170711,,Sample condition ok,,,Sample condition ok,CRAM.C2.20170711.POM.1,,2017-07-11T21:35Z,200,,,20211222T040035Z,RELEASE-2022
43b96e5b-3f0d-43b6-ab91-ad3d894911f4,D05,CRAM,CRAM.AOS.littoral2,2017-08-01T14:16Z,CRAM.OT.20170801,,Sample condition ok,,,Sample condition ok,CRAM.OT.20170801.POM.1,,2017-08-01T17:53Z,250,,,20211222T032743Z,RELEASE-2022
d9c6cb70-4be4-4691-907c-a864887c1289,D05,CRAM,CRAM.AOS.littoral1,2017-08-01T14:58Z,CRAM.IN.20170801,,Sample condition ok,,,Sample condition ok,CRAM.IN.20170801.POM.1,,2017-08-01T18:48Z,250,,,20211222T032743Z,RELEASE-2022
2dfd7042-9d3e-45a1-9acd-232eb8e0dc24,D05,CRAM,CRAM.AOS.buoy.c1,2017-08-01T15:43Z,CRAM.C1.20170801,,Sample condition ok,,,Sample condition ok,CRAM.C1.20170801.POM.1,,2017-08-01T17:00Z,200,,,20211222T032743Z,RELEASE-2022
245a2a9e-6ac1-4e88-bbe1-76b46e48a822,D05,CRAM,CRAM.AOS.buoy.c2,2017-08-01T15:59Z,CRAM.C2.20170801,,Sample condition ok,,,Sample condition ok,CRAM.C2.20170801.POM.1,,2017-08-01T19:25Z,250,,,20211222T032743Z,RELEASE-2022
ac1aba8d-92d0-4a10-b85e-6e4eb677843a,D05,CRAM,CRAM.AOS.littoral2,2017-08-29T14:25Z,CRAM.OT.20170829,,Sample condition ok,,,Sample condition ok,CRAM.OT.20170829.POM.1,,2017-08-29T17:50Z,200,,,20211222T032743Z,RELEASE-2022
9c36af2e-de4f-489e-9d91-6ec544aa3dba,D05,CRAM,CRAM.AOS.littoral1,2017-08-29T14:42Z,CRAM.IN.20170829,,Sample condition ok,,,Sample condition ok,CRAM.IN.20170829.POM.1,,2017-08-29T18:53Z,200,,,20211222T032743Z,RELEASE-2022
ce45e900-1cb5-4267-b8de-d6571f37b9d3,D05,CRAM,CRAM.AOS.buoy.c1,2017-08-29T15:25Z,CRAM.C1.20170829,,Sample condition ok,,,Sample condition ok,CRAM.C1.20170829.POM.1,,2017-08-29T19:55Z,200,,,20211222T032743Z,RELEASE-2022
77ed86cd-cb2e-443b-87f9-41a3d77b2e43,D05,CRAM,CRAM.AOS.buoy.c2,2017-08-29T15:40Z,CRAM.C2.20170829,,Sample condition ok,,,Sample condition ok,CRAM.C2.20170829.POM.1,,2017-08-29T21:16Z,200,,,20211222T032743Z,RELEASE-2022
3bd3496d-8697-4e22-8752-69a668dcc9c8,D05,CRAM,CRAM.AOS.littoral2,2017-10-03T14:40Z,CRAM.OT.20171003,,Sample condition ok,"",,Sample condition ok,CRAM.OT.20171003.POM.1,,2017-10-03T18:37Z,200,,,20211221T214906Z,RELEASE-2022
284a6d7c-8b77-4535-af8f-7b8faf7aebeb,D05,CRAM,CRAM.AOS.littoral1,2017-10-03T15:01Z,CRAM.IN.20171003,,Sample condition ok,"",,Sample condition ok,CRAM.IN.20171003.POM.1,,2017-10-03T19:40Z,200,,,20211221T214906Z,RELEASE-2022
2a81102d-72d0-4fe0-af09-41c6a660126c,D05,CRAM,CRAM.AOS.buoy.c1,2017-10-03T16:11Z,CRAM.C1.20171003,,Sample condition ok,"",,Sample condition ok,CRAM.C1.20171003.POM.1,,2017-10-03T19:40Z,200,,,20211221T214906Z,RELEASE-2022
fb2ac60d-7656-43a6-8a14-25b269f63570,D05,CRAM,CRAM.AOS.buoy.c2,2017-10-03T16:55Z,CRAM.C2.20171003,,Sample condition ok,"",,Sample condition ok,CRAM.C2.20171003.POM.1,,"",250,,,20211221T214906Z,RELEASE-2022
201ff4d8-0d48-4b2a-9ba5-c41cc29c5d7c,D05,CRAM,CRAM.AOS.littoral2,2017-10-16T14:49Z,CRAM.OT.20171016,,Sample condition ok,CRAM.OT.20171016.POM.2,,Sample condition ok,CRAM.OT.20171016.POM.1,,2017-10-16T18:23Z,200,200,,20211221T214906Z,RELEASE-2022
d2064720-e03a-43a3-aef5-5b29be0fecda,D05,CRAM,CRAM.AOS.littoral1,2017-10-16T15:32Z,CRAM.IN.20171016,,Sample condition ok,CRAM.IN.20171016.POM.2,,Sample condition ok,CRAM.IN.20171016.POM.1,,2017-10-16T19:01Z,200,200,,20211221T214906Z,RELEASE-2022
56f1c8c0-6d5b-4879-9b7b-866059cd8514,D05,CRAM,CRAM.AOS.buoy.c1,2017-10-16T16:02Z,CRAM.C1.20171016,,Sample condition ok,CRAM.C1.20171016.POM.2,,Sample condition ok,CRAM.C1.20171016.POM.1,,2017-10-16T20:39Z,200,200,,20211221T214906Z,RELEASE-2022
d66a097c-ad9f-4eda-b9b2-574dc903fc15,D05,CRAM,CRAM.AOS.buoy.c2,2017-10-16T16:16Z,CRAM.C2.20171016,,Sample condition ok,CRAM.C2.20171016.POM.2,,Sample condition ok,CRAM.C2.20171016.POM.1,,2017-10-16T21:48Z,150,150,,20211221T214906Z,RELEASE-2022
9120d3c3-db3b-44f5-a424-79787dd2150a,D05,CRAM,CRAM.AOS.littoral2,2017-11-07T16:10Z,CRAM.OT.20171107,,Sample condition ok,CRAM.OT.20171107.POM.2,,Sample condition ok,CRAM.OT.20171107.POM.1,,2017-11-07T19:56Z,250,250,,20211221T234113Z,RELEASE-2022
4b287f51-5aee-4141-8686-3c27464bcda5,D05,CRAM,CRAM.AOS.littoral1,2017-11-07T16:28Z,CRAM.IN.20171107,,Sample condition ok,CRAM.IN.20171107.POM.2,,Sample condition ok,CRAM.IN.20171107.POM.1,,2017-11-07T20:36Z,250,250,,20211221T234113Z,RELEASE-2022
ddb0a740-078d-4029-9425-f64c831580d5,D05,CRAM,CRAM.AOS.buoy.c0,2017-11-07T17:08Z,CRAM.C0.20171107,,Sample condition ok,CRAM.C0.20171107.POM.2,,Sample condition ok,CRAM.C0.20171107.POM.1,,2017-11-07T21:02Z,200,200,,20211221T234113Z,RELEASE-2022
c81ae29e-117a-4430-b0b4-25aeb1785e64,D05,CRAM,CRAM.AOS.buoy.c0,2018-02-13T18:28Z,CRAM.C0.20180213,,Sample condition ok,CRAM.C0.20180213.POM.2,,Sample condition ok,CRAM.C0.20180213.POM.1,,2018-02-13T20:13Z,300,300,,20211221T221332Z,RELEASE-2022
a814958a-67ea-411f-afa8-f98610c3db1f,D05,CRAM,CRAM.AOS.buoy.c0,2018-03-05T15:30Z,CRAM.C0.20180305,,Sample condition ok,CRAM.C0.20180305.POM.2,,Sample condition ok,CRAM.C0.20180305.POM.1,,2018-03-05T16:48Z,300,300,,20211221T230445Z,RELEASE-2022
e98a3551-792b-4ad5-8345-629c27f8295b,D05,CRAM,CRAM.AOS.buoy.c1,2018-05-07T15:38Z,CRAM.C1.20180507,,Sample condition ok,CRAM.C1.20180507.POM.2,A00000007819,Sample condition ok,CRAM.C1.20180507.POM.1,A00000007818,"",250,250,,20211222T005421Z,RELEASE-2022
ee409bd1-b9bb-459a-a53b-2044327e1aae,D05,CRAM,CRAM.AOS.buoy.c2,2018-05-07T16:29Z,CRAM.C2.20180507,,Sample condition ok,CRAM.C2.20180507.POM.2,A00000007825,Sample condition ok,CRAM.C2.20180507.POM.1,A00000007824,"",250,250,,20211222T005421Z,RELEASE-2022
fbd67c77-6b11-4178-ab28-951c5dafef9a,D05,CRAM,CRAM.AOS.buoy.c2,2018-05-22T15:44Z,CRAM.C2.20180522,,Sample condition ok,CRAM.C2.20180522.POM.2,A00000007677,Sample condition ok,CRAM.C2.20180522.POM.1,A00000007711,2018-05-22T18:10Z,250,250,,20211222T005421Z,RELEASE-2022
1bcaf830-db3e-4a54-a6e5-c7de1a078bcd,D05,CRAM,CRAM.AOS.buoy.c1,2018-05-22T15:45Z,CRAM.C1.20180522,,Sample condition ok,CRAM.C1.20180522.POM.2,A00000007728,Sample condition ok,CRAM.C1.20180522.POM.1,A00000007694,"",250,250,,20211222T005421Z,RELEASE-2022
6cee5493-30da-4ffd-84ea-6f0b27eee78f,D05,CRAM,CRAM.AOS.buoy.c2,2018-06-05T17:20Z,CRAM.C2.20180605,,Sample condition ok,CRAM.C2.20180605.POM.2,A00000007709,Sample condition ok,CRAM.C2.20180605.POM.1,A00000007708,2018-06-05T20:19Z,150,150,,20211221T202427Z,RELEASE-2022
47b0d0ab-0303-44e8-ad10-f5609b91e340,D05,CRAM,CRAM.AOS.buoy.c1,2018-06-05T17:40Z,CRAM.C1.20180605,,Sample condition ok,CRAM.C1.20180605.POM.2,A00000007706,Sample condition ok,CRAM.C1.20180605.POM.1,A00000007705,2018-06-05T20:06Z,200,200,,20211221T202427Z,RELEASE-2022
9dc46a33-0e5a-45fd-a9be-f9c56e2f2956,D05,CRAM,CRAM.AOS.buoy.c1,2018-07-10T16:03Z,CRAM.C1.20180710,,Sample condition ok,CRAM.C1.20180710.POM.2,A00000007576,Sample condition ok,CRAM.C1.20180710.POM.1,A00000007575,2018-07-10T18:17Z,200,200,,20211222T041424Z,RELEASE-2022
a5021ed3-3065-401b-aefb-e4ead0196c79,D05,CRAM,CRAM.AOS.buoy.c2,2018-07-10T16:28Z,CRAM.C2.20180710,,Sample condition ok,CRAM.C2.20180710.POM.2,A00000007579,Sample condition ok,CRAM.C2.20180710.POM.1,A00000007578,2018-07-10T19:01Z,150,150,,20211222T041424Z,RELEASE-2022
b55a5b7b-4d7b-4f93-87b8-2fa34e7a659e,D05,CRAM,CRAM.AOS.buoy.c1,2018-08-07T15:38Z,CRAM.C1.20180807,,Sample condition ok,CRAM.C1.20180807.POM.2,A00000007458,Sample condition ok,CRAM.C1.20180807.POM.1,A00000007457,2018-08-07T18:20Z,120,120,,20211222T011252Z,RELEASE-2022
009acb08-86cf-4877-844b-5eedc73b096d,D05,CRAM,CRAM.AOS.buoy.c2,2018-08-07T15:39Z,CRAM.C2.20180807,,Sample condition ok,CRAM.C2.20180807.POM.2,A00000007461,Sample condition ok,CRAM.C2.20180807.POM.1,A00000007460,"",180,180,,20211222T011252Z,RELEASE-2022
d823434f-f139-4745-9533-bc80a2b8de51,D05,CRAM,CRAM.AOS.buoy.c2,2018-09-11T14:16Z,CRAM.C2.20180911,,Sample condition ok,CRAM.C2.20180911.POM.2,A00000007272,Sample condition ok,CRAM.C2.20180911.POM.1,A00000007271,"",130,130,,20211221T204416Z,RELEASE-2022
74521cd5-04ec-41e3-901c-f8228f56a535,D05,CRAM,CRAM.AOS.buoy.c1,2018-09-11T14:58Z,CRAM.C1.20180911,,Sample condition ok,CRAM.C1.20180911.POM.2,A00000007270,Sample condition ok,CRAM.C1.20180911.POM.1,A00000007388,2018-09-11T16:18Z,150,150,,20211221T204416Z,RELEASE-2022
2cdea873-2bac-48b3-ac56-a0c43140b483,D05,CRAM,CRAM.AOS.buoy.c1,2018-10-02T15:58Z,CRAM.C1.20181002,,Sample condition ok,CRAM.C1.20181002.POM.2,A00000007395,Sample condition ok,CRAM.C1.20181002.POM.1,A00000007379,2018-10-02T17:35Z,150,150,,20211222T030151Z,RELEASE-2022
2cca3b77-90ee-4ab3-b090-da311bdd2dcf,D05,CRAM,CRAM.AOS.buoy.c2,2018-10-02T15:59Z,CRAM.C2.20181002,,Sample condition ok,CRAM.C2.20181002.POM.2,A00000007364,Sample condition ok,CRAM.C2.20181002.POM.1,A00000007397,2018-10-02T17:36Z,150,150,,20211222T030151Z,RELEASE-2022
ec9794fb-f364-4c6b-9fa4-4c38abf7e2e0,D05,CRAM,CRAM.AOS.buoy.c1,2018-10-16T16:35Z,CRAM.C1.20181016,,Sample condition ok,CRAM.C1.20181016.POM.2,A00000040773,Sample condition ok,CRAM.C1.20181016.POM.1,A00000040772,2018-10-17T20:55Z,200,200,,20211222T030151Z,RELEASE-2022
f739eacb-dca7-4149-85e0-cf87657c7ea3,D05,CRAM,CRAM.AOS.buoy.c2,2018-10-16T16:49Z,CRAM.C2.20181016,,Sample condition ok,CRAM.C2.20181016.POM.2,A00000040775,Sample condition ok,CRAM.C2.20181016.POM.1,A00000040774,2018-10-17T21:07Z,100,100,,20211222T030151Z,RELEASE-2022
adef4de4-b253-42d7-8cbd-6e7b423505e6,D05,CRAM,CRAM.AOS.buoy.c0,2018-11-06T16:42Z,CRAM.C0.20181106,,Sample condition ok,CRAM.C0.20181106.POM.2,A00000040865,Sample condition ok,CRAM.C0.20181106.POM.1,A00000040882,2018-11-06T18:00Z,250,250,,20211221T211156Z,RELEASE-2022
94ac7703-46c1-42fa-91a4-215ed08cad6a,D05,CRAM,CRAM.AOS.buoy.c0,2019-01-07T16:35Z,CRAM.C0.20190107,,Sample condition ok,CRAM.C0.20190107.POM.2,A00000040847,Sample condition ok,CRAM.C0.20190107.POM.1,A00000040830,2019-01-07T19:00Z,200,200,,20211222T024013Z,RELEASE-2022
9dfd67cb-bf6f-40e0-ac11-791bc94f8f48,D05,CRAM,CRAM.AOS.buoy.c0,2019-02-18T17:45Z,CRAM.C0.20190218,,Sample condition ok,CRAM.C0.20190218.POM.2,A00000007386,Sample condition ok,CRAM.C0.20190218.POM.1,A00000007385,2019-02-18T19:30Z,200,200,,20211222T011626Z,RELEASE-2022
3a1faeec-8581-4b88-ac12-e9035aadf303,D05,CRAM,CRAM.AOS.buoy.c0,2019-03-04T20:19Z,CRAM.C0.20190304,,Sample condition ok,CRAM.C0.20190304.POM.2,A00000040647,Sample condition ok,CRAM.C0.20190304.POM.1,A00000040646,2019-03-04T22:11Z,350,350,,20211221T222604Z,RELEASE-2022
2b7ba0a0-4d06-4f3f-b4e6-3bc4974e8359,D05,CRAM,CRAM.AOS.buoy.c0,2019-05-01T15:11Z,CRAM.C0.20190501,,Sample condition ok,CRAM.C0.20190501.POM.2,A00000076007,Sample condition ok,CRAM.C0.20190501.POM.1,A00000076006,2019-05-01T16:16Z,250,250,,20211222T004320Z,RELEASE-2022
021a5ef8-1582-4d51-b186-86ebbb159719,D05,CRAM,CRAM.AOS.buoy.c1,2019-05-22T14:51Z,CRAM.C1.20190522,,Sample condition ok,CRAM.C1.20190522.POM.2,A00000076388,Sample condition ok,CRAM.C1.20190522.POM.1,A00000076389,2019-05-22T17:37Z,200,200,,20211222T004320Z,RELEASE-2022
9bf3a63d-8ef2-446c-9101-fb9971537076,D05,CRAM,CRAM.AOS.buoy.c2,2019-05-22T15:15Z,CRAM.C2.20190522,,Sample condition ok,CRAM.C2.20190522.POM.2,A00000076385,Sample condition ok,CRAM.C2.20190522.POM.1,A00000076366,"",200,200,,20211222T004320Z,RELEASE-2022
a2cd576a-bcd3-4c43-a18f-b49dce5fc919,D05,CRAM,CRAM.AOS.buoy.c1,2019-06-04T17:20Z,CRAM.C1.20190604,,Sample condition ok,CRAM.C1.20190604.POM.2,A00000076343,Sample condition ok,CRAM.C1.20190604.POM.1,A00000076342,"",300,300,,20211222T033010Z,RELEASE-2022
99892852-7b7b-4bee-a372-61216c699e91,D05,CRAM,CRAM.AOS.buoy.c2,2019-06-04T17:42Z,CRAM.C2.20190604,,Sample condition ok,CRAM.C2.20190604.POM.2,A00000076345,Sample condition ok,CRAM.C2.20190604.POM.1,A00000076344,2019-06-04T19:25Z,300,300,,20211222T033010Z,RELEASE-2022
f4fd181a-151e-42ea-9427-870ce7d17566,D05,CRAM,CRAM.AOS.buoy.c1,2019-07-09T14:55Z,CRAM.C1.20190709,,Sample condition ok,CRAM.C1.20190709.POM.2,A00000076665,Sample condition ok,CRAM.C1.20190709.POM.1,A00000076633,2019-07-09T17:19Z,200,200,,20211222T030634Z,RELEASE-2022
1b5fbc97-2e7a-46bb-aee7-ec2a464d6836,D05,CRAM,CRAM.AOS.buoy.c2,2019-07-09T15:20Z,CRAM.C2.20190709,,Sample condition ok,CRAM.C2.20190709.POM.2,A00000076649,Sample condition ok,CRAM.C2.20190709.POM.1,A00000076634,2019-07-09T18:10Z,200,200,,20211222T030634Z,RELEASE-2022
11720154-c50f-442d-8dfa-7fe57cfbe004,D05,CRAM,CRAM.AOS.buoy.c1,2019-08-06T15:46Z,CRAM.C1.20190806,,Sample condition ok,CRAM.C1.20190806.POM.2,A00000077668,Sample condition ok,CRAM.C1.20190806.POM.1,A00000077667,2019-08-06T18:25Z,200,200,,20211221T214901Z,RELEASE-2022
259bb202-dd7c-470e-ad64-7d5052c8027c,D05,CRAM,CRAM.AOS.buoy.c2,2019-08-06T16:06Z,CRAM.C2.20190806,,Sample condition ok,CRAM.C2.20190806.POM.2,A00000077669,Sample condition ok,CRAM.C2.20190806.POM.1,A00000077670,2019-08-06T18:20Z,140,140,,20211221T214901Z,RELEASE-2022
966f89de-73b0-426d-8e0b-4124d2f0d2bc,D05,CRAM,CRAM.AOS.buoy.c1,2019-09-09T14:53Z,CRAM.C1.20190909,,Sample condition ok,CRAM.C1.20190909.POM.2,A00000077685,Sample condition ok,CRAM.C1.20190909.POM.1,A00000077683,2019-09-09T17:31Z,175,175,,20211222T003257Z,RELEASE-2022
a16e6260-7d21-40b7-b347-dcb07231f636,D05,CRAM,CRAM.AOS.buoy.c1,2019-09-09T14:53Z,CRAM.C1.20190909,,"","","","","","","",,,,20211222T003257Z,RELEASE-2022
39ee0389-a9e9-43f2-be9b-46522d078327,D05,CRAM,CRAM.AOS.buoy.c1,2019-09-09T14:53Z,CRAM.C1.20190909,,"","","","","","","",,,,20211222T003257Z,RELEASE-2022
da256fc9-5968-4808-9373-0433d9e1f4ae,D05,CRAM,CRAM.AOS.buoy.c2,2019-09-09T15:43Z,CRAM.C2.20190909,,Sample condition ok,CRAM.C2.20190909.POM.2,A00000077399,Sample condition ok,CRAM.C2.20190909.POM.1,A00000077398,2019-09-09T18:22Z,175,175,,20211222T003257Z,RELEASE-2022
27333c0c-b2aa-45c7-90bf-3146b563a1d8,D05,CRAM,CRAM.AOS.buoy.c2,2019-09-09T15:43Z,CRAM.C2.20190909,,"","","","","","","",,,,20211222T003257Z,RELEASE-2022
c64aed35-b265-4e4a-83f8-72cda009d08e,D05,CRAM,CRAM.AOS.buoy.c2,2019-09-09T15:43Z,CRAM.C2.20190909,,"","","","","","","",,,,20211222T003257Z,RELEASE-2022
0544d4ac-3983-4dc9-96b1-c1b5a5180d31,D05,CRAM,CRAM.AOS.buoy.c1,2019-10-01T14:53Z,CRAM.C1.20191001,,Sample condition ok,CRAM.C1.20191001.POM.2,A00000078806,Sample condition ok,CRAM.C1.20191001.POM.1,A00000078805,2019-10-01T16:54Z,200,200,,20211222T001546Z,RELEASE-2022
7703a0d4-992d-45c0-b21a-4fb7eb5eb522,D05,CRAM,CRAM.AOS.buoy.c2,2019-10-01T15:06Z,CRAM.C2.20191001,,Sample condition ok,CRAM.C2.20191001.POM.2,A00000078803,Sample condition ok,CRAM.C2.20191001.POM.1,A00000078802,2019-10-01T17:15Z,200,200,,20211222T001546Z,RELEASE-2022
3f08f48b-7909-4fba-ad81-7a8dbc2dbdb2,D05,CRAM,CRAM.AOS.buoy.c1,2019-10-15T14:41Z,CRAM.C1.20191015,,Sample condition ok,CRAM.C1.20191015.POM.2,A00000078948,Sample condition ok,CRAM.C1.20191015.POM.1,A00000078949,2019-10-15T16:25Z,250,250,,20211222T001546Z,RELEASE-2022
07197fa8-9922-4ff6-a548-c476222959f6,D05,CRAM,CRAM.AOS.buoy.c1,2019-10-15T14:41Z,CRAM.C1.20191015,,"","","","","","","",,,,20211222T001546Z,RELEASE-2022
a8dc7537-be3d-41fe-b657-6316bd31c442,D05,CRAM,CRAM.AOS.buoy.c1,2019-10-15T14:41Z,CRAM.C1.20191015,,"","","","","","","",,,,20211222T001546Z,RELEASE-2022
94607ad3-a573-481b-8f27-053458535a80,D05,CRAM,CRAM.AOS.buoy.c2,2019-10-15T15:10Z,CRAM.C2.20191015,,"","","","","","","",,,,20211222T001546Z,RELEASE-2022
7084aed3-2f0d-458a-9125-b0f7e389631b,D05,CRAM,CRAM.AOS.buoy.c2,2019-10-15T15:10Z,CRAM.C2.20191015,,"","","","","","","",,,,20211222T001546Z,RELEASE-2022
20b3d436-e958-41d1-9b13-fda5d9e6c4e3,D05,CRAM,CRAM.AOS.buoy.c2,2019-10-15T15:10Z,CRAM.C2.20191015,,Sample condition ok,CRAM.C2.20191015.POM.2,A00000078933,Sample condition ok,CRAM.C2.20191015.POM.1,A00000078932,2019-10-15T17:15Z,200,200,,20211222T001546Z,RELEASE-2022
4229377b-8eee-4fc1-9b85-fcccb9d7b510,D05,CRAM,CRAM.AOS.buoy.c0,2019-11-05T15:37Z,CRAM.C0.20191105,,Sample condition ok,CRAM.C0.20191105.POM.2,A00000078049,Sample condition ok,CRAM.C0.20191105.POM.1,A00000078050,,250,250,,20211221T204951Z,RELEASE-2022
8caacab5-6e6e-4d2d-bbe7-7407199a5159,D05,CRAM,CRAM.AOS.buoy.c0,2020-01-06T17:24Z,CRAM.C0.20200106,,Sample condition ok,CRAM.C0.20200106.POM.2,A00000079223,Sample condition ok,CRAM.C0.20200106.POM.1,A00000079222,2020-01-06T17:24Z,250,250,,20211222T005637Z,PROVISIONAL
de4638b5-400e-42d1-ad96-5d4b39a21128,D05,CRAM,CRAM.AOS.buoy.c0,2020-02-03T16:47Z,CRAM.C0.20200203,,Sample condition ok,CRAM.C0.20200203.POM.2,A00000201567,Sample condition ok,CRAM.C0.20200203.POM.1,A00000201568,2020-02-03T19:25Z,300,300,,20211221T220646Z,PROVISIONAL
d1d1f5e8-94bf-4405-aa3f-2480da7b1340,D05,CRAM,CRAM.AOS.buoy.c0,2020-03-02T15:55Z,CRAM.C0.20200302,,Sample condition ok,CRAM.C0.20200302.POM.2,A00000201587,Sample condition ok,CRAM.C0.20200302.POM.1,A00000201586,2020-03-02T18:59Z,200,200,,20211222T011641Z,PROVISIONAL
2787329d-385c-4dfe-b9a8-58eb1944e80b,D05,CRAM,CRAM.AOS.buoy.c1,2020-07-06T13:35Z,CRAM.C1.20200706,,"","","","","","","",,,,20211222T034052Z,PROVISIONAL
f829f49c-8df0-45f6-a477-bce9b5a20429,D05,CRAM,CRAM.AOS.buoy.c1,2020-07-06T13:35Z,CRAM.C1.20200706,,"","","","","","","",,,,20211222T034052Z,PROVISIONAL
c5a80b9b-f102-4754-9ff1-bc0c58f13760,D05,CRAM,CRAM.AOS.buoy.c1,2020-07-06T13:35Z,CRAM.C1.20200706,,Sample condition ok,CRAM.C1.20200706.POM.2,A00000203235,Sample condition ok,CRAM.C1.20200706.POM.1,A00000203234,"",200,200,,20211222T034052Z,PROVISIONAL
de651a68-84d8-4ff5-8272-428517958c87,D05,CRAM,CRAM.AOS.buoy.c2,2020-07-06T13:51Z,CRAM.C2.20200706,,"","","","","","","",,,,20211222T034052Z,PROVISIONAL
a1b4b983-ae5d-4f77-88d5-1d478cfa9ad2,D05,CRAM,CRAM.AOS.buoy.c2,2020-07-06T13:51Z,CRAM.C2.20200706,,"","","","","","","",,,,20211222T034052Z,PROVISIONAL
ed439060-2f12-4e75-a720-02712fd1fa9b,D05,CRAM,CRAM.AOS.buoy.c2,2020-07-06T13:51Z,CRAM.C2.20200706,,Sample condition ok,CRAM.C2.20200706.POM.2,A00000203242,Sample condition ok,CRAM.C2.20200706.POM.1,A00000203243,2020-07-06T16:00Z,200,200,,20211222T034052Z,PROVISIONAL
77266aa3-96c2-4b8e-b7f2-0eaeaad094f6,D05,CRAM,CRAM.AOS.buoy.c1,2020-08-04T15:41Z,CRAM.C1.20200804,,"","","","","","","",,,,20211221T210204Z,PROVISIONAL
0a6bccae-6dc6-4fd6-b3ed-ea98996684e2,D05,CRAM,CRAM.AOS.buoy.c1,2020-08-04T15:41Z,CRAM.C1.20200804,,"","","","","","","",,,,20211221T210204Z,PROVISIONAL
2d6d13a4-488f-4a6c-803a-9c61f5e25264,D05,CRAM,CRAM.AOS.buoy.c1,2020-08-04T15:41Z,CRAM.C1.20200804,,Sample condition ok,CRAM.C1.20200804.POM.2,A00000203804,Sample condition ok,CRAM.C1.20200804.POM.1,A00000203803,2020-08-04T19:07Z,100,100,,20211221T210204Z,PROVISIONAL
1eeadf79-dca5-4d11-923e-2819d5c1daa9,D05,CRAM,CRAM.AOS.buoy.c2,2020-08-04T16:34Z,CRAM.C2.20200804,,"","","","","","","",,,,20211221T210204Z,PROVISIONAL
81382b38-170b-4486-92b1-bfb73c0b838c,D05,CRAM,CRAM.AOS.buoy.c2,2020-08-04T16:34Z,CRAM.C2.20200804,,Sample condition ok,CRAM.C2.20200804.POM.2,A00000203799,Sample condition ok,CRAM.C2.20200804.POM.1,A00000203798,2020-08-04T19:11Z,100,100,,20211221T210204Z,PROVISIONAL
198bab71-bd3d-419a-b978-56371427063d,D05,CRAM,CRAM.AOS.buoy.c2,2020-08-04T16:34Z,CRAM.C2.20200804,,"","","","","","","",,,,20211221T210204Z,PROVISIONAL
a2c017f4-9f6f-4c4b-9c7b-610aa2a99b7f,D05,CRAM,CRAM.AOS.buoy.c1,2020-09-01T17:30Z,CRAM.C1.20200901,,Sample condition ok,CRAM.C1.20200901.POM.2,A00000204479,Sample condition ok,CRAM.C1.20200901.POM.1,A00000204478,2020-09-01T19:09Z,150,150,,20211222T005001Z,PROVISIONAL
a04adcc0-949b-47d6-8e9c-d46b397ed23c,D05,CRAM,CRAM.AOS.buoy.c2,2020-09-01T17:41Z,CRAM.C2.20200901,,Sample condition ok,CRAM.C2.20200901.POM.2,A00000204481,Sample condition ok,CRAM.C2.20200901.POM.1,A00000204480,"",150,150,,20211222T005001Z,PROVISIONAL
0b964539-66ac-460c-b78c-79e78f8386a8,D05,CRAM,CRAM.AOS.buoy.c1,2020-10-06T16:02Z,CRAM.C1.20201006,,"","","","","","","",,,,20211222T035644Z,PROVISIONAL
0385d104-52cd-4997-a2e0-c3e81aaa6bcd,D05,CRAM,CRAM.AOS.buoy.c1,2020-10-06T16:02Z,CRAM.C1.20201006,,"","","","","","","",,,,20211222T035644Z,PROVISIONAL
bb0434af-92d3-44c5-a7db-4231ff715d87,D05,CRAM,CRAM.AOS.buoy.c1,2020-10-06T16:02Z,CRAM.C1.20201006,,Sample condition ok,CRAM.C1.20201006.POM.2,A00000204409,Sample condition ok,CRAM.C1.20201006.POM.1,A00000204410,2020-10-06T18:56Z,150,150,,20211222T035644Z,PROVISIONAL
3fcaa70b-41c3-4238-8e4f-8b47548c6cf0,D05,CRAM,CRAM.AOS.buoy.c2,2020-10-06T16:20Z,CRAM.C2.20201006,,"","","","","","","",,,,20211222T035644Z,PROVISIONAL
bebc86e3-71d8-4b2d-90d5-f4f9f5b02aaf,D05,CRAM,CRAM.AOS.buoy.c2,2020-10-06T16:20Z,CRAM.C2.20201006,,Sample condition ok,CRAM.C2.20201006.POM.2,A00000204407,Sample condition ok,CRAM.C2.20201006.POM.1,A00000204408,2020-10-06T19:26Z,150,150,,20211222T035644Z,PROVISIONAL
b5914ff0-a57c-40a0-928b-43eb73d22221,D05,CRAM,CRAM.AOS.buoy.c2,2020-10-06T16:20Z,CRAM.C2.20201006,,"","","","","","","",,,,20211222T035644Z,PROVISIONAL
a5133bbe-27d5-48c6-b733-fc304257ad79,D05,CRAM,CRAM.AOS.buoy.c1,2020-10-20T16:38Z,CRAM.C1.20201020,,Sample condition ok,CRAM.C1.20201020.POM.2,A00000204385,Sample condition ok,CRAM.C1.20201020.POM.1,A00000204387,"",100,100,,20211222T035644Z,PROVISIONAL
90a7ca48-b8e3-4ec7-aad8-a8a32f684a54,D05,CRAM,CRAM.AOS.buoy.c2,2020-10-20T16:41Z,CRAM.C2.20201020,,Sample condition ok,CRAM.C2.20201020.POM.2,A00000204381,Sample condition ok,CRAM.C2.20201020.POM.1,A00000204382,"",100,100,,20211222T035644Z,PROVISIONAL
ea8d950e-53da-4b98-83dc-cb1146f78588,D05,CRAM,CRAM.AOS.buoy.c0,2021-02-09T17:41Z,CRAM.C0.20210209,,Sample condition ok,CRAM.C0.20210209.POM.2,A00000204374,Sample condition ok,CRAM.C0.20210209.POM.1,A00000204373,2021-02-09T20:11Z,250,250,,20211221T225246Z,PROVISIONAL
5f86e3bc-293b-4a85-b424-b3ebdcf21771,D05,CRAM,CRAM.AOS.buoy.c0,2021-03-01T17:30Z,CRAM.C0.20210301,,Sample condition ok,CRAM.C0.20210301.POM.2,A00000204376,Sample condition ok,CRAM.C0.20210301.POM.1,A00000204377,2021-03-01T20:31Z,200,200,,20211221T201727Z,PROVISIONAL
d35a6fd9-785c-4425-9508-00c222406f68,D05,CRAM,CRAM.AOS.buoy.c1,2021-04-20T15:01Z,CRAM.C1.20210420,,Sample condition ok,CRAM.C1.20210420.POM.2,A00000204360,Sample condition ok,CRAM.C1.20210420.POM.1,A00000204359,2021-04-20T17:18Z,150,150,,20211221T235545Z,PROVISIONAL
2b6ad546-9aee-4f68-9a5c-73f188edaa86,D05,CRAM,CRAM.AOS.buoy.c2,2021-04-20T15:32Z,CRAM.C2.20210420,,Sample condition ok,CRAM.C2.20210420.POM.2,A00000204361,Sample condition ok,CRAM.C2.20210420.POM.1,A00000204362,2021-04-20T18:16Z,150,150,,20211221T235545Z,PROVISIONAL
7b1321c8-b411-4494-b639-db26d0133608,D05,CRAM,CRAM.AOS.buoy.c1,2021-05-04T17:03Z,CRAM.C1.20210504,,Sample condition ok,CRAM.C1.20210504.POM.2,A00000205445,Sample condition ok,CRAM.C1.20210504.POM.1,A00000205443,2021-05-04T19:25Z,150,150,,20211221T195356Z,PROVISIONAL
6f16e2c1-ab95-4229-ab49-6d77f0a9ffc1,D05,CRAM,CRAM.AOS.buoy.c2,2021-05-04T17:04Z,CRAM.C2.20210504,,Sample condition ok,CRAM.C2.20210504.POM.2,A00000205446,Sample condition ok,CRAM.C2.20210504.POM.1,A00000205444,2021-05-04T19:47Z,150,150,,20211221T195356Z,PROVISIONAL
bc597d6d-8a52-416e-b70a-faa698edd437,D05,CRAM,CRAM.AOS.buoy.c1,2021-06-01T15:48Z,CRAM.C1.20210601,,Sample condition ok,CRAM.C1.20210601.POM.2,A00000205451,Sample condition ok,CRAM.C1.20210601.POM.1,A00000205452,2021-06-01T15:48Z,150,150,,20211221T205746Z,PROVISIONAL
05070d9b-fe4d-40cc-8e3d-b4e14cec3693,D05,CRAM,CRAM.AOS.buoy.c2,2021-06-01T16:02Z,CRAM.C2.20210601,,Sample condition ok,CRAM.C2.20210601.POM.2,A00000205994,Sample condition ok,CRAM.C2.20210601.POM.1,A00000205993,2021-06-01T16:02Z,150,150,,20211221T205746Z,PROVISIONAL
6543b352-4667-4b9f-88d9-075304a71d0a,D05,CRAM,CRAM.AOS.buoy.c1,2021-07-06T15:12Z,CRAM.C1.20210706,,Sample condition ok,CRAM.C1.20210706.POM.2,A00000206309,Sample condition ok,CRAM.C1.20210706.POM.1,A00000206293,2021-07-06T16:53Z,200,200,,20220125T175236Z,PROVISIONAL
e6327942-d0a6-438a-a26b-7ab069b26485,D05,CRAM,CRAM.AOS.buoy.c2,2021-07-06T15:30Z,CRAM.C2.20210706,,Sample condition ok,CRAM.C2.20210706.POM.2,A00000206289,Sample condition ok,CRAM.C2.20210706.POM.1,A00000206290,2021-07-06T19:00Z,150,150,,20220125T175236Z,PROVISIONAL
3506cce6-f8bc-4b25-89b9-baeae4d5df26,D05,CRAM,CRAM.AOS.buoy.c1,2021-08-09T17:25Z,CRAM.C1.20210809,,"","","","","","","",,,,20220125T175218Z,PROVISIONAL
6bb5cd31-6eea-43ef-a823-023325631ac7,D05,CRAM,CRAM.AOS.buoy.c1,2021-08-09T17:25Z,CRAM.C1.20210809,,Sample condition ok,CRAM.C1.20210809.POM.2,A00000206314,Sample condition ok,CRAM.C1.20210809.POM.1,A00000206360,2021-08-09T21:01Z,150,150,,20220125T175218Z,PROVISIONAL
0ae7c058-07b3-419f-a489-a4e7716c3ee8,D05,CRAM,CRAM.AOS.buoy.c1,2021-08-09T17:25Z,CRAM.C1.20210809,,"","","","","","","",,,,20220125T175218Z,PROVISIONAL
7f37e203-d656-4563-a8b1-2ad6fd6bc959,D05,CRAM,CRAM.AOS.buoy.c2,2021-08-09T17:41Z,CRAM.C2.20210809,,"","","","","","","",,,,20220125T175218Z,PROVISIONAL
e43653b9-59c2-4a2b-9f48-f26fd6d085a7,D05,CRAM,CRAM.AOS.buoy.c2,2021-08-09T17:41Z,CRAM.C2.20210809,,Sample condition ok,CRAM.C2.20210809.POM.2,A00000206338,Sample condition ok,CRAM.C2.20210809.POM.1,A00000206279,"",100,100,,20220125T175218Z,PROVISIONAL
fcdfbe12-7d09-45fd-93b8-58567905b77c,D05,CRAM,CRAM.AOS.buoy.c2,2021-08-09T17:41Z,CRAM.C2.20210809,,"","","","","","","",,,,20220125T175218Z,PROVISIONAL
6744556f-25b5-4075-8f6d-483a0cca0bad,D05,CRAM,CRAM.AOS.buoy.c1,2021-09-07T15:38Z,CRAM.C1.20210907,,Sample condition ok,CRAM.C1.20210907.POM.2,A00000206317,Sample condition ok,CRAM.C1.20210907.POM.1,A00000206336,,100,100,,20211222T021324Z,PROVISIONAL
519e02d1-3a81-49df-8b3d-492e97ca1bb9,D05,CRAM,CRAM.AOS.buoy.c2,2021-09-07T15:46Z,CRAM.C2.20210907,,Sample condition ok,CRAM.C2.20210907.POM.2,A00000206335,Sample condition ok,CRAM.C2.20210907.POM.1,A00000206337,,100,100,,20211222T021324Z,PROVISIONAL
a0a1526a-d49b-4de8-9994-3005d0113227,D05,CRAM,CRAM.AOS.buoy.c1,2021-10-05T14:59Z,CRAM.C1.20211005,,Sample condition ok,CRAM.C1.20211005.POM.2,A00000208262,Sample condition ok,CRAM.C1.20211005.POM.1,A00000208261,2021-10-05T16:55Z,150,150,,20220112T212223Z,PROVISIONAL
577e389d-6e4f-4cd9-b360-72ecdb491bad,D05,CRAM,CRAM.AOS.buoy.c2,2021-10-05T15:16Z,CRAM.C2.20211005,,Sample condition ok,CRAM.C2.20211005.POM.2,A00000208264,Sample condition ok,CRAM.C2.20211005.POM.1,A00000208263,2021-10-05T17:01Z,100,100,,20220112T212223Z,PROVISIONAL
288e60bf-cbda-41cf-b8a3-be52e5485004,D05,CRAM,CRAM.AOS.buoy.c1,2021-10-19T15:57Z,CRAM.C1.20211019,,Sample condition ok,CRAM.C1.20211019.POM.2,A00000208266,Sample condition ok,CRAM.C1.20211019.POM.1,A00000208265,2021-10-19T17:14Z,150,150,,20220112T212223Z,PROVISIONAL
8cd2768e-ca47-4f50-bda9-f86aa6d38357,D05,CRAM,CRAM.AOS.buoy.c2,2021-10-19T16:00Z,CRAM.C2.20211019,,Sample condition ok,CRAM.C2.20211019.POM.2,A00000208268,Sample condition ok,CRAM.C2.20211019.POM.1,A00000208273,2021-10-19T17:18Z,100,100,,20220112T212223Z,PROVISIONAL
568ae5f4-c2d1-423c-b64f-665134437319,D05,CRAM,CRAM.AOS.buoy.c1,2021-11-02T16:32Z,CRAM.C1.20211102,,Sample condition ok,CRAM.C1.20211102.POM.2,A00000208278,Sample condition ok,CRAM.C1.20211102.POM.1,A00000208277,2021-11-02T19:53Z,200,200,,20220125T175249Z,PROVISIONAL
561f1712-877e-4259-b57b-217e23afb701,D05,CRAM,CRAM.AOS.buoy.c2,2021-11-02T16:38Z,CRAM.C2.20211102,,Sample condition ok,CRAM.C2.20211102.POM.2,A00000208280,Sample condition ok,CRAM.C2.20211102.POM.1,A00000208279,2021-11-02T19:58Z,100,100,,20220125T175249Z,PROVISIONAL
3e9c2c6c-8b07-43cf-828c-be935ed736be,D05,CRAM,CRAM.AOS.buoy.c0,2021-11-16T16:39Z,CRAM.C0.20211116,,Sample condition ok,CRAM.C0.20211116.POM.2,A00000208283,Sample condition ok,CRAM.C0.20211116.POM.1,A00000208284,2021-11-16T20:13Z,175,175,,20220125T175249Z,PROVISIONAL
e7fefa59-3523-41eb-ba18-fb13cabd6b09,D05,LIRO,LIRO.AOS.littoral2,2017-04-11T15:20Z,LIRO.OT.20170411,,Sample condition ok,LIRO.OT.20170411.POM.2,,Sample condition ok,LIRO.OT.20170411.POM.1,,2017-04-11T20:00Z,250,250,,20211222T013811Z,RELEASE-2022
49b54421-f542-42ce-a05c-494b1521ddb3,D05,LIRO,LIRO.AOS.littoral1,2017-04-11T16:00Z,LIRO.IN.20170411,,Sample condition ok,LIRO.IN.20170411.POM.2,,Sample condition ok,LIRO.IN.20170411.POM.1,,2017-04-11T20:25Z,200,200,,20211222T013811Z,RELEASE-2022
e1021fe5-5afc-4305-b1f8-730ce8502534,D05,LIRO,LIRO.AOS.buoy.c0,2017-04-11T16:50Z,LIRO.C0.20170411,,Sample condition ok,LIRO.C0.20170411.POM.2,,Sample condition ok,LIRO.C0.20170411.POM.1,,2017-04-11T20:40Z,200,200,,20211222T013811Z,RELEASE-2022
33f954d1-012a-4cde-b4c7-8df611604d5c,D05,LIRO,LIRO.AOS.littoral1,2017-05-01T15:42Z,LIRO.IN.20170501,,Cold chain broken,LIRO.IN.20170501.POM.2,,Cold chain broken,LIRO.IN.20170501.POM.1,,2017-05-01T20:27Z,200,200,,20211222T005204Z,RELEASE-2022
2678456d-9e5a-4f7a-b3bf-89720d9411c7,D05,LIRO,LIRO.AOS.buoy.c1,2017-05-01T16:27Z,LIRO.C1.20170501,,Cold chain broken,LIRO.C1.20170501.POM.2,,Cold chain broken,LIRO.C1.20170501.POM.1,,2017-05-01T20:45Z,150,150,,20211222T005204Z,RELEASE-2022
ca9c3574-3337-4532-91c8-e6c8f5c26ebd,D05,LIRO,LIRO.AOS.littoral2,2017-05-01T18:02Z,LIRO.OT.20170501,,Cold chain broken,LIRO.OT.20170501.POM.2,,Cold chain broken,LIRO.OT.20170501.POM.1,,2017-05-01T20:58Z,150,150,,20211222T005204Z,RELEASE-2022
5bb53310-cd58-4997-adb6-a8e8c1a14e41,D05,LIRO,LIRO.AOS.littoral2,2017-06-05T14:55Z,LIRO.OT.20170605,,Sample condition ok,,,Cold chain broken,LIRO.OT.20170605.POM.1,,2017-06-05T18:32Z,150,,,20211222T041707Z,RELEASE-2022
c9d03b59-2be2-47aa-bdce-b66b01d9d399,D05,LIRO,LIRO.AOS.littoral1,2017-06-05T15:25Z,LIRO.IN.20170605,,Sample condition ok,,,Cold chain broken,LIRO.IN.20170605.POM.1,,2017-06-05T18:48Z,150,,,20211222T041707Z,RELEASE-2022
1c9cd7ff-c4ec-481b-8b06-998f2238b65f,D05,LIRO,LIRO.AOS.buoy.c1,2017-06-05T16:28Z,LIRO.C1.20170605,,Sample condition ok,,,Cold chain broken,LIRO.C1.20170605.POM.1,,2017-06-05T19:00Z,150,,,20211222T041707Z,RELEASE-2022
d58b9955-af8b-43cf-82b5-ca5b08e4e694,D05,LIRO,LIRO.AOS.littoral1,2017-07-10T14:36Z,LIRO.IN.20170710,,Sample condition ok,,,Sample condition ok,LIRO.IN.20170710.POM.1,,2017-07-10T18:37Z,300,,,20211222T000904Z,RELEASE-2022
7d54a4f5-4036-4b69-8bbd-0a0a8417e07e,D05,LIRO,LIRO.AOS.buoy.c1,2017-07-10T15:07Z,LIRO.C1.20170710,,Sample condition ok,,,Sample condition ok,LIRO.C1.20170710.POM.1,,2017-07-10T19:07Z,300,,,20211222T000904Z,RELEASE-2022
b4bd030a-ca71-499f-a4bc-b0efecc47074,D05,LIRO,LIRO.AOS.littoral2,2017-07-10T15:48Z,LIRO.OT.20170710,,Sample condition ok,,,Sample condition ok,LIRO.OT.20170710.POM.1,,2017-07-10T19:07Z,300,,,20211222T000904Z,RELEASE-2022
5fd9ab6d-563e-469c-b499-a627e234bdfe,D05,LIRO,LIRO.AOS.littoral1,2017-07-31T14:34Z,LIRO.IN.20170731,,Sample condition ok,,,Sample condition ok,LIRO.IN.20170731.POM.1,,2017-07-31T18:27Z,300,,,20211222T000904Z,RELEASE-2022
9534a03e-3ff2-430a-bce3-9b57aa46e007,D05,LIRO,LIRO.AOS.buoy.c1,2017-07-31T15:03Z,LIRO.C1.20170731,,Sample condition ok,,,Sample condition ok,LIRO.C1.20170731.POM.1,,2017-07-31T18:29Z,300,,,20211222T000904Z,RELEASE-2022
b22a732c-311f-4f69-afd5-6fba8871865f,D05,LIRO,LIRO.AOS.littoral2,2017-07-31T15:54Z,LIRO.OT.20170731,,Sample condition ok,,,Sample condition ok,LIRO.OT.20170731.POM.1,,2017-07-31T19:00Z,300,,,20211222T000904Z,RELEASE-2022
527930af-7d1d-47b2-a1b6-fd0b64585d1f,D05,LIRO,LIRO.AOS.littoral1,2017-08-28T14:30Z,LIRO.IN.20170828,,Sample condition ok,LIRO.IN.20170828.POM.2,,Sample condition ok,LIRO.IN.20170828.POM.1,,2017-08-28T19:15Z,300,300,,20211222T023936Z,RELEASE-2022
97611301-5ddc-4945-b027-eeb89bb690e5,D05,LIRO,LIRO.AOS.buoy.c1,2017-08-28T15:12Z,LIRO.C1.20170828,,Sample condition ok,LIRO.C1.20170828.POM.2,,Sample condition ok,LIRO.C1.20170828.POM.1,,2017-08-28T19:02Z,200,200,,20211222T023936Z,RELEASE-2022
958f8bb8-4092-4a33-8bce-d8efebbfd3c2,D05,LIRO,LIRO.AOS.littoral2,2017-08-28T15:34Z,LIRO.OT.20170828,,Sample condition ok,LIRO.OT.20170828.POM.2,,Sample condition ok,LIRO.OT.20170828.POM.1,,2017-08-28T18:57Z,300,300,,20211222T023936Z,RELEASE-2022
90bfa006-cf9b-4f9e-aaf3-cab87710d511,D05,LIRO,LIRO.AOS.littoral1,2017-10-02T14:50Z,LIRO.IN.20171002,,Sample condition ok,"",,Sample condition ok,LIRO.IN.20171002.POM.1,,2017-10-02T19:43Z,300,,,20211222T031435Z,RELEASE-2022
55f1af08-64c6-4fcf-852d-fa771ce7f8d7,D05,LIRO,LIRO.AOS.buoy.c1,2017-10-02T15:41Z,LIRO.C0.20171002,,Sample condition ok,"",,Sample condition ok,LIRO.C0.20171002.POM.1,,2017-10-02T20:50Z,300,,,20211222T031435Z,RELEASE-2022
951af26a-7351-4794-982d-766606e8c15b,D05,LIRO,LIRO.AOS.littoral2,2017-10-02T16:00Z,LIRO.OT.20171002,,Sample condition ok,"",,Sample condition ok,LIRO.OT.20171002.POM.1,,2017-10-02T19:42Z,300,,,20211222T031435Z,RELEASE-2022
6ba20e46-a29a-4a3f-9877-07b05e36d5bf,D05,LIRO,LIRO.AOS.littoral1,2017-10-23T15:06Z,LIRO.IN.20171023,,Sample condition ok,LIRO.IN.20171023.POM.2,,Sample condition ok,LIRO.IN.20171023.POM.1,,2017-10-23T18:21Z,250,250,,20211222T031435Z,RELEASE-2022
f2cf9eb1-3be3-4195-8784-0cd102f0a847,D05,LIRO,LIRO.AOS.buoy.c1,2017-10-23T15:42Z,LIRO.C1.20171023,,Sample condition ok,LIRO.C1.20171023.POM.2,,Sample condition ok,LIRO.C1.20171023.POM.1,,2017-10-23T19:42Z,150,150,,20211222T031435Z,RELEASE-2022
d175217e-e338-4fb8-b7f1-19f22836a9df,D05,LIRO,LIRO.AOS.littoral2,2017-10-23T16:11Z,LIRO.OT.20171023,,Sample condition ok,LIRO.OT.20171023.POM.2,,Sample condition ok,LIRO.OT.20171023.POM.1,,2017-10-23T18:51Z,250,250,,20211222T031435Z,RELEASE-2022
ef955452-f7bf-4c94-a72e-fa6a6df0810c,D05,LIRO,LIRO.AOS.littoral1,2017-11-06T16:26Z,LIRO.IN.20171106,,Sample condition ok,LIRO.IN.20171106.POM.2,,Sample condition ok,LIRO.IN.20171106.POM.1,,2017-11-06T20:01Z,,,,20211221T221714Z,RELEASE-2022
04a51b33-9aab-4f0b-afcd-15e21da79dca,D05,LIRO,LIRO.AOS.buoy.c0,2017-11-06T17:08Z,LIRO.C0.20171106,,Sample condition ok,LIRO.C0.20171106.POM.2,,Sample condition ok,LIRO.C0.20171106.POM.1,,2017-11-06T20:56Z,300,300,,20211221T221714Z,RELEASE-2022
ed3211da-53e8-493f-9056-a2eccc06d963,D05,LIRO,LIRO.AOS.littoral2,2017-11-06T17:26Z,LIRO.OT.20171106,,Sample condition ok,LIRO.OT.20171106.POM.2,,Sample condition ok,LIRO.OT.20171106.POM.1,,2017-11-06T21:28Z,300,300,,20211221T221714Z,RELEASE-2022
b5211be1-5e4d-4972-b7d6-f9c41b34da2a,D05,LIRO,LIRO.AOS.buoy.c0,2018-02-12T17:40Z,LIRO.C0.20180212,,Sample condition ok,LIRO.C0.20180212.POM.2,,Sample condition ok,LIRO.C0.20180212.POM.1,,2018-02-12T21:42Z,300,300,,20211222T035925Z,RELEASE-2022
b8473e4d-03e9-4d18-9e29-085c6afebcd6,D05,LIRO,LIRO.AOS.buoy.c0,2018-03-06T18:01Z,LIRO.C0.20180306,,Sample condition ok,LIRO.C0.20180306.POM.2,,Sample condition ok,LIRO.C0.20180306.POM.1,,2018-03-06T20:42Z,300,300,,20211221T215726Z,RELEASE-2022
cae2ff5a-bda5-4017-aef7-758cee9540bf,D05,LIRO,LIRO.AOS.buoy.c1,2018-05-14T15:16Z,LIRO.C1.20180514,,Sample condition ok,LIRO.C1.20180514.POM.2,A00000007887,Sample condition ok,LIRO.C1.20180514.POM.1,A00000007886,"",250,250,,20211221T205806Z,RELEASE-2022
238e5579-6df9-47f1-af7d-f92b990141b5,D05,LIRO,LIRO.AOS.buoy.c2,2018-05-14T15:32Z,LIRO.C2.20180514,,Sample condition ok,LIRO.C2.20180514.POM.2,A00000007870,Sample condition ok,LIRO.C2.20180514.POM.1,A00000007869,2018-05-14T18:32Z,150,150,,20211221T205806Z,RELEASE-2022
aad414f0-b4cc-43a9-8f66-7282d7e988a8,D05,LIRO,LIRO.AOS.buoy.c2,2018-05-21T16:45Z,LIRO.C2.20180521,,Sample condition ok,LIRO.C2.20180521.POM.2,A00000007752,Sample condition ok,LIRO.C2.20180521.POM.1,A00000007753,2018-05-21T20:55Z,100,100,,20211221T205806Z,RELEASE-2022
2f4f5698-432c-4096-8b1d-1a744c5d3e32,D05,LIRO,LIRO.AOS.buoy.c1,2018-05-21T16:54Z,LIRO.C1.20180521,,Sample condition ok,LIRO.C1.20180521.POM.2,A00000007754,Sample condition ok,LIRO.C1.20180521.POM.1,A00000007755,2018-05-21T20:19Z,200,200,,20211221T205806Z,RELEASE-2022
f761619b-5144-4add-b2a7-6497e9458499,D05,LIRO,LIRO.AOS.buoy.c1,2018-06-04T16:08Z,LIRO.C1.20180604,,Sample condition ok,LIRO.C1.20180604.POM.2,A00000007718,Sample condition ok,LIRO.C1.20180604.POM.1,A00000007717,2018-06-04T20:01Z,200,200,,20211221T201418Z,RELEASE-2022
a291b859-4cf5-46b6-be4d-9ac43bc4e651,D05,LIRO,LIRO.AOS.buoy.c2,2018-06-04T16:16Z,LIRO.C2.20180604,,Sample condition ok,LIRO.C2.20180604.POM.2,A00000007722,Sample condition ok,LIRO.C2.20180604.POM.1,A00000007721,2018-06-04T20:18Z,200,200,,20211221T201418Z,RELEASE-2022
cd4378f7-046f-4df9-b0b3-2a6369d6b057,D05,LIRO,LIRO.AOS.buoy.c1,2018-07-02T13:47Z,LIRO.C1.20180702,,Sample condition ok,LIRO.C1.20180702.POM.2,A00000007587,Sample condition ok,LIRO.C1.20180702.POM.1,A00000007586,2018-07-02T16:50Z,200,200,,20211222T005948Z,RELEASE-2022
58e9774b-e40a-4961-b4ba-82ad63bd178e,D05,LIRO,LIRO.AOS.buoy.c2,2018-07-02T13:50Z,LIRO.C2.20180702,,Sample condition ok,LIRO.C2.20180702.POM.2,A00000007589,Sample condition ok,LIRO.C2.20180702.POM.1,A00000007588,2018-07-02T17:00Z,125,125,,20211222T005948Z,RELEASE-2022
b30ae764-9b3f-4460-9d32-3edc725d24c7,D05,LIRO,LIRO.AOS.buoy.c1,2018-08-06T15:45Z,LIRO.C1.20180806,,Sample condition ok,LIRO.C1.20180806.POM.2,A00000007481,Sample condition ok,LIRO.C1.20180806.POM.1,A00000007480,2018-08-06T17:57Z,250,250,,20211222T021537Z,RELEASE-2022
ad1e1413-7c88-4126-9f68-63e035c6e52c,D05,LIRO,LIRO.AOS.buoy.c1,2018-09-04T15:01Z,LIRO.C1.20180904,,Sample condition ok,LIRO.C1.20180904.POM.2,A00000007469,Sample condition ok,LIRO.C1.20180904.POM.1,A00000007468,2018-09-04T16:47Z,250,250,,20211221T233736Z,RELEASE-2022
a490d9b1-1567-4696-aee1-76ad2d346954,D05,LIRO,LIRO.AOS.buoy.c1,2018-10-01T14:32Z,LIRO.C1.20181001,,Sample condition ok,LIRO.C1.20181001.POM.2,A00000007358,Sample condition ok,LIRO.C1.20181001.POM.1,A00000007357,2018-10-01T17:16Z,200,200,,20211221T224637Z,RELEASE-2022
7438d4f4-532c-4272-b4e3-00b31cfe3e25,D05,LIRO,LIRO.AOS.buoy.c0,2018-10-22T15:22Z,LIRO.C0.20181022,,Sample condition ok,LIRO.C0.20181022.POM.2,A00000040900,Sample condition ok,LIRO.C0.20181022.POM.1,A00000040883,2018-10-22T17:30Z,200,200,,20211221T224637Z,RELEASE-2022
59712ef4-0e5a-4be9-adcf-502693ce98e5,D05,LIRO,LIRO.AOS.buoy.c0,2018-11-05T15:33Z,LIRO.C0.20181105,,Sample condition ok,LIRO.C0.20181105.POM.2,A00000040893,Sample condition ok,LIRO.C0.20181105.POM.1,A00000040894,2018-11-05T18:00Z,200,200,,20211221T233856Z,RELEASE-2022
5170f1d8-fc40-4cd8-a241-07830267233e,D05,LIRO,LIRO.AOS.buoy.c0,2019-01-22T17:16Z,LIRO.C0.20190122,,Sample condition ok,LIRO.C0.20190122.POM.2,A00000040829,Sample condition ok,LIRO.C0.20190122.POM.1,A00000040828,2019-01-22T19:30Z,150,150,,20211221T202957Z,RELEASE-2022
0f77d94b-ad7c-41c3-b7f0-11cb18ba00e9,D05,LIRO,LIRO.AOS.buoy.c0,2019-02-05T18:20Z,LIRO.C0.20190205,,Sample condition ok,LIRO.C0.20190205.POM.2,A00000040842,Sample condition ok,LIRO.C0.20190205.POM.1,A00000040843,,200,200,,20211222T025648Z,RELEASE-2022
181585fa-c64d-454f-b491-58bf59e3f542,D05,LIRO,LIRO.AOS.buoy.c0,2019-03-05T20:16Z,LIRO.C0.20190305,,Sample condition ok,LIRO.C0.20190305.POM.2,A00000040649,Sample condition ok,LIRO.C0.20190305.POM.1,A00000040648,2019-03-05T23:10Z,300,300,,20211222T034617Z,RELEASE-2022
867f2694-cbb0-4e59-b677-2922bbd28ec8,D05,LIRO,LIRO.AOS.buoy.c0,2019-04-30T16:10Z,LIRO.C0.20190430,,Sample condition ok,LIRO.C0.20190430.POM.2,A00000076001,Sample condition ok,LIRO.C0.20190430.POM.1,A00000076000,2019-04-30T18:33Z,200,200,,20211222T022953Z,RELEASE-2022
bdad1608-4dd4-4402-8177-1254f3387f90,D05,LIRO,LIRO.AOS.buoy.c1,2019-05-13T16:55Z,LIRO.C1.20190513,,Sample condition ok,LIRO.C1.20190513.POM.2,A00000076077,Sample condition ok,LIRO.C1.20190513.POM.1,A00000076032,2019-05-13T20:16Z,300,300,,20211222T021323Z,RELEASE-2022
5646609c-3784-443f-ae73-39073e702a13,D05,LIRO,LIRO.AOS.buoy.c2,2019-05-13T17:06Z,LIRO.C2.20190513,,Sample condition ok,LIRO.C2.20190513.POM.2,A00000076078,Sample condition ok,LIRO.C2.20190513.POM.1,A00000076079,2019-05-13T19:20Z,200,200,,20211222T021323Z,RELEASE-2022
1a9fbc1e-5e82-4836-b12c-13fdd35043bd,D05,LIRO,LIRO.AOS.buoy.c1,2019-06-03T15:38Z,LIRO.C1.20190603,,Sample condition ok,LIRO.C1.20190603.POM.2,A00000076376,Sample condition ok,LIRO.C1.20190603.POM.1,A00000076375,,500,500,,20211221T203724Z,RELEASE-2022
d3e194d9-6898-43d0-a8df-e1a2fd57ca2d,D05,LIRO,LIRO.AOS.buoy.c1,2019-07-01T15:09Z,LIRO.C1.20190701,,Sample condition ok,LIRO.C1.20190701.POM.2,A00000076653,Sample condition ok,LIRO.C1.20190701.POM.1,A00000076636,2019-07-01T15:09Z,200,200,,20211221T221506Z,RELEASE-2022
7422ee8c-43c4-42b3-8b52-8ed3b5d6586f,D05,LIRO,LIRO.AOS.buoy.c2,2019-07-01T15:35Z,LIRO.C2.20190701,,Sample condition ok,LIRO.C2.20190701.POM.2,A00000076637,Sample condition ok,LIRO.C2.20190701.POM.1,A00000076654,2019-07-01T15:35Z,100,100,,20211221T221506Z,RELEASE-2022
4b91a697-1d2f-43da-8908-0589f11c02a0,D05,LIRO,LIRO.AOS.buoy.c1,2019-08-05T15:15Z,LIRO.C1.20190805,,Sample condition ok,LIRO.C1.20190805.POM.2,A00000077294,Sample condition ok,LIRO.C1.20190805.POM.1,A00000077293,2019-08-05T17:41Z,190,190,,20211221T220453Z,RELEASE-2022
ae25e9f3-dab1-4b1f-b2f4-865a05f03eea,D05,LIRO,LIRO.AOS.buoy.c1,2019-09-04T14:42Z,LIRO.C1.20190904,,Sample condition ok,LIRO.C1.20190904.POM.2,A00000077964,Sample condition ok,LIRO.C1.20190904.POM.1,A00000077963,2019-09-04T18:27Z,200,200,,20211222T005159Z,RELEASE-2022
86cd6cde-8cfb-4877-acd2-70bf25efec40,D05,LIRO,LIRO.AOS.buoy.c1,2019-09-04T14:42Z,LIRO.C1.20190904,,"","","","","","","",,,,20211222T005159Z,RELEASE-2022
2f71bb9f-7061-4a87-a2ad-e6465feabb58,D05,LIRO,LIRO.AOS.buoy.c1,2019-09-04T14:42Z,LIRO.C1.20190904,,"","","","","","","",,,,20211222T005159Z,RELEASE-2022
77ea027e-2abb-4f1d-8805-4be9b7a3b3a2,D05,LIRO,LIRO.AOS.buoy.c1,2019-09-30T15:43Z,LIRO.C1.20190930,,Sample condition ok,LIRO.C1.20190930.POM.2,A00000078826,Sample condition ok,LIRO.C1.20190930.POM.1,A00000078825,2019-09-30T18:41Z,250,250,,20211222T005159Z,RELEASE-2022
ea395791-d4b6-448c-9d23-9bb9ce4bffe7,D05,LIRO,LIRO.AOS.buoy.c1,2019-10-22T15:16Z,LIRO.C1.20191022,,Sample condition ok,LIRO.C1.20191022.POM.2,A00000078891,Sample condition ok,LIRO.C1.20191022.POM.1,A00000078890,2019-10-22T18:20Z,250,250,,20211222T035033Z,RELEASE-2022
286c09fd-c4bf-4840-aa54-74693994c9cc,D05,LIRO,LIRO.AOS.buoy.c1,2019-10-22T15:16Z,LIRO.C1.20191022,,"","","","","","","",,,,20211222T035033Z,RELEASE-2022
f4309126-9dd3-4354-a12c-33af30fd6a1b,D05,LIRO,LIRO.AOS.buoy.c1,2019-10-22T15:16Z,LIRO.C1.20191022,,"","","","","","","",,,,20211222T035033Z,RELEASE-2022
22f08a08-0e85-4b3a-871c-6240fe314437,D05,LIRO,LIRO.AOS.buoy.c0,2019-11-04T16:19Z,LIRO.C0.20191104,,Sample condition ok,LIRO.C0.20191104.POM.2,A00000078053,Sample condition ok,LIRO.C0.20191104.POM.1,A00000078054,2019-11-04T18:50Z,250,250,,20211222T001318Z,RELEASE-2022
728a5ad7-bdb6-4130-aea9-b7b97942a5a6,D05,LIRO,LIRO.AOS.buoy.c0,2020-01-21T19:40Z,LIRO.C0.20200121,,Sample condition ok,LIRO.C0.20200121.POM.2,A00000079224,Sample condition ok,LIRO.C0.20200121.POM.1,A00000079225,2020-01-21T22:38Z,270,270,,20211222T040546Z,PROVISIONAL
cd3b014b-b146-42fd-aceb-9e35670066fb,D05,LIRO,LIRO.AOS.buoy.c0,2020-02-04T19:35Z,LIRO.C0.20200204,,Sample condition ok,LIRO.C0.20200204.POM.2,A00000201575,Sample condition ok,LIRO.C0.20200204.POM.1,A00000201576,2020-02-04T21:58Z,300,300,,20211221T233738Z,PROVISIONAL
4b007e1d-adc2-40d6-907e-e2b11e7b48da,D05,LIRO,LIRO.AOS.buoy.c0,2020-03-03T19:05Z,LIRO.C0.20200303,,Sample condition ok,LIRO.C0.20200303.POM.2,A00000201601,Sample condition ok,LIRO.C0.20200303.POM.1,A00000201600,2020-03-03T21:40Z,250,250,,20211222T030531Z,PROVISIONAL
e7530438-f9d1-47a9-ba8f-c5093ff5d7df,D05,LIRO,LIRO.AOS.buoy.c1,2020-06-29T16:03Z,LIRO.C1.20200629,,Sample condition ok,LIRO.C1.20200629.POM.2,A00000203191,Sample condition ok,LIRO.C1.20200629.POM.1,A00000203190,2020-06-29T16:03Z,200,200,,20211221T215707Z,PROVISIONAL
665bffa0-9549-4ef7-9247-bf07f8a252f0,D05,LIRO,LIRO.AOS.buoy.c1,2020-06-29T16:03Z,LIRO.C1.20200629,,"","","","","","","",,,,20211221T215707Z,PROVISIONAL
ecb921ae-44da-47d6-9590-d23e8c2dcf0b,D05,LIRO,LIRO.AOS.buoy.c1,2020-06-29T16:03Z,LIRO.C1.20200629,,"","","","","","","",,,,20211221T215707Z,PROVISIONAL
b73f7663-3402-472a-bc5c-eef52d88f5b1,D05,LIRO,LIRO.AOS.buoy.c1,2020-08-03T15:39Z,LIRO.C1.20200803,,"","","","","","","",,,,20211222T035519Z,PROVISIONAL
86078e12-9cad-4d3e-9e7c-f412d3332258,D05,LIRO,LIRO.AOS.buoy.c1,2020-08-03T15:39Z,LIRO.C1.20200803,,Sample condition ok,LIRO.C1.20200803.POM.2,A00000203773,Sample condition ok,LIRO.C1.20200803.POM.1,A00000203774,2020-08-03T18:09Z,100,100,,20211222T035519Z,PROVISIONAL
76f50a69-3ba9-401c-9fef-c6e7fbe228c1,D05,LIRO,LIRO.AOS.buoy.c1,2020-08-03T15:39Z,LIRO.C1.20200803,,"","","","","","","",,,,20211222T035519Z,PROVISIONAL
7a3b8077-e1b5-4f23-94d2-a65a6125ec6b,D05,LIRO,LIRO.AOS.buoy.c1,2020-09-08T15:32Z,LIRO.C1.20200908,,Sample condition ok,LIRO.C1.20200908.POM.2,A00000204484,Sample condition ok,LIRO.C1.20200908.POM.1,A00000204483,2020-09-08T18:06Z,150,150,,20211221T205207Z,PROVISIONAL
cc55539c-5eb1-4eb0-b567-59004e99e561,D05,LIRO,LIRO.AOS.buoy.c1,2020-10-05T15:42Z,LIRO.C1.20201005,,Sample condition ok,LIRO.C1.20201005.POM.2,A00000204406,Sample condition ok,LIRO.C1.20201005.POM.1,A00000204405,2020-10-05T19:25Z,150,150,,20211221T224807Z,PROVISIONAL
58cec268-1417-41af-81f7-b4fc60350ec6,D05,LIRO,LIRO.AOS.buoy.c1,2020-10-05T15:42Z,LIRO.C1.20201005,,"","","","","","","",,,,20211221T224807Z,PROVISIONAL
5aa4d674-f1f1-4d8e-9041-76c337874cd4,D05,LIRO,LIRO.AOS.buoy.c1,2020-10-05T15:42Z,LIRO.C1.20201005,,"","","","","","","",,,,20211221T224807Z,PROVISIONAL
513dec1c-e041-4a29-a8bc-eaafab66e1fd,D05,LIRO,LIRO.AOS.buoy.c0,2020-10-27T18:58Z,LIRO.C0.20201027,,Sample condition ok,LIRO.C0.20201027.POM.2,A00000204386,Sample condition ok,LIRO.C0.20201027.POM.1,A00000204384,2020-10-27T21:06Z,100,100,,20211221T224807Z,PROVISIONAL
025adf4f-41ca-49ca-87c9-3d9336a814fa,D05,LIRO,LIRO.AOS.buoy.c0,2021-02-02T19:25Z,LIRO.C0.20210202,,Sample condition ok,LIRO.C0.20210202.POM.2,A00000204372,Sample condition ok,LIRO.C0.20210202.POM.1,A00000204371,2021-02-02T23:27Z,300,300,,20211221T212516Z,PROVISIONAL
3bf3653e-9394-4c2f-b966-b3a8fd029819,D05,LIRO,LIRO.AOS.buoy.c0,2021-03-02T19:05Z,LIRO.C0.20210302,,Sample condition ok,LIRO.C0.20210302.POM.2,A00000204349,Sample condition ok,LIRO.C0.20210302.POM.1,A00000204380,2021-03-02T22:32Z,200,200,,20211221T225358Z,PROVISIONAL
1e375a26-1320-43c1-8755-0b9ecd62d5a9,D05,LIRO,LIRO.AOS.buoy.c1,2021-04-19T16:46Z,LIRO.C1.20210419,,Sample condition ok,LIRO.C1.20210419.POM.2,A00000204352,Sample condition ok,LIRO.C1.20210419.POM.1,A00000204354,2021-04-19T19:18Z,200,200,,20211221T211314Z,PROVISIONAL
d5eef1b1-e4c5-4464-b254-f75265086152,D05,LIRO,LIRO.AOS.buoy.c2,2021-04-19T16:51Z,LIRO.C2.20210419,,Sample condition ok,LIRO.C2.20210419.POM.2,A00000204357,Sample condition ok,LIRO.C2.20210419.POM.1,A00000204351,2021-04-19T19:59Z,200,200,,20211221T211314Z,PROVISIONAL
8e9db160-053f-4ac3-818b-df17113d169d,D05,LIRO,LIRO.AOS.buoy.c1,2021-05-11T18:02Z,LIRO.C1.20210511,,Sample condition ok,LIRO.C1.20210511.POM.2,A00000205453,Sample condition ok,LIRO.C1.20210511.POM.1,A00000205437,2021-05-11T21:05Z,200,200,,20211221T205907Z,PROVISIONAL
05a0098d-8342-4a9a-9139-d65227ce3d5b,D05,LIRO,LIRO.AOS.buoy.c2,2021-05-11T18:12Z,LIRO.C2.20210511,,Sample condition ok,LIRO.C2.20210511.POM.2,A00000205599,Sample condition ok,LIRO.C2.20210511.POM.1,A00000205597,2021-05-11T21:12Z,150,150,,20211221T205907Z,PROVISIONAL
be491428-c611-4a63-938f-1a9496ec71e8,D05,LIRO,LIRO.AOS.buoy.c1,2021-06-02T16:30Z,LIRO.C1.20210602,,Sample condition ok,LIRO.C1.20210602.POM.2,A00000206003,Sample condition ok,LIRO.C1.20210602.POM.1,A00000206004,,260,260,,20211222T032412Z,PROVISIONAL
44cba9dc-d65f-4d95-944b-9e17e698ba95,D05,LIRO,LIRO.AOS.buoy.c1,2021-07-12T15:44Z,LIRO.C1.20210712,,Sample condition ok,LIRO.C1.20210712.POM.2,A00000206306,Sample condition ok,LIRO.C1.20210712.POM.1,A00000206307,,170,170,,20220125T180003Z,PROVISIONAL
28071b62-756f-48da-878a-45c17dd1f710,D05,LIRO,LIRO.AOS.buoy.c1,2021-08-02T17:01Z,LIRO.C1.20210802,,Sample condition ok,LIRO.C1.20210802.POM.2,A00000206295,Sample condition ok,LIRO.C1.20210802.POM.1,A00000206345,2021-08-02T19:48Z,150,150,,20220125T180106Z,PROVISIONAL
ee64adc7-1fa6-4aeb-9ac9-02ed6b747853,D05,LIRO,LIRO.AOS.buoy.c1,2021-08-02T17:01Z,LIRO.C1.20210802,,"","","","","","","",,,,20220125T180106Z,PROVISIONAL
0fe488cd-886b-49fe-b52f-a66c335465f9,D05,LIRO,LIRO.AOS.buoy.c1,2021-08-02T17:01Z,LIRO.C1.20210802,,"","","","","","","",,,,20220125T180106Z,PROVISIONAL
2c26a387-86e5-4294-af1a-69b89b7bcbb8,D05,LIRO,LIRO.AOS.buoy.c1,2021-09-13T17:24Z,LIRO.C1.20210913,,Sample condition ok,LIRO.C1.20210913.POM.2,A00000208218,Sample condition ok,LIRO.C1.20210913.POM.1,A00000208219,,200,200,,20211221T202527Z,PROVISIONAL
9903217d-b11c-4c10-aa79-6a2d53a6b3e1,D05,LIRO,LIRO.AOS.buoy.c1,2021-10-04T16:31Z,LIRO.C1.20211004,,Sample condition ok,LIRO.C1.20211004.POM.2,A00000208260,Sample condition ok,LIRO.C1.20211004.POM.1,A00000208259,2021-10-04T19:41Z,150,150,,20220112T211825Z,PROVISIONAL
36c4e545-4b9d-4491-9001-910b48a5d649,D05,LIRO,LIRO.AOS.buoy.c0,2021-10-26T17:31Z,LIRO.C0.20211026,,Sample condition ok,LIRO.C0.20211026.POM.2,A00000208267,Sample condition ok,LIRO.C0.20211026.POM.1,A00000208274,"",160,160,,20220112T211825Z,PROVISIONAL
530afcdf-e741-4e57-bd78-f4f64669835c,D05,LIRO,LIRO.AOS.buoy.c0,2021-11-01T18:24Z,LIRO.C0.20211101,,Sample condition ok,LIRO.C0.20211101.POM.2,A00000208276,Sample condition ok,LIRO.C0.20211101.POM.1,A00000208275,2021-11-01T21:13Z,200,200,,20220125T180050Z,PROVISIONAL
57c78712-5887-4873-928a-c24b575b2115,D05,LIRO,LIRO.AOS.buoy.c0,2021-11-15T18:42Z,LIRO.C0.20211115,,Sample condition ok,LIRO.C0.20211115.POM.2,A00000208282,Sample condition ok,LIRO.C0.20211115.POM.1,A00000208281,2021-11-15T21:44Z,200,200,,20220125T180050Z,PROVISIONAL
8c11989d-c0ed-4731-8ec0-b4629c44fb55,D09,PRLA,PRLA.AOS.littoral1,2015-06-03T14:20Z,PRLA.IN.20150603,,,PRLA.IN.20150603.POM.2,,,PRLA.IN.20150603.POM.1,,2015-06-03T16:30Z,120,120,,20211221T194539Z,RELEASE-2022
30c4eae9-5d0e-45a2-87bd-aec819d4b745,D09,PRLA,PRLA.AOS.buoy.c0,2015-06-03T14:50Z,PRLA.C0.20150603,,,PRLA.C0.20150603.POM.2,,,PRLA.C0.20150603.POM.1,,2015-06-03T17:15Z,110,110,,20211221T194539Z,RELEASE-2022
e4263c4d-4e41-4296-aeae-d7cb29058f63,D09,PRLA,PRLA.AOS.littoral2,2015-06-03T15:20Z,PRLA.OT.20150603,,,PRLA.OT.20150603.POM.2,,,PRLA.OT.20150603.POM.1,,2015-06-03T17:45Z,110,114,,20211221T194539Z,RELEASE-2022
3bcf7ce4-cc54-468b-9522-3cedb9b840f5,D09,PRLA,PRLA.AOS.littoral1,2015-07-08T14:36Z,PRLA.IN.20150708,,,PRLA.IN.20150708.POM.2,,,PRLA.IN.20150708.POM.1,,2015-07-08T16:50Z,100,100,,20211221T224859Z,RELEASE-2022
13725cef-17af-41ee-a078-f05545258501,D09,PRLA,PRLA.AOS.buoy.c0,2015-07-08T15:20Z,PRLA.C0.20150708,,,PRLA.C0.20150708.POM.2,,,PRLA.C0.20150708.POM.1,,2015-07-08T16:40Z,100,100,,20211221T224859Z,RELEASE-2022
7420ae14-5726-4050-8918-65aebf03edc7,D09,PRLA,PRLA.AOS.littoral2,2015-07-08T15:50Z,PRLA.OT.20150708,,,PRLA.OT.20150708.POM.2,,,PRLA.OT.20150708.POM.1,,2015-07-08T16:50Z,100,100,,20211221T224859Z,RELEASE-2022
22374a98-c8d6-449f-92e2-d752ab8ee68e,D09,PRLA,PRLA.AOS.littoral1,2015-08-03T15:15Z,PRLA.IN.20150803,,,PRLA.IN.20150803.POM.2,,,PRLA.IN.20150803.POM.1,,2015-08-03T18:20Z,120,120,,20211221T213301Z,RELEASE-2022
a1c2aada-1666-4369-8ead-84fb391c8cdd,D09,PRLA,PRLA.AOS.buoy.c0,2015-08-03T16:10Z,PRLA.C0.20150803,,,PRLA.C0.20150803.POM.2,,,PRLA.C0.20150803.POM.1,,2015-08-03T18:25Z,120,120,,20211221T213301Z,RELEASE-2022
01abea67-ee06-483a-afb2-8df341e3d787,D09,PRLA,PRLA.AOS.littoral2,2015-08-03T16:20Z,PRLA.OT.20150803,,,PRLA.OT.20150803.POM.2,,,PRLA.OT.20150803.POM.1,,2015-08-03T18:41Z,120,120,,20211221T213301Z,RELEASE-2022
2ea9f133-eb52-4c96-8e26-15580811b5c9,D09,PRLA,PRLA.AOS.littoral1,2015-09-02T14:20Z,PRLA.IN.20150902,,,PRLA.IN.20150902.POM.2,,,PRLA.IN.20150902.POM.1,,2015-09-02T16:40Z,100,100,,20211221T212946Z,RELEASE-2022
ced592c3-18ae-4073-9dd2-d067a7a5072f,D09,PRLA,PRLA.AOS.buoy.c0,2015-09-02T14:45Z,PRLA.C0.20150902,,,PRLA.C0.20150902.POM.2,,,PRLA.C0.20150902.POM.1,,2015-09-02T16:55Z,108,110,,20211221T212946Z,RELEASE-2022
d077f941-44b6-4d0f-bc18-b5a37a121d36,D09,PRLA,PRLA.AOS.littoral2,2015-09-02T15:05Z,PRLA.OT.20150902,,,PRLA.OT.20150902.POM.2,,,PRLA.OT.20150902.POM.1,,2015-09-02T17:15Z,112,110,,20211221T212946Z,RELEASE-2022
a321d485-76d3-4d58-847f-6243b433f793,D09,PRLA,PRLA.AOS.littoral1,2015-10-22T15:00Z,PRLA.IN.20151022,,,PRLA.IN.20151022.POM.2,,,PRLA.IN.20151022.POM.1,,2015-10-22T17:30Z,100,100,,20211221T211933Z,RELEASE-2022
12bdaa43-4850-4281-970e-806574fa6edd,D09,PRLA,PRLA.AOS.buoy.c0,2015-10-22T15:27Z,PRLA.C0.20151022,,,PRLA.C0.20151022.POM.2,,,PRLA.C0.20151022.POM.1,,2015-10-22T17:50Z,100,100,,20211221T211933Z,RELEASE-2022
ba7d2378-90ba-4c87-85da-d7e8d0e76840,D09,PRLA,PRLA.AOS.littoral2,2015-10-22T15:45Z,PRLA.OT.20151022,,,PRLA.OT.20151022.POM.2,,,PRLA.OT.20151022.POM.1,,2015-10-22T18:00Z,100,100,,20211221T211933Z,RELEASE-2022
a28e8b52-9b8e-402c-86eb-d60f7f0d310a,D09,PRLA,PRLA.AOS.littoral1,2015-11-04T16:05Z,PRLA.IN.20151104,,,PRLA.IN.20151104.POM.2,,,PRLA.IN.20151104.POM.1,,2015-11-04T19:20Z,124,124,,20211221T234136Z,RELEASE-2022
27b757b2-cda1-4ee3-9243-df2c27f8654c,D09,PRLA,PRLA.AOS.buoy.c0,2015-11-04T16:30Z,PRLA.C0.20151104,,,PRLA.C0.20151104.POM.2,,,PRLA.C0.20151104.POM.1,,2015-11-04T19:30Z,130,130,,20211221T234136Z,RELEASE-2022
3085a24a-11a2-4c00-b56b-0d3a222b3f76,D09,PRLA,PRLA.AOS.littoral2,2015-11-04T16:45Z,PRLA.OT.20151104,,,PRLA.OT.20151104.POM.2,,,PRLA.OT.20151104.POM.1,,2015-11-04T19:40Z,130,130,,20211221T234136Z,RELEASE-2022
e1317069-9b3f-47d5-9d8d-1e80390d0ad9,D09,PRLA,PRLA.AOS.littoral1,2016-01-07T16:15Z,PRLA.IN.20160107,,,PRLA.IN.20160107.POM.2,,,PRLA.IN.20160107.POM.1,,2016-01-07T19:41Z,250,200,,20211221T210040Z,RELEASE-2022
befec21b-61c4-4b47-83cc-bd1f4612190a,D09,PRLA,PRLA.AOS.buoy.c0,2016-01-07T16:45Z,PRLA.C0.20160107,,,PRLA.C0.20160107.POM.2,,,PRLA.C0.20160107.POM.1,,2016-01-07T19:47Z,200,100,,20211221T210040Z,RELEASE-2022
c179ae13-fe58-422b-8449-eee8eb7ac7fd,D09,PRLA,PRLA.AOS.littoral2,2016-01-07T17:00Z,PRLA.OT.20160107,,,PRLA.OT.20160107.POM.2,,,PRLA.OT.20160107.POM.1,,2016-01-07T20:07Z,150,150,,20211221T210040Z,RELEASE-2022
96491f4b-2efd-4a28-af90-f37ce355210b,D09,PRLA,PRLA.AOS.littoral1,2016-02-03T15:55Z,PRLA.IN.20160203,,,PRLA.IN.20160203.POM.2,,,PRLA.IN.20160203.POM.1,,2016-02-03T18:45Z,103,101,,20211221T231253Z,RELEASE-2022
b3332082-3633-4463-9c80-b13d67fd1729,D09,PRLA,PRLA.AOS.buoy.c0,2016-02-03T16:15Z,PRLA.C0.20160203,,,PRLA.C0.20160203.POM.2,,,PRLA.C0.20160203.POM.1,,2016-02-03T19:00Z,100,100,,20211221T231253Z,RELEASE-2022
674fdf30-3460-4293-bc28-3abbd8f3560a,D09,PRLA,PRLA.AOS.littoral2,2016-02-03T16:45Z,PRLA.OT.20160203,,,PRLA.OT.20160203.POM.2,,,PRLA.OT.20160203.POM.1,,2016-02-03T19:20Z,108,104,,20211221T231253Z,RELEASE-2022
aae7cebb-05bf-4bc1-89b5-4f44ab62c278,D09,PRLA,PRLA.AOS.littoral1,2016-03-02T15:45Z,PRLA.IN.20160302,,,PRLA.IN.20160302.POM.2,,,PRLA.IN.20160302.POM.1,,2016-03-02T18:01Z,130,130,,20211222T000529Z,RELEASE-2022
9f4d8ee1-e2d5-40ef-bf04-360c5ffb6b78,D09,PRLA,PRLA.AOS.buoy.c0,2016-03-02T16:25Z,PRLA.C0.20160302,,,PRLA.C0.20160302.POM.2,,,PRLA.C0.20160302.POM.1,,2016-03-02T18:25Z,160,160,,20211222T000529Z,RELEASE-2022
f1862b79-6a2f-4dcc-a215-7b5c5017cc6c,D09,PRLA,PRLA.AOS.littoral2,2016-03-02T16:45Z,PRLA.OT.20160302,,,PRLA.OT.20160302.POM.2,,,PRLA.OT.20160302.POM.1,,2016-03-02T18:04Z,130,130,,20211222T000529Z,RELEASE-2022
0267aa9b-10b7-4fac-8940-49c920b9b0c0,D09,PRLA,PRLA.AOS.littoral1,2016-03-22T15:40Z,PRLA.IN.20160322,,,PRLA.IN.20160322.POM.2,,,PRLA.IN.20160322.POM.1,,2016-03-22T18:25Z,100,100,,20211222T000529Z,RELEASE-2022
165cc27a-3fe0-4535-b206-42f6df4d9f5b,D09,PRLA,PRLA.AOS.buoy.c0,2016-03-22T16:15Z,PRLA.C0.20160322,,,PRLA.C0.20160322.POM.2,,,PRLA.C0.20160322.POM.1,,2016-03-22T18:45Z,100,100,,20211222T000529Z,RELEASE-2022
1cf8fabf-c590-4407-a2a0-6eb1771b0942,D09,PRLA,PRLA.AOS.littoral2,2016-03-22T16:30Z,PRLA.OT.20160322,,,PRLA.OT.20160322.POM.2,,,PRLA.OT.20160322.POM.1,,2016-03-22T19:05Z,100,100,,20211222T000529Z,RELEASE-2022
091f6a0c-5eee-4050-91a5-b8e4449f48d4,D09,PRLA,PRLA.AOS.littoral1,2016-05-02T15:25Z,PRLA.IN.20160502,,,PRLA.IN.20160502.POM.2,,,PRLA.IN.20160502.POM.1,,2016-05-02T18:10Z,150,150,,20211222T003824Z,RELEASE-2022
5d74a2a0-a5ad-4627-9936-1f48db02722d,D09,PRLA,PRLA.AOS.buoy.c0,2016-05-02T16:05Z,PRLA.C0.20160502,,,PRLA.C0.20160502.POM.2,,,PRLA.C0.20160502.POM.1,,2016-05-02T18:37Z,150,150,,20211222T003824Z,RELEASE-2022
b6eab282-7a26-41b6-8457-83e8aaeda4cc,D09,PRLA,PRLA.AOS.littoral2,2016-05-02T16:25Z,PRLA.OT.20160502,,,PRLA.OT.20160502.POM.2,,,PRLA.OT.20160502.POM.1,,2016-05-02T19:00Z,150,150,,20211222T003824Z,RELEASE-2022
42524c1a-8aa2-492f-b592-b1b9e92e9d7d,D09,PRLA,PRLA.AOS.littoral1,2016-06-08T14:15Z,PRLA.IN.20160608,,,PRLA.IN.20160608.POM.2,,,PRLA.IN.20160608.POM.1,,2016-06-08T17:15Z,150,150,,20211222T012802Z,RELEASE-2022
c44f3aa3-2a8b-4f66-b5b7-0db27928d522,D09,PRLA,PRLA.AOS.buoy.c0,2016-06-08T14:59Z,PRLA.C0.20160608,,,PRLA.C0.20160608.POM.2,,,PRLA.C0.20160608.POM.1,,2016-06-08T17:50Z,150,150,,20211222T012802Z,RELEASE-2022
8382ecf6-9e1f-4b60-a366-c75b4e13de38,D09,PRLA,PRLA.AOS.littoral2,2016-06-08T15:23Z,PRLA.OT.20160608,,,PRLA.OT.20160608.POM.2,,,PRLA.OT.20160608.POM.1,,2016-06-08T18:15Z,150,150,,20211222T012802Z,RELEASE-2022
f9d2dd0f-83e4-4a90-98ef-35a0f45a4344,D09,PRLA,PRLA.AOS.littoral1,2016-07-08T14:50Z,PRLA.IN.20160708,,,PRLA.IN.20160708.POM.2,,,PRLA.IN.20160708.POM.1,,2016-07-08T20:24Z,75,75,,20211222T010401Z,RELEASE-2022
bf0d8937-9930-4146-8b7f-4675c0cc5bd0,D09,PRLA,PRLA.AOS.buoy.c0,2016-07-08T15:20Z,PRLA.C0.20160708,,,PRLA.C0.20160708.POM.2,,,PRLA.C0.20160708.POM.1,,2016-07-08T21:08Z,75,75,,20211222T010401Z,RELEASE-2022
63246bbb-a78d-4b88-ad8e-1c9619b903aa,D09,PRLA,PRLA.AOS.littoral2,2016-07-08T15:50Z,PRLA.OT.20160708,,,PRLA.OT.20160708.POM.2,,,PRLA.OT.20160708.POM.1,,2016-07-08T21:20Z,75,75,,20211222T010401Z,RELEASE-2022
f9b1ae63-e6b2-46ca-aedf-2fbdd36391d4,D09,PRLA,PRLA.AOS.littoral1,2016-08-03T13:40Z,PRLA.IN.20160803,,"",PRLA.IN.20160803.POM.2,,"",PRLA.IN.20160803.POM.1,,2016-08-03T16:20Z,50,50,,20211222T002326Z,RELEASE-2022
49ba3d53-1315-4152-8b24-a32fba57744f,D09,PRLA,PRLA.AOS.buoy.c0,2016-08-03T14:10Z,PRLA.C0.20160803,,Sample condition ok,PRLA.C0.20160803.POM.2,,Sample condition ok,PRLA.C0.20160803.POM.1,,2016-08-03T16:40Z,75,75,,20211222T002326Z,RELEASE-2022
8f395727-bca9-42ea-b77c-b1f422590488,D09,PRLA,PRLA.AOS.littoral2,2016-08-03T14:30Z,PRLA.OT.20160803,,"",PRLA.OT.20160803.POM.2,,"",PRLA.OT.20160803.POM.1,,2016-08-03T16:49Z,75,75,,20211222T002326Z,RELEASE-2022
0b228769-4f85-4cf2-a973-f81b00756905,D09,PRLA,PRLA.AOS.littoral1,2016-09-07T14:15Z,PRLA.IN.20160907,,,PRLA.IN.20160907.POM.2,,,PRLA.IN.20160907.POM.1,,2016-09-07T16:40Z,40,40,,20211222T004727Z,RELEASE-2022
d305afc0-eb3e-46cc-8405-29e72d4ae69f,D09,PRLA,PRLA.AOS.buoy.c0,2016-09-07T14:41Z,PRLA.C0.20160907,,,PRLA.C0.20160907.POM.2,,,PRLA.C0.20160907.POM.1,,2016-09-07T16:56Z,40,40,,20211222T004727Z,RELEASE-2022
06170754-4b33-47e3-b6c2-06295f0b957c,D09,PRLA,PRLA.AOS.littoral2,2016-09-07T15:01Z,PRLA.OT.20160907,,,PRLA.OT.20160907.POM.2,,,PRLA.OT.20160907.POM.1,,2016-09-07T17:05Z,40,40,,20211222T004727Z,RELEASE-2022
675f28a6-9cf3-4fa6-95e0-dbdcafb0173b,D09,PRLA,PRLA.AOS.littoral1,2016-10-19T15:05Z,PRLA.IN.20161019,,,PRLA.IN.20161019.POM.2,,,PRLA.IN.20161019.POM.1,,2016-10-19T18:22Z,75,75,,20211221T202208Z,RELEASE-2022
eedbc17d-0a48-4076-8484-232826a47343,D09,PRLA,PRLA.AOS.buoy.c0,2016-10-19T15:30Z,PRLA.C0.20161019,,,PRLA.C0.20161019.POM.2,,,PRLA.C0.20161019.POM.1,,2016-10-19T19:01Z,75,75,,20211221T202208Z,RELEASE-2022
12491bf3-86ad-4b92-ab1f-f028e0a3df62,D09,PRLA,PRLA.AOS.littoral2,2016-10-19T15:55Z,PRLA.OT.20161019,,,PRLA.OT.20161019.POM.2,,,PRLA.OT.20161019.POM.1,,2016-10-19T19:29Z,75,75,,20211221T202208Z,RELEASE-2022
c8fdb791-2bfa-457c-b433-88e7cb819016,D09,PRLA,PRLA.AOS.littoral1,2016-11-16T15:40Z,PRLA.IN.20161116,,,PRLA.IN.20161116.POM.2,,,PRLA.IN.20161116.POM.1,,2016-11-16T18:10Z,100,100,,20211221T205743Z,RELEASE-2022
ac144c4d-4ac8-4176-a2f1-c0f655919b94,D09,PRLA,PRLA.AOS.buoy.c0,2016-11-16T16:00Z,PRLA.C0.20161116,,,PRLA.C0.20161116.POM.2,,,PRLA.C0.20161116.POM.1,,2016-11-16T19:10Z,100,100,,20211221T205743Z,RELEASE-2022
8a6aa8f5-6b38-4f2e-ba85-e3a1872c37f3,D09,PRLA,PRLA.AOS.littoral2,2016-11-16T16:15Z,PRLA.OT.20161116,,,PRLA.OT.20161116.POM.2,,,PRLA.OT.20161116.POM.1,,2016-11-16T19:20Z,100,100,,20211221T205743Z,RELEASE-2022
02415f16-195c-4402-821a-b267b13be917,D09,PRLA,PRLA.AOS.buoy.c0,2016-12-19T17:53Z,PRLA.C0.20161219,,,PRLA.C0.20161219.POM.2,,,PRLA.C0.20161219.POM.1,,2016-12-19T20:00Z,200,200,,20211221T194449Z,RELEASE-2022
ac126ed9-3266-470f-b841-97caaf4c1266,D09,PRLA,PRLA.AOS.buoy.c0,2017-01-18T16:15Z,PRLA.C0.20170118,,,PRLA.C0.20170118.POM.2,,,PRLA.C0.20170118.POM.1,,2017-01-18T18:20Z,80,80,,20211221T214851Z,RELEASE-2022
cfbeb40d-e97c-4a79-93b3-eddbdf3488db,D09,PRLA,PRLA.AOS.buoy.c0,2017-02-13T16:15Z,PRLA.C0.20170213,,,PRLA.C0.20170213.POM.2,,,PRLA.C0.20170213.POM.1,,2017-02-13T18:00Z,100,100,,20211222T011002Z,RELEASE-2022
0a8ab712-7c0c-4031-bdc9-14444ec6828e,D09,PRLA,PRLA.AOS.buoy.c0,2017-03-22T14:45Z,PRLA.C0.20170322,,,PRLA.C0.20170322.POM.2,,,PRLA.C0.20170322.POM.1,,2017-03-22T15:45Z,60,60,,20211221T214336Z,RELEASE-2022
e81c5a7a-155a-4027-9bd4-ab29f7c9da9e,D09,PRLA,PRLA.AOS.littoral1,2017-04-12T14:40Z,PRLA.IN.20170412,,,PRLA.IN.20170412.POM.2,,,PRLA.IN.20170412.POM.1,,2017-04-12T18:30Z,50,50,,20211221T204850Z,RELEASE-2022
51327907-184b-4943-83b3-fd93ce843190,D09,PRLA,PRLA.AOS.buoy.c0,2017-04-12T15:15Z,PRLA.C0.20170412,,,PRLA.C0.20170412.POM.2,,,PRLA.C0.20170412.POM.1,,2017-04-12T18:35Z,50,50,,20211221T204850Z,RELEASE-2022
8dff776d-88f9-43f4-b5d8-9508c07f09f7,D09,PRLA,PRLA.AOS.littoral2,2017-04-12T15:40Z,PRLA.OT.20170412,,,PRLA.OT.20170412.POM.2,,,PRLA.OT.20170412.POM.1,,2017-04-12T18:40Z,50,50,,20211221T204850Z,RELEASE-2022
8f68e77a-8b2f-4bde-a34c-a43397e49969,D09,PRLA,PRLA.AOS.littoral1,2017-05-03T14:00Z,PRLA.IN.20170503,,Sample condition ok,PRLA.IN.20170503.POM.2,,Sample condition ok,PRLA.IN.20170503.POM.1,,2017-05-03T16:50Z,100,100,,20211222T020816Z,RELEASE-2022
c2c2c153-8f72-498c-98a0-5b38198a8263,D09,PRLA,PRLA.AOS.buoy.c0,2017-05-03T14:20Z,PRLA.C0.20170503,,Sample condition ok,PRLA.C0.20170503.POM.2,,Sample condition ok,PRLA.C0.20170503.POM.1,,2017-05-03T16:30Z,100,100,,20211222T020816Z,RELEASE-2022
82f29766-faac-4d48-97bb-2c096dbc3d51,D09,PRLA,PRLA.AOS.littoral2,2017-05-03T14:45Z,PRLA.OT.20170503,,Sample condition ok,PRLA.OT.20170503.POM.2,,Sample condition ok,PRLA.OT.20170503.POM.1,,2017-05-03T17:05Z,100,100,,20211222T020816Z,RELEASE-2022
f1e8e48f-d0f8-4b51-bda3-f32c56c3dde6,D09,PRLA,PRLA.AOS.littoral1,2017-06-08T14:10Z,PRLA.IN.20170608,,Sample condition ok,,,Sample condition ok,PRLA.IN.20170608.POM.1,,2017-06-08T17:25Z,60,,,20211222T030913Z,RELEASE-2022
36bf75c3-8048-4d90-9f13-1d4f1942cbd1,D09,PRLA,PRLA.AOS.buoy.c0,2017-06-08T14:45Z,PRLA.C0.20170608,,Sample condition ok,,,Sample condition ok,PRLA.C0.20170608.POM.1,,2017-06-08T18:00Z,60,,,20211222T030913Z,RELEASE-2022
1b00f6f9-56a9-49e0-b6bf-bde15dbe37cf,D09,PRLA,PRLA.AOS.littoral2,2017-06-08T15:10Z,PRLA.OT.20170608,,Sample condition ok,,,Sample condition ok,PRLA.OT.20170608.POM.1,,2017-06-08T18:30Z,60,,,20211222T030913Z,RELEASE-2022
57ddc205-422f-49fc-88ae-70e396a67dd2,D09,PRLA,PRLA.AOS.littoral1,2017-07-06T14:05Z,PRLA.IN.20170706,,Sample condition ok,,,Sample condition ok,PRLA.IN.20170706.POM.1,,2017-07-06T19:35Z,50,,,20211221T195142Z,RELEASE-2022
7c89430c-15d0-42b1-ad05-9ed80580d6ef,D09,PRLA,PRLA.AOS.buoy.c0,2017-07-06T15:00Z,PRLA.C0.20170706,,Sample condition ok,,,Sample condition ok,PRLA.C0.20170706.POM.1,,2017-07-06T19:35Z,50,,,20211221T195142Z,RELEASE-2022
0663d6b6-a7a6-4fcd-af88-27169c40e508,D09,PRLA,PRLA.AOS.littoral2,2017-07-06T15:25Z,PRLA.OT.20170706,,Sample condition ok,,,Sample condition ok,PRLA.OT.20170706.POM.1,,2017-07-06T19:35Z,50,,,20211221T195142Z,RELEASE-2022
1cb3c908-e479-4766-aa7c-8bff812bca80,D09,PRLA,PRLA.AOS.littoral1,2017-08-03T14:15Z,PRLA.IN.20170803,,Sample condition ok,,,Sample condition ok,PRLA.IN.20170803.POM.1,,2017-08-03T18:35Z,80,,,20211222T033852Z,RELEASE-2022
7f6f80fe-17c6-4868-a334-ad2aac8d9834,D09,PRLA,PRLA.AOS.buoy.c0,2017-08-03T14:50Z,PRLA.C0.20170803,,Sample condition ok,,,Sample condition ok,PRLA.C0.20170803.POM.1,,2017-08-03T19:00Z,80,,,20211222T033852Z,RELEASE-2022
8063ddee-32b3-4e6e-a96d-9cbd44aea604,D09,PRLA,PRLA.AOS.littoral2,2017-08-03T15:09Z,PRLA.OT.20170803,,Sample condition ok,,,Sample condition ok,PRLA.OT.20170803.POM.1,,2017-08-03T19:20Z,80,,,20211222T033852Z,RELEASE-2022
13027ec1-1ec0-4225-a6af-b33699f152d2,D09,PRLA,PRLA.AOS.littoral1,2017-09-06T13:50Z,PRLA.IN.20170906,,Sample condition ok,,,Sample condition ok,PRLA.IN.20170906.POM.1,,2017-09-06T16:20Z,80,,,20211221T202528Z,RELEASE-2022
bbe6600d-1346-483f-a177-ef6ad0aec95a,D09,PRLA,PRLA.AOS.buoy.c0,2017-09-06T14:15Z,PRLA.C0.20170906,,Sample condition ok,,,Sample condition ok,PRLA.C0.20170906.POM.1,,2017-09-06T16:30Z,80,,,20211221T202528Z,RELEASE-2022
f535b865-9e3b-4532-8faa-12aca9254660,D09,PRLA,PRLA.AOS.littoral2,2017-09-06T14:30Z,PRLA.OT.20170906,,Sample condition ok,,,Sample condition ok,PRLA.OT.20170906.POM.1,,2017-09-06T16:40Z,80,,,20211221T202528Z,RELEASE-2022
a1a133ce-6d6c-45dd-853f-1e0c7a07a737,D09,PRLA,PRLA.AOS.littoral1,2017-10-19T14:25Z,PRLA.IN.20171019,,Sample condition ok,PRLA.IN.20171019.POM.2,,Sample condition ok,PRLA.IN.20171019.POM.1,,2017-10-19T18:35Z,50,50,,20211221T202756Z,RELEASE-2022
697abef7-7cbe-4133-8e33-f43c89ac2bb1,D09,PRLA,PRLA.AOS.buoy.c0,2017-10-19T15:00Z,PRLA.C0.20171019,,Sample condition ok,PRLA.C0.20171019.POM.2,,Sample condition ok,PRLA.C0.20171019.POM.1,,2017-10-19T18:50Z,50,50,,20211221T202756Z,RELEASE-2022
db2d4732-8707-4003-88df-36a642946935,D09,PRLA,PRLA.AOS.littoral2,2017-10-19T15:20Z,PRLA.OT.20171019,,Sample condition ok,PRLA.OT.20171019.POM.2,,Sample condition ok,PRLA.OT.20171019.POM.1,,2017-10-19T19:05Z,50,50,,20211221T202756Z,RELEASE-2022
dcdea5c7-80c5-4605-8da2-1b5251f3e43f,D09,PRLA,PRLA.AOS.reach,2017-11-01T14:49Z,PRLA.RE.20171101,,Sample condition ok,PRLA.RE.20171101.POM.2,,Sample condition ok,PRLA.RE.20171101.POM.1,,2017-11-01T17:40Z,80,80,,20211221T232807Z,RELEASE-2022
7b83c33e-ec2d-41b0-b7a0-63aa34ee8962,D09,PRLA,PRLA.AOS.buoy.c0,2017-11-01T15:15Z,PRLA.C0.20171101,,Sample condition ok,PRLA.C0.20171101.POM.2,,Sample condition ok,PRLA.C0.20171101.POM.1,,2017-11-01T18:04Z,80,80,,20211221T232807Z,RELEASE-2022
d80bcdda-8267-4fd7-a1b0-d560275f3e8f,D09,PRLA,PRLA.AOS.littoral2,2017-11-01T15:37Z,PRLA.OT.20171101,,Sample condition ok,PRLA.OT.20171101.POM.2,,Sample condition ok,PRLA.OT.20171101.POM.1,,2017-11-01T18:15Z,80,80,,20211221T232807Z,RELEASE-2022
b9cb572b-1cb9-4a9a-a98a-904ca249b3e4,D09,PRLA,PRLA.AOS.buoy.c0,2018-01-04T17:00Z,PRLA.C0.20180104,,Sample condition ok,PRLA.C0.20180104.POM.2,,Sample condition ok,PRLA.C0.20180104.POM.1,,2018-01-04T19:33Z,100,100,,20211222T035520Z,RELEASE-2022
28a14780-c443-4fb1-92dd-201c66b046aa,D09,PRLA,PRLA.AOS.buoy.c0,2018-02-13T16:45Z,PRLA.C0.20180213,,Sample condition ok,PRLA.C0.20180213.POM.2,,Sample condition ok,PRLA.C0.20180213.POM.1,,2018-02-13T19:50Z,40,40,,20211221T201637Z,RELEASE-2022
b6671962-5a4c-433f-a7eb-90b3bed0f503,D09,PRLA,PRLA.AOS.buoy.c0,2018-03-13T16:05Z,PRLA.C0.20180313,,Sample condition ok,PRLA.C0.20180313.POM.2,,Sample condition ok,PRLA.C0.20180313.POM.1,,2018-03-13T18:59Z,90,90,,20211222T002743Z,RELEASE-2022
7cd85d52-1214-4a0e-a9e6-a87fcadbb5e1,D09,PRLA,PRLA.AOS.buoy.c0,2018-04-17T16:03Z,PRLA.C0.20180417,,Sample condition ok,PRLA.C0.20180417.POM.2,A00000017353,Sample condition ok,PRLA.C0.20180417.POM.1,A00000017336,2018-04-17T18:10Z,100,100,,20211222T034749Z,RELEASE-2022
7f59f81c-2471-4fdc-b77e-5f604d11802e,D09,PRLA,PRLA.AOS.buoy.c0,2018-05-01T16:26Z,PRLA.C0.20180501,,Sample condition ok,PRLA.C0.20180501.POM.2,A00000016317,Sample condition ok,PRLA.C0.20180501.POM.1,A00000016316,2018-05-01T18:50Z,100,100,,20211221T232350Z,RELEASE-2022
3313922b-6f58-4adc-887e-a189752757d1,D09,PRLA,PRLA.AOS.buoy.c0,2018-06-05T15:40Z,PRLA.C0.20180605,,Sample condition ok,PRLA.C0.20180605.POM.2,A00000016890,Sample condition ok,PRLA.C0.20180605.POM.1,A00000016873,2018-06-05T17:47Z,80,80,,20211222T001527Z,RELEASE-2022
c0e9a4f8-7514-4798-855a-eb5ddeea9458,D09,PRLA,PRLA.AOS.buoy.c1,2018-06-20T15:50Z,PRLA.C1.20180620,,Sample condition ok,PRLA.C1.20180620.POM.2,A00000016990,Sample condition ok,PRLA.C1.20180620.POM.1,A00000016989,"",40,50,,20211222T001527Z,RELEASE-2022
7f05a18f-8ad6-403c-bbe9-3983b714067a,D09,PRLA,PRLA.AOS.buoy.c0,2018-07-05T15:20Z,PRLA.C0.20180705,,Sample condition ok,PRLA.C0.20180705.POM.2,A00000017030,Sample condition ok,PRLA.C0.20180705.POM.1,A00000017040,2018-07-05T18:36Z,70,70,,20211221T223834Z,RELEASE-2022
3832e789-8727-4a1f-8d36-782a52a4dd90,D09,PRLA,PRLA.AOS.buoy.c0,2018-08-07T16:16Z,PRLA.C0.20180807,,Sample condition ok,PRLA.C0.20180807.POM.2,B00000027906,Sample condition ok,PRLA.C0.20180807.POM.1,B00000027907,2018-08-07T19:49Z,70,70,,20211222T005432Z,RELEASE-2022
2896a7d8-706a-4ee1-8ece-7f1556a2364b,D09,PRLA,PRLA.AOS.buoy.c0,2018-09-04T15:50Z,PRLA.C0.20180904,,Sample condition ok,PRLA.C0.20180904.POM.2,A00000049190,Sample condition ok,PRLA.C0.20180904.POM.1,A00000049191,2018-09-04T20:18Z,80,80,,20211222T021142Z,RELEASE-2022
cc042727-6b46-4d91-a292-e73021ecf972,D09,PRLA,PRLA.AOS.buoy.c0,2018-10-16T16:03Z,PRLA.C0.20181016,,Sample condition ok,PRLA.C0.20181016.POM.2,A00000049855,Sample condition ok,PRLA.C0.20181016.POM.1,A00000049854,2018-10-16T18:30Z,70,70,,20211222T024753Z,RELEASE-2022
5b06e84e-e5f6-4fc8-b18b-e8a11fc1daa5,D09,PRLA,PRLA.AOS.buoy.c0,2018-10-30T16:07Z,PRLA.C0.20181030,,Sample condition ok,PRLA.C0.20181030.POM.2,A00000049734,Sample condition ok,PRLA.C0.20181030.POM.1,A00000049717,2018-10-30T18:00Z,70,70,,20211222T024753Z,RELEASE-2022
367ef90f-ee07-4db8-8ab6-be6c62aa62ef,D09,PRLA,PRLA.AOS.buoy.c0,2018-12-04T16:42Z,PRLA.C0.20181204,,Sample condition ok,PRLA.C0.20181204.POM.2,A00000049896,Sample condition ok,PRLA.C0.20181204.POM.1,A00000049895,,52,50,,20211221T202653Z,RELEASE-2022
8ef91a3e-a39f-4aed-b7d1-081a2c0684d8,D09,PRLA,PRLA.AOS.buoy.c0,2019-01-10T17:10Z,PRLA.C0.20190110,,Sample condition ok,PRLA.C0.20190110.POM.2,A00000049913,Sample condition ok,PRLA.C0.20190110.POM.1,A00000049912,2019-01-10T18:45Z,60,62,,20211221T221500Z,RELEASE-2022
8728d915-ac27-46e3-bf60-7653ad482c81,D09,PRLA,PRLA.AOS.buoy.c0,2019-02-11T17:55Z,PRLA.C0.20190211,,Sample condition ok,PRLA.C0.20190211.POM.2,A00000049928,Sample condition ok,PRLA.C0.20190211.POM.1,A00000049927,,70,70,,20211222T025456Z,RELEASE-2022
f2315567-4de2-4f11-a698-c954e47db271,D09,PRLA,PRLA.AOS.buoy.c0,2019-03-26T16:10Z,PRLA.C0.20190326,,Sample condition ok,PRLA.C0.20190326.POM.2,A00000049949,Sample condition ok,PRLA.C0.20190326.POM.1,A00000049948,2019-03-26T18:30Z,60,60,,20211222T021245Z,RELEASE-2022
d8434ad2-8260-43e3-8265-970adc14879e,D09,PRLA,PRLA.AOS.buoy.c1,2019-04-23T16:00Z,PRLA.C1.20190423,,Sample condition ok,PRLA.C1.20190423.POM.2,A00000049966,Sample condition ok,PRLA.C1.20190423.POM.1,A00000049965,2019-04-23T18:32Z,60,60,,20211221T234249Z,RELEASE-2022
07501fad-afe8-4e7a-bedc-8a978f8b5f17,D09,PRLA,PRLA.AOS.buoy.c0,2019-05-07T16:10Z,PRLA.C0.20190507,,Sample condition ok,PRLA.C0.20190507.POM.2,A00000084936,Sample condition ok,PRLA.C0.20190507.POM.1,A00000084935,2019-05-07T18:20Z,46,46,,20211221T232908Z,RELEASE-2022
0a698999-5c8e-4d40-b532-15696a25f376,D09,PRLA,PRLA.AOS.buoy.c0,2019-06-04T15:25Z,PRLA.C0.20190604,,Sample condition ok,PRLA.C0.20190604.POM.2,A00000086777,Sample condition ok,PRLA.C0.20190604.POM.1,A00000086775,,70,70,,20211222T003628Z,RELEASE-2022
9e99948b-3073-4706-b27d-718082c57063,D09,PRLA,PRLA.AOS.buoy.c0,2019-07-01T14:53Z,PRLA.C0.20190701,,Sample condition ok,PRLA.C0.20190701.POM.2,A00000087293,Sample condition ok,PRLA.C0.20190701.POM.1,A00000087292,2019-07-01T16:58Z,400,400,,20211222T024921Z,RELEASE-2022
d80de0f1-ed00-4794-a33e-bbb6cd631227,D09,PRLA,PRLA.AOS.buoy.c0,2019-08-06T15:55Z,PRLA.C0.20190806,,Sample condition ok,PRLA.C0.20190806.POM.2,A00000087845,Sample condition ok,PRLA.C0.20190806.POM.1,A00000087844,2019-08-06T19:45Z,150,150,,20211222T024557Z,RELEASE-2022
77d1e7b1-2adc-4c42-9a8f-dc9ce18ef244,D09,PRLA,PRLA.AOS.buoy.c0,2019-09-04T16:00Z,PRLA.C0.20190904,,Sample condition ok,PRLA.C0.20190904.POM.2,A00000087858,Sample condition ok,PRLA.C0.20190904.POM.1,A00000087857,2019-09-04T18:36Z,300,300,,20211221T210100Z,RELEASE-2022
dd337ba5-9a97-4cbd-bc32-6b3f1c52e77c,D09,PRLA,PRLA.AOS.buoy.c0,2019-10-16T17:05Z,PRLA.C0.20191016,,Sample condition ok,PRLA.C0.20191016.POM.2,A00000137677,Sample condition ok,PRLA.C0.20191016.POM.1,A00000137678,,200,200,,20211221T220548Z,RELEASE-2022
94e3ef56-5b50-4fef-99a9-7e8fcbe06d49,D09,PRLA,PRLA.AOS.buoy.c0,2019-12-04T17:40Z,PRLA.C0.20191204,,Sample condition ok,PRLA.C0.20191204.POM.2,A00000138152,Sample condition ok,PRLA.C0.20191204.POM.1,A00000138151,2019-12-04T19:36Z,500,500,,20211222T004816Z,RELEASE-2022
47e22a3a-ad02-42dc-8346-324252e4c529,D09,PRLA,PRLA.AOS.buoy.c0,2020-01-09T15:12Z,PRLA.C0.20200109,,Sample condition ok,PRLA.C0.20200109.POM.2,A00000137884,Sample condition ok,PRLA.C0.20200109.POM.1,A00000137902,2020-01-10T18:23Z,500,500,,20211222T040700Z,PROVISIONAL
5cec2dfb-b22c-4f44-acf8-f669d05510bf,D09,PRLA,PRLA.AOS.buoy.c0,2020-02-11T15:50Z,PRLA.C0.20200211,,Sample condition ok,PRLA.C0.20200211.POM.2,A00000050062,Sample condition ok,PRLA.C0.20200211.POM.1,A00000050061,2020-02-11T17:13Z,400,400,,20211221T222158Z,PROVISIONAL
54e4c374-6216-48b6-a0f7-87713b646658,D09,PRLA,PRLA.AOS.buoy.c0,2020-03-10T16:15Z,PRLA.C0.20200310,,Sample condition ok,PRLA.C0.20200310.POM.2,A00000050090,Sample condition ok,PRLA.C0.20200310.POM.1,A00000050089,2020-03-10T18:26Z,300,300,,20211221T221328Z,PROVISIONAL
b854e250-2e59-465d-a4ab-026c200b1124,D09,PRLA,PRLA.AOS.buoy.c0,2020-06-09T15:35Z,PRLA.C0.20200609,,Sample condition ok,PRLA.C0.20200609.POM.2,A00000050116,Sample condition ok,PRLA.C0.20200609.POM.1,A00000050115,2020-06-09T17:57Z,500,500,,20211221T222723Z,PROVISIONAL
f1c209c7-ac26-42d7-a989-d4ecf564d9c3,D09,PRLA,PRLA.AOS.buoy.c0,2020-06-30T15:22Z,PRLA.C0.20200630,,Sample condition ok,PRLA.C0.20200630.POM.2,A00000088067,Sample condition ok,PRLA.C0.20200630.POM.1,A00000088066,"",150,150,,20211221T222723Z,PROVISIONAL
1c4b28d4-52b0-4f09-b2f9-9598148744ec,D09,PRLA,PRLA.AOS.buoy.c0,2020-08-04T15:07Z,PRLA.C0.20200804,,Sample condition ok,PRLA.C0.20200804.POM.2,A00000237952,Sample condition ok,PRLA.C0.20200804.POM.1,A00000237951,2020-08-04T17:29Z,50,50,,20211221T234810Z,PROVISIONAL
6e9a9ab7-367c-4bbd-9089-2c923edbb0dc,D09,PRLA,PRLA.AOS.buoy.c0,2020-09-02T13:27Z,PRLA.C0.20200902,,Sample condition ok,PRLA.C0.20200902.POM.2,A00000237995,Sample condition ok,PRLA.C0.20200902.POM.1,A00000237994,2020-09-02T15:22Z,50,50,,20211222T001401Z,PROVISIONAL
5db67492-bd3e-4f59-bf6a-dadb1a36545f,D09,PRLA,PRLA.AOS.buoy.c0,2020-09-02T13:27Z,PRLA.C0.20200902,,"","","","","","","",,,,20211222T001401Z,PROVISIONAL
06df84cb-4b96-4670-ab32-41967f820b45,D09,PRLA,PRLA.AOS.buoy.c0,2020-09-02T13:27Z,PRLA.C0.20200902,,"","","","","","","",,,,20211222T001401Z,PROVISIONAL
6210de9b-5e46-43ba-a4c4-4b52397a2bec,D09,PRLA,PRLA.AOS.buoy.c0,2021-01-07T16:08Z,PRLA.C0.20210107,,Sample condition ok,PRLA.C0.20210107.POM.2,A00000239404,Sample condition ok,PRLA.C0.20210107.POM.1,A00000239403,2021-01-07T17:53Z,50,50,,20211222T030248Z,PROVISIONAL
7af0b72f-8e0d-4d55-b54f-2a80606d4301,D09,PRLA,PRLA.AOS.buoy.c0,2021-01-07T16:08Z,PRLA.C0.20210107,,"","","","","","","",,,,20211222T030248Z,PROVISIONAL
288d2898-b26b-4196-899a-ca7ed428b6db,D09,PRLA,PRLA.AOS.buoy.c0,2021-01-07T16:08Z,PRLA.C0.20210107,,"","","","","","","",,,,20211222T030248Z,PROVISIONAL
089733c7-35be-47de-9c21-62c8137d5c0d,D09,PRLA,PRLA.AOS.buoy.c0,2021-02-02T17:15Z,PRLA.C0.20210202,,Sample condition ok,PRLA.C0.20210202.POM.2,A00000239458,Sample condition ok,PRLA.C0.20210202.POM.1,A00000239457,2021-02-02T18:40Z,50,50,,20211221T212912Z,PROVISIONAL
72f393df-53a3-4aee-9a7e-01612175f0be,D09,PRLA,PRLA.AOS.buoy.c0,2021-03-02T18:05Z,PRLA.C0.20210302,,Sample condition ok,PRLA.C0.20210302.POM.2,A00000239480,Sample condition ok,PRLA.C0.20210302.POM.1,A00000239479,2021-03-02T19:32Z,100,100,,20211221T203043Z,PROVISIONAL
cfb53916-4db5-49df-a233-1e22d4d02ed6,D09,PRLA,PRLA.AOS.buoy.c0,2021-04-07T15:45Z,PRLA.C0.20210407,,Sample condition ok,PRLA.C0.20210407.POM.2,A00000240940,Sample condition ok,PRLA.C0.20210407.POM.1,A00000240939,2021-04-07T19:06Z,100,100,,20211222T015129Z,PROVISIONAL
2c50a96d-eea5-4704-aabd-dd8d39c59b05,D09,PRLA,PRLA.AOS.buoy.c0,2021-05-04T15:22Z,PRLA.C0.20210504,,Sample condition ok,PRLA.C0.20210504.POM.2,A00000242475,Sample condition ok,PRLA.C0.20210504.POM.1,A00000242474,2021-05-04T18:47Z,100,100,,20211221T210007Z,PROVISIONAL
72c9668f-c7b0-4887-82d4-5b98d5df2282,D09,PRLA,PRLA.AOS.buoy.c1,2021-06-01T15:30Z,PRLA.C1.20210601,,Sample condition ok,PRLA.C1.20210601.POM.2,A00000242499,Sample condition ok,PRLA.C1.20210601.POM.1,A00000242498,2021-06-01T17:49Z,60,60,,20211221T233309Z,PROVISIONAL
90e3dbe8-bac0-4e6d-88a3-d27b990a78a2,D09,PRLA,PRLA.AOS.buoy.c0,2021-06-14T16:17Z,PRLA.C0.20210614,,Sample condition ok,PRLA.C0.20210614.POM.2,A00000242522,Sample condition ok,PRLA.C0.20210614.POM.1,A00000242521,2021-06-14T18:41Z,50,50,,20211221T233309Z,PROVISIONAL
151f21da-cee1-4089-831d-9e66b939ff5e,D09,PRLA,PRLA.AOS.buoy.c0,2021-08-03T15:38Z,PRLA.C0.20210803,,Sample condition ok,PRLA.C0.20210803.POM.2,A00000240299,Sample condition ok,PRLA.C0.20210803.POM.1,A00000240298,2021-08-03T17:25Z,30,30,,20220125T180339Z,PROVISIONAL
363882f6-73e6-408b-9a8b-0a57d097e857,D09,PRLA,PRLA.AOS.buoy.c0,2021-09-07T14:59Z,PRLA.C0.20210907,,Sample condition ok,PRLA.C0.20210907.POM.2,A00000240544,Sample condition ok,PRLA.C0.20210907.POM.1,A00000240543,,50,50,,20211222T002726Z,PROVISIONAL
f6d59aa5-1c41-4434-bfd7-8bcdfe2c6eeb,D09,PRLA,PRLA.AOS.buoy.c0,2021-10-12T13:33Z,PRLA.C0.20211012,,Sample condition ok,PRLA.C0.20211012.POM.2,A00000241696,Sample condition ok,PRLA.C0.20211012.POM.1,A00000241695,,50,50,,20220112T212356Z,PROVISIONAL
fa851e89-b1aa-4fb1-9bdd-be6147af9863,D09,PRLA,PRLA.AOS.buoy.c0,2021-11-02T15:04Z,PRLA.C0.20211102,,Sample condition ok,PRLA.C0.20211102.POM.2,A00000241808,Sample condition ok,PRLA.C0.20211102.POM.1,A00000241806,,50,50,,20220125T175742Z,PROVISIONAL
ba4e731c-085f-4f86-88e8-69222fef8e50,D18,TOOK,TOOK.AOS.buoy.c1,2016-07-27T18:20Z,TOOK.C1.20160727,,,TOOK.C1.20160727.POM.2,,,TOOK.C1.20160727.POM.1,,2016-07-27T14:58Z,600,600,,20211222T011811Z,RELEASE-2022
eeafe08c-f5cf-4a03-914a-62709fcd6b97,D18,TOOK,TOOK.AOS.buoy.c2,2016-07-27T19:15Z,TOOK.C2.20160727,,,TOOK.C2.20160727.POM.2,,,TOOK.C2.20160727.POM.1,,2016-07-27T16:20Z,600,600,,20211222T011811Z,RELEASE-2022
ecaa8b1e-2a79-4b2b-bcc3-8fea57652a8d,D18,TOOK,TOOK.AOS.littoral2,2016-07-27T20:28Z,TOOK.OT.20160727,,,TOOK.OT.20160727.POM.2,,,TOOK.OT.20160727.POM.1,,2016-07-27T16:56Z,750,750,,20211222T011811Z,RELEASE-2022
c3517284-d4fd-4b37-aa3e-9a13c9aacd81,D18,TOOK,TOOK.AOS.littoral1,2016-07-27T23:16Z,TOOK.IN.20160727,,,TOOK.IN.20160727.POM.2,,,TOOK.IN.20160727.POM.1,,2016-07-27T17:42Z,800,800,,20211222T011811Z,RELEASE-2022
b01bf46f-a29c-462f-8bd4-82c4ff2d3da1,D18,TOOK,TOOK.AOS.littoral2,2016-09-10T17:52Z,TOOK.OT.20160910,,,TOOK.OT.20160910.POM.2,,,TOOK.OT.20160910.POM.1,,2016-09-10T11:15Z,600,600,,20211221T214900Z,RELEASE-2022
75f31565-a236-44e0-85aa-faba0414cf00,D18,TOOK,TOOK.AOS.littoral1,2016-09-10T19:18Z,TOOK.IN.20160910,,,TOOK.IN.20160910.POM.2,,,TOOK.IN.20160910.POM.1,,2016-09-10T11:50Z,600,600,,20211221T214900Z,RELEASE-2022
08a3e850-725e-4a9b-b11f-6bd4247c5f9c,D18,TOOK,TOOK.AOS.buoy.c0,2016-09-10T23:59Z,TOOK.C0.20160910,,,TOOK.C0.20160910.POM.2,,,TOOK.C0.20160910.POM.1,,2016-09-10T17:04Z,550,550,,20211221T214900Z,RELEASE-2022
2f391c30-9822-424b-8e8a-784aa887f4a5,D18,TOOK,TOOK.AOS.buoy.c0,2016-11-07T22:30Z,TOOK.C0.20161107,,,TOOK.C0.20161107.POM.2,,,TOOK.C0.20161107.POM.1,,2016-11-07T15:00Z,600,600,,20211221T225443Z,RELEASE-2022
97c4ab83-c8d0-438d-97b4-b9a5c9ab5223,D18,TOOK,TOOK.AOS.buoy.c0,2016-12-06T20:15Z,TOOK.C0.20161206,,,TOOK.C0.20161206.POM.2,,,TOOK.C0.20161206.POM.1,,2016-12-06T12:15Z,600,600,,20211222T035211Z,RELEASE-2022
fc9da254-ead2-4a29-a1d7-07dd9e2d8536,D18,TOOK,TOOK.AOS.buoy.c0,2017-01-10T19:37Z,TOOK.C0.20170110,,,TOOK.C0.20170110.POM.2,,,TOOK.C0.20170110.POM.1,,2017-01-10T12:00Z,500,500,,20211222T040619Z,RELEASE-2022
1e136328-8c07-4016-bfa6-c9c44318d6bb,D18,TOOK,TOOK.AOS.buoy.c0,2017-02-07T12:00Z,TOOK.C0.20170207,,Sample condition ok,TOOK.C0.20170207.POM.2,,Sample condition ok,TOOK.C0.20170207.POM.1,,2017-02-07T12:00Z,600,600,,20211221T225026Z,RELEASE-2022
54429202-783d-4918-8963-dda04727f034,D18,TOOK,TOOK.AOS.buoy.c0,2017-03-07T20:00Z,TOOK.C0.20170307,,,TOOK.C0.20170307.POM.2,,,TOOK.C0.20170307.POM.1,,2017-03-07T12:00Z,600,600,,20211221T195719Z,RELEASE-2022
da685079-9dd3-4e4d-b467-62118e556b40,D18,TOOK,TOOK.AOS.buoy.c0,2017-04-03T10:40Z,TOOK.C0.20170403,,Sample condition ok,TOOK.C0.20170403.POM.2,,Sample condition ok,TOOK.C0.20170403.POM.1,,2017-04-03T10:40Z,600,600,,20211222T032711Z,RELEASE-2022
655836bb-63d0-4881-bd85-7f299c4c9742,D18,TOOK,TOOK.AOS.buoy.c0,2017-04-29T16:10Z,TOOK.C0.20170429,,Sample condition ok,TOOK.C0.20170429.POM.2,,Sample condition ok,TOOK.C0.20170429.POM.1,,2017-04-29T16:50Z,500,500,,20211222T032711Z,RELEASE-2022
f46769e8-e739-4d67-a78a-948633172aa7,D18,TOOK,TOOK.AOS.littoral1,2017-06-06T22:48Z,TOOK.IN.20170606,,Sample condition ok,TOOK.IN.20170606.POM.2,,Sample condition ok,TOOK.IN.20170606.POM.1,,2017-06-07T00:05Z,600,600,,20211221T214025Z,RELEASE-2022
4b5b0642-3f11-495a-951e-5b018303c30e,D18,TOOK,TOOK.AOS.buoy.c1,2017-06-27T18:22Z,TOOK.C1.20170627,,Sample condition ok,"",,Sample condition ok,TOOK.C1.20170627.POM.1,,2017-06-27T22:50Z,700,,,20211221T214025Z,RELEASE-2022
2b41b335-d860-4ec1-a319-a41006b6832e,D18,TOOK,TOOK.AOS.buoy.c2,2017-06-27T19:48Z,TOOK.C2.20170627,,Sample condition ok,"",,Sample condition ok,TOOK.C2.20170627.POM.1,,2017-06-27T23:23Z,600,,,20211221T214025Z,RELEASE-2022
92783f6a-97f7-4956-9170-7a464032c742,D18,TOOK,TOOK.AOS.littoral2,2017-06-27T21:44Z,TOOK.OT.20170627,,Sample condition ok,"",,Sample condition ok,TOOK.OT.20170627.POM.1,,2017-06-28T00:01Z,600,,,20211221T214025Z,RELEASE-2022
ef3f69ad-a300-43e6-9c83-5896cd59f1cd,D18,TOOK,TOOK.AOS.littoral1,2017-06-28T00:11Z,TOOK.IN.20170627,,Sample condition ok,"",,Sample condition ok,TOOK.IN.20170627.POM.1,,2017-06-28T01:50Z,750,,,20211221T214025Z,RELEASE-2022
e2a53b80-31a4-4652-9a99-5a22c37a34ff,D18,TOOK,TOOK.AOS.littoral1,2017-07-04T19:48Z,TOOK.IN.20170704,,Sample condition ok,TOOK.IN.20170704.POM.2,,Sample condition ok,TOOK.IN.20170704.POM.1,,2017-07-04T21:15Z,600,600,,20211222T010002Z,RELEASE-2022
556e0da9-1c00-4e01-b9c3-97719a089d58,D18,TOOK,TOOK.AOS.buoy.c1,2017-07-05T01:22Z,TOOK.C1.20170704,,Sample condition ok,TOOK.C1.20170704.POM.2,,Sample condition ok,TOOK.C1.20170704.POM.1,,2017-07-05T01:26Z,600,600,,20211222T010002Z,RELEASE-2022
d47ab632-1fd4-4a83-bd63-804eeeacbd4e,D18,TOOK,TOOK.AOS.buoy.c2,2017-07-05T02:04Z,TOOK.C2.20170704,,Sample condition ok,TOOK.C2.20170704.POM.2,,Sample condition ok,TOOK.C2.20170704.POM.1,,2017-07-05T03:24Z,600,600,,20211222T010002Z,RELEASE-2022
ce75a001-52b4-4799-b4b5-20abda448092,D18,TOOK,TOOK.AOS.littoral2,2017-07-05T05:33Z,TOOK.OT.20170704,,Sample condition ok,TOOK.OT.20170704.POM.2,,Sample condition ok,TOOK.OT.20170704.POM.1,,2017-07-05T06:24Z,600,600,,20211222T010002Z,RELEASE-2022
78d7c52e-802f-4276-adf9-1cb8422fba1a,D18,TOOK,TOOK.AOS.buoy.c1,2017-08-01T17:44Z,TOOK.C1.20170801,,Sample condition ok,TOOK.C1.20170801.POM.2,,Sample condition ok,TOOK.C1.20170801.POM.1,,2017-08-01T22:11Z,700,700,,20211222T042338Z,RELEASE-2022
27143933-f1bd-4984-8b15-319fd49238b2,D18,TOOK,TOOK.AOS.buoy.c2,2017-08-01T18:46Z,TOOK.C2.20170801,,Sample condition ok,TOOK.C2.20170801.POM.2,,Sample condition ok,TOOK.C2.20170801.POM.1,,2017-08-02T00:16Z,700,700,,20211222T042338Z,RELEASE-2022
366b079f-499f-49f9-9b80-cfa836c2d399,D18,TOOK,TOOK.AOS.littoral2,2017-08-01T18:59Z,TOOK.OT.20170801,,Sample condition ok,TOOK.OT.20170801.POM.2,,Sample condition ok,TOOK.OT.20170801.POM.1,,2017-08-01T23:20Z,700,700,,20211222T042338Z,RELEASE-2022
26f27b04-4b6a-4417-8861-6e4f834907f8,D18,TOOK,TOOK.AOS.littoral1,2017-08-01T21:45Z,TOOK.IN.20170801,,Sample condition ok,TOOK.IN.20170801.POM.2,,Sample condition ok,TOOK.IN.20170801.POM.1,,2017-08-01T19:20Z,700,700,,20211222T042338Z,RELEASE-2022
1ca97946-c9c3-46c4-9dfc-aacae371da8d,D18,TOOK,TOOK.AOS.buoy.c0,2017-09-06T00:00Z,TOOK.C0.20170905,,Sample condition ok,TOOK.C0.20170905.POM.2,,Sample condition ok,TOOK.C0.20170905.POM.1,,2017-09-06T01:30Z,650,650,,20211222T041304Z,RELEASE-2022
0611b20c-651e-448a-9d8c-368231166276,D18,TOOK,TOOK.AOS.littoral2,2017-09-06T00:11Z,TOOK.OT.20170905,,Sample condition ok,TOOK.OT.20170905.POM.2,,Sample condition ok,TOOK.OT.20170905.POM.1,,2017-09-06T03:07Z,650,650,,20211222T041304Z,RELEASE-2022
13de4f3c-d3ad-4af8-a66d-94e89c84d1fe,D18,TOOK,TOOK.AOS.littoral1,2017-09-06T07:45Z,TOOK.IN.20170905,,Sample condition ok,TOOK.IN.20170905.POM.2,,Sample condition ok,TOOK.IN.20170905.POM.1,,2017-09-05T22:29Z,650,650,,20211222T041304Z,RELEASE-2022
7f2f9bf9-5a30-4bcd-8a55-a72730b4791b,D18,TOOK,TOOK.AOS.buoy.c0,2017-11-07T19:30Z,TOOK.C0.20171107,,Sample condition ok,TOOK.C0.20171107.POM.2,,Sample condition ok,TOOK.C0.20171107.POM.1,,2017-11-07T21:00Z,750,750,,20211221T210153Z,RELEASE-2022
68d319ba-875d-4d1d-ba3f-cec776a1b3bc,D18,TOOK,TOOK.AOS.buoy.c0,2017-12-05T20:00Z,TOOK.C0.20171205,,Sample condition ok,TOOK.C0.20171205.POM.2,,Sample condition ok,TOOK.C0.20171205.POM.1,,2017-12-05T20:38Z,750,750,,20211221T203354Z,RELEASE-2022
d775d5f9-bfe0-4734-b897-f496069af569,D18,TOOK,TOOK.AOS.buoy.c0,2018-01-09T20:01Z,TOOK.C0.20180109,,Sample condition ok,TOOK.C0.20180109.POM.2,,Sample condition ok,TOOK.C0.20180109.POM.1,,2018-01-09T21:26Z,750,750,,20211221T225606Z,RELEASE-2022
7a445118-1c65-4dab-9d1b-3ad43f26d67a,D18,TOOK,TOOK.AOS.buoy.c0,2018-02-13T19:20Z,TOOK.C0.20180213,,Sample condition ok,TOOK.C0.20180213.POM.2,,Sample condition ok,TOOK.C0.20180213.POM.1,,2018-02-13T21:04Z,750,750,,20211222T013404Z,RELEASE-2022
bcc91e5e-e9af-4b10-88f6-3e81c4f0140f,D18,TOOK,TOOK.AOS.buoy.c0,2018-03-06T19:30Z,TOOK.C0.20180306,,Sample condition ok,TOOK.C0.20180306.POM.2,,Sample condition ok,TOOK.C0.20180306.POM.1,,2018-03-06T23:50Z,750,750,,20211221T221645Z,RELEASE-2022
2d861ae8-92cf-4a25-bac3-1c62323446fa,D18,TOOK,TOOK.AOS.buoy.c0,2018-04-03T18:12Z,TOOK.C0.20180403,,Sample condition ok,TOOK.C0.20180403.POM.2,A00000030255,Sample condition ok,TOOK.C0.20180403.POM.1,A00000030254,2018-04-04T07:41Z,750,750,,20211222T001656Z,RELEASE-2022
7613e3d7-d52f-4364-a761-0cb3292054b5,D18,TOOK,TOOK.AOS.buoy.c0,2018-05-01T22:04Z,TOOK.C0.20180501,,Sample condition ok,TOOK.C0.20180501.POM.2,A00000030259,Sample condition ok,TOOK.C0.20180501.POM.1,A00000030260,2018-05-01T22:04Z,750,750,,20211222T000254Z,RELEASE-2022
5f3d804a-7bd4-48fb-ae63-1e73ae50a473,D18,TOOK,TOOK.AOS.buoy.c0,2018-06-05T19:20Z,TOOK.C0.20180605,,Sample condition ok,TOOK.C0.20180605.POM.2,A00000030289,Sample condition ok,TOOK.C0.20180605.POM.1,A00000030288,2018-06-05T23:17Z,750,750,,20211222T040412Z,RELEASE-2022
e2d577d6-928f-4170-ba51-8e995ccbe7d8,D18,TOOK,TOOK.AOS.littoral2,2018-06-05T22:22Z,TOOK.OT.20180605,,Sample condition ok,TOOK.OT.20180605.POM.2,A00000030294,Sample condition ok,TOOK.OT.20180605.POM.1,A00000030295,"",400,400,,20211222T040412Z,RELEASE-2022
d8bd8f3e-efad-4f58-a005-162608bcdb39,D18,TOOK,TOOK.AOS.littoral1,2018-06-05T22:59Z,TOOK.IN.20180605,,Sample condition ok,TOOK.IN.20180605.POM.2,A00000030321,Sample condition ok,TOOK.IN.20180605.POM.1,A00000030269,2018-06-05T23:07Z,500,500,,20211222T040412Z,RELEASE-2022
ab3e4377-9b9d-441d-bbed-87a7c769557a,D18,TOOK,TOOK.AOS.buoy.c1,2018-07-03T18:06Z,TOOK.C1.20180703,,Sample condition ok,TOOK.C1.20180703.POM.2,A00000029994,Sample condition ok,TOOK.C1.20180703.POM.1,A00000029996,2018-07-03T21:46Z,500,500,,20211222T034603Z,RELEASE-2022
51325406-dd18-4400-bcb1-d337cf36237e,D18,TOOK,TOOK.AOS.buoy.c2,2018-07-03T18:40Z,TOOK.C2.20180703,,Sample condition ok,TOOK.C2.20180703.POM.2,A00000029982,Sample condition ok,TOOK.C2.20180703.POM.1,A00000029983,2018-07-03T21:49Z,500,500,,20211222T034603Z,RELEASE-2022
d49259b6-faeb-45a0-b614-aa024f267347,D18,TOOK,TOOK.AOS.littoral2,2018-07-03T19:22Z,TOOK.OT.20180703,,Sample condition ok,TOOK.OT.20180703.POM.2,A00000029987,Sample condition ok,TOOK.OT.20180703.POM.1,A00000029986,2018-07-03T21:55Z,500,500,,20211222T034603Z,RELEASE-2022
9633ba4a-1c54-4e2f-8985-bb8c65b65afa,D18,TOOK,TOOK.AOS.littoral1,2018-07-03T19:51Z,TOOK.IN.20180703,,Sample condition ok,TOOK.IN.20180703.POM.2,A00000029990,Sample condition ok,TOOK.IN.20180703.POM.1,A00000029989,2018-07-03T21:52Z,600,600,,20211222T034603Z,RELEASE-2022
e8172ad4-6747-4d41-8500-b7207e9cac79,D18,TOOK,TOOK.AOS.littoral1,2018-08-07T17:55Z,TOOK.IN.20180807,,Sample condition ok,TOOK.IN.20180807.POM.2,,Sample condition ok,TOOK.IN.20180807.POM.1,,2018-08-08T01:33Z,500,500,,20211222T035727Z,RELEASE-2022
6e0384ce-8177-4401-9f6e-61cdbba177ce,D18,TOOK,TOOK.AOS.littoral2,2018-08-07T18:20Z,TOOK.OT.20180807,,Sample condition ok,TOOK.OT.20180807.POM.2,,Sample condition ok,TOOK.OT.20180807.POM.1,,2018-08-08T01:34Z,500,500,,20211222T035727Z,RELEASE-2022
dd1bc163-adab-4ff2-a0ba-169d8543037e,D18,TOOK,TOOK.AOS.buoy.c1,2018-08-07T18:34Z,TOOK.C1.20180807,,Sample condition ok,TOOK.C1.20180807.POM.2,,Sample condition ok,TOOK.C1.20180807.POM.1,,2018-08-08T01:35Z,500,500,,20211222T035727Z,RELEASE-2022
36f2139d-aadc-4b1a-87b9-806ce92568b6,D18,TOOK,TOOK.AOS.buoy.c2,2018-08-07T18:42Z,TOOK.C2.20180807,,Sample condition ok,TOOK.C2.20180807.POM.2,,Sample condition ok,TOOK.C2.20180807.POM.1,,2018-08-08T01:37Z,500,500,,20211222T035727Z,RELEASE-2022
1d0645a5-57d9-40c7-89d3-fd1f7efa2601,D18,TOOK,TOOK.AOS.buoy.c0,2018-09-04T18:58Z,TOOK.C0.20180904,,Sample condition ok,TOOK.C0.20180904.POM.2,A00000064213,Sample condition ok,TOOK.C0.20180904.POM.1,A00000064212,"",250,250,,20211221T194316Z,RELEASE-2022
97e2e9b3-75d6-4685-8599-8d921288203d,D18,TOOK,TOOK.AOS.littoral2,2018-09-04T19:03Z,TOOK.OT.20180904,,Sample condition ok,TOOK.OT.20180904.POM.2,A00000064206,Sample condition ok,TOOK.OT.20180904.POM.1,A00000064205,2018-09-05T04:43Z,250,250,,20211221T194316Z,RELEASE-2022
53e426ed-331d-46db-93bd-2f991ecb3c6e,D18,TOOK,TOOK.AOS.littoral1,2018-09-04T19:29Z,TOOK.IN.20180904,,Sample condition ok,TOOK.IN.20180904.POM.2,A00000064210,Sample condition ok,TOOK.IN.20180904.POM.1,A00000064209,2018-09-05T04:50Z,250,250,,20211221T194316Z,RELEASE-2022
17bce1d3-bdd7-4600-a8c0-b7e8c1da3a10,D18,TOOK,TOOK.AOS.littoral1,2018-10-02T17:48Z,TOOK.IN.20181002,,Sample condition ok,TOOK.IN.20181002.POM.2,A00000064447,Sample condition ok,TOOK.IN.20181002.POM.1,A00000064446,2018-10-02T23:22Z,750,750,,20211222T000228Z,RELEASE-2022
b9e2e3a0-34c5-403a-8078-31e9fcc27060,D18,TOOK,TOOK.AOS.littoral2,2018-10-02T18:14Z,TOOK.OT.20181002,,Sample condition ok,TOOK.OT.20181002.POM.2,A00000064450,Sample condition ok,TOOK.OT.20181002.POM.1,A00000064449,2018-10-02T23:45Z,750,750,,20211222T000228Z,RELEASE-2022
54b4c253-2b42-4661-b71d-8e2d95b4e89a,D18,TOOK,TOOK.AOS.buoy.c0,2018-10-02T20:23Z,TOOK.C0.20181002,,Sample condition ok,TOOK.C0.20181002.POM.2,A00000064453,Sample condition ok,TOOK.C0.20181002.POM.1,A00000064452,2018-10-02T23:53Z,750,750,,20211222T000228Z,RELEASE-2022
5a7f71d2-7aa3-49ae-9de2-adf198d579c2,D18,TOOK,TOOK.AOS.littoral2,2018-11-06T19:27Z,TOOK.OT.20181106,,Sample condition ok,TOOK.OT.20181106.POM.2,A00000064486,Sample condition ok,TOOK.OT.20181106.POM.1,A00000064485,2018-11-06T21:00Z,750,750,,20211221T203059Z,RELEASE-2022
bfb6d966-578c-4e79-b20a-3ffcc8f150de,D18,TOOK,TOOK.AOS.buoy.c0,2018-11-06T20:05Z,TOOK.C0.20181106,,Sample condition ok,TOOK.C0.20181106.POM.2,A00000064493,Sample condition ok,TOOK.C0.20181106.POM.1,A00000064492,2018-11-06T22:00Z,750,750,,20211221T203059Z,RELEASE-2022
b0d452de-97a2-408a-b285-a448156f207d,D18,TOOK,TOOK.AOS.littoral1,2018-11-06T21:01Z,TOOK.IN.20181106,,Sample condition ok,TOOK.IN.20181106.POM.2,A00000064513,Sample condition ok,TOOK.IN.20181106.POM.1,A00000064512,2018-11-06T22:00Z,750,750,,20211221T203059Z,RELEASE-2022
4e20ee83-7b4f-466d-89b2-3f00dc974ace,D18,TOOK,TOOK.AOS.buoy.c0,2018-12-04T19:28Z,TOOK.C0.20181204,,Sample condition ok,TOOK.C0.20181204.POM.2,A00000064528,Sample condition ok,TOOK.C0.20181204.POM.1,A00000064527,2018-12-04T21:05Z,750,750,,20211222T005311Z,RELEASE-2022
f0d1601e-6167-4228-8317-eaae10a7822c,D18,TOOK,TOOK.AOS.buoy.c0,2019-02-05T20:58Z,TOOK.C0.20190205,,Sample condition ok,TOOK.C0.20190205.POM.2,A00000064560,Sample condition ok,TOOK.C0.20190205.POM.1,A00000064543,2019-02-05T23:04Z,750,750,,20211221T203446Z,RELEASE-2022
7beb109f-2086-4db8-9b79-41c4731e2e25,D18,TOOK,TOOK.AOS.buoy.c0,2019-03-05T19:09Z,TOOK.C0.20190305,,Sample condition ok,TOOK.C0.20190305.POM.2,A00000064520,Sample condition ok,TOOK.C0.20190305.POM.1,A00000064521,2019-03-06T08:10Z,750,750,,20211221T221047Z,RELEASE-2022
3126f272-da98-42fe-b936-4d223382e8fe,D18,TOOK,TOOK.AOS.buoy.c0,2019-04-02T19:35Z,TOOK.C0.20190402,,Sample condition ok,TOOK.C0.20190402.POM.2,A00000064550,Sample condition ok,TOOK.C0.20190402.POM.1,A00000064551,,700,700,,20211221T210200Z,RELEASE-2022
5775f213-5a6b-4f0e-b46f-1d244c08a5af,D18,TOOK,TOOK.AOS.buoy.c0,2019-05-07T19:44Z,TOOK.C0.20190507,,Sample condition ok,TOOK.C0.20190507.POM.2,A00000064552,Sample condition ok,TOOK.C0.20190507.POM.1,A00000064536,2019-05-07T23:20Z,750,750,,20211222T003717Z,RELEASE-2022
c1116626-a82c-4ca8-aaf5-f649f74ff0d2,D18,TOOK,TOOK.AOS.littoral1,2019-05-28T20:10Z,TOOK.IN.20190528,,Sample condition ok,TOOK.IN.20190528.POM.2,A00000064591,Sample condition ok,TOOK.IN.20190528.POM.1,A00000064590,2019-05-28T22:30Z,750,750,,20211222T003717Z,RELEASE-2022
18cb0ce6-48ac-480c-887e-f8c99fe50aba,D18,TOOK,TOOK.AOS.littoral2,2019-05-29T07:30Z,TOOK.OT.20190528,,Sample condition ok,TOOK.OT.20190528.POM.2,A00000064586,Sample condition ok,TOOK.OT.20190528.POM.1,A00000064587,2019-05-28T23:15Z,590,590,,20211222T003717Z,RELEASE-2022
92dc1092-4a8e-4327-89f4-b76ca747e679,D18,TOOK,TOOK.AOS.littoral1,2019-06-04T17:14Z,TOOK.IN.20190604,,Sample condition ok,TOOK.IN.20190604.POM.2,A00000064643,Sample condition ok,TOOK.IN.20190604.POM.1,A00000064644,2019-06-04T23:39Z,750,750,,20211221T234833Z,RELEASE-2022
5ad08d8f-9f1c-41d4-b5bd-44fe1858a892,D18,TOOK,TOOK.AOS.littoral2,2019-06-04T17:55Z,TOOK.OT.20190604,,Sample condition ok,TOOK.OT.20190604.POM.2,A00000064650,Sample condition ok,TOOK.OT.20190604.POM.1,A00000064648,2019-06-04T23:42Z,750,750,,20211221T234833Z,RELEASE-2022
cd3ac495-1c17-473e-aab5-64c4c411137a,D18,TOOK,TOOK.AOS.buoy.c1,2019-06-04T19:00Z,TOOK.C1.20190604,,Sample condition ok,TOOK.C1.20190604.POM.2,A00000064672,Sample condition ok,TOOK.C1.20190604.POM.1,A00000064671,2019-06-04T23:44Z,750,750,,20211221T234833Z,RELEASE-2022
9ef44c66-08d3-4c67-b0af-8c33d5234223,D18,TOOK,TOOK.AOS.buoy.c1,2019-06-11T18:10Z,TOOK.C1.20190611,,Sample condition ok,TOOK.C1.20190611.POM.2,A00000099684,Sample condition ok,TOOK.C1.20190611.POM.1,A00000099685,2019-06-11T18:10Z,500,500,,20211221T234833Z,RELEASE-2022
6d6c7fda-9d4e-4c9f-8b02-735a61ded865,D18,TOOK,TOOK.AOS.littoral2,2019-06-11T18:45Z,TOOK.OT.20190611,,Sample condition ok,TOOK.OT.20190611.POM.2,A00000099698,Sample condition ok,TOOK.OT.20190611.POM.1,A00000099699,2019-06-11T18:45Z,750,750,,20211221T234833Z,RELEASE-2022
76a018c5-3be4-4b0e-af37-b438a4adeeeb,D18,TOOK,TOOK.AOS.littoral1,2019-06-11T19:35Z,TOOK.IN.20190611,,Sample condition ok,TOOK.IN.20190611.POM.2,A00000099694,Sample condition ok,TOOK.IN.20190611.POM.1,A00000099693,2019-06-11T19:35Z,750,750,,20211221T234833Z,RELEASE-2022
fa3cf432-5a85-4a66-88ca-2bc4f62f0e51,D18,TOOK,TOOK.AOS.buoy.c1,2019-07-09T19:09Z,TOOK.C1.20190709,,Sample condition ok,TOOK.C1.20190709.POM.2,A00000098992,Sample condition ok,TOOK.C1.20190709.POM.1,A00000098991,2019-07-09T21:07Z,750,750,,20211221T211244Z,RELEASE-2022
2950e722-2b9a-45f6-bb13-118dd59092e9,D18,TOOK,TOOK.AOS.buoy.c2,2019-07-09T19:22Z,TOOK.C2.20190709,,Sample condition ok,TOOK.C2.20190709.POM.2,A00000098988,Sample condition ok,TOOK.C2.20190709.POM.1,A00000098989,2019-07-09T22:30Z,750,750,,20211221T211244Z,RELEASE-2022
d440cbf9-061a-43ea-9d30-5e56106d2a0d,D18,TOOK,TOOK.AOS.littoral2,2019-07-09T19:45Z,TOOK.OT.20190709,,Sample condition ok,TOOK.OT.20190709.POM.2,A00000099002,Sample condition ok,TOOK.OT.20190709.POM.1,A00000099003,2019-07-09T23:57Z,750,750,,20211221T211244Z,RELEASE-2022
047f0acb-785b-4a71-b5d0-08d180d3acf2,D18,TOOK,TOOK.AOS.littoral1,2019-07-09T20:27Z,TOOK.IN.20190709,,Sample condition ok,TOOK.IN.20190709.POM.2,A00000099006,Sample condition ok,TOOK.IN.20190709.POM.1,A00000099005,2019-07-09T23:47Z,750,750,,20211221T211244Z,RELEASE-2022
7955dd5f-b73a-415a-9838-631a9b407925,D18,TOOK,TOOK.AOS.buoy.c2,2019-08-06T18:20Z,TOOK.C2.20190806,,Sample condition ok,TOOK.C2.20190806.POM.2,A00000099640,Sample condition ok,TOOK.C2.20190806.POM.1,A00000099639,2019-08-06T23:17Z,750,750,,20211222T000609Z,RELEASE-2022
af11415e-ab7e-4acb-8a65-942001f1f77d,D18,TOOK,TOOK.AOS.littoral2,2019-08-06T19:09Z,TOOK.OT.20190806,,Sample condition ok,TOOK.OT.20190806.POM.2,A00000099644,Sample condition ok,TOOK.OT.20190806.POM.1,A00000099645,2019-08-06T22:30Z,750,750,,20211222T000609Z,RELEASE-2022
30b27fdb-3b75-4eed-9100-2f8b0d74a2a0,D18,TOOK,TOOK.AOS.littoral1,2019-08-06T19:50Z,TOOK.IN.20190806,,Sample condition ok,TOOK.IN.20190806.POM.2,A00000099355,Sample condition ok,TOOK.IN.20190806.POM.1,A00000099354,2019-08-06T23:36Z,750,750,,20211222T000609Z,RELEASE-2022
fac83c01-1708-45e2-bd9e-2484bc6dade0,D18,TOOK,TOOK.AOS.buoy.c1,2019-08-07T06:45Z,TOOK.C1.20190806,,Sample condition ok,TOOK.C1.20190806.POM.2,A00000099638,Sample condition ok,TOOK.C1.20190806.POM.1,A00000099637,2019-08-07T06:45Z,750,750,,20211222T000609Z,RELEASE-2022
07944646-29ff-459d-a2ea-2362b6fb7201,D18,TOOK,TOOK.AOS.buoy.c1,2019-09-03T21:40Z,TOOK.C1.20190903,,Sample condition ok,TOOK.C1.20190903.POM.2,A00000101811,Sample condition ok,TOOK.C1.20190903.POM.1,A00000101828,2019-09-04T03:01Z,500,500,,20211222T023808Z,RELEASE-2022
eed86ded-f5c4-41ef-b105-08d219f56869,D18,TOOK,TOOK.AOS.littoral2,2019-09-03T22:08Z,TOOK.OT.20190903,,Sample condition ok,TOOK.OT.20190903.POM.2,A00000101820,Sample condition ok,TOOK.OT.20190903.POM.1,A00000101819,2019-09-04T01:56Z,750,750,,20211222T023808Z,RELEASE-2022
fe49c831-c6e0-4e5a-94a3-1f39db0b6d9b,D18,TOOK,TOOK.AOS.littoral1,2019-09-03T22:51Z,TOOK.IN.20190903,,Sample condition ok,TOOK.IN.20190903.POM.2,A00000101825,Sample condition ok,TOOK.IN.20190903.POM.1,A00000101826,2019-09-04T02:29Z,500,500,,20211222T023808Z,RELEASE-2022
0b992bf3-8281-4a9f-af55-774d88a63a63,D18,TOOK,TOOK.AOS.littoral1,2019-10-01T17:29Z,TOOK.IN.20191001,,Sample condition ok,TOOK.IN.20191001.POM.2,A00000100959,Sample condition ok,TOOK.IN.20191001.POM.1,A00000100958,"",750,750,,20211221T211410Z,RELEASE-2022
71f17ac3-327c-491f-bc1e-919a3711e6b2,D18,TOOK,TOOK.AOS.littoral2,2019-10-01T17:56Z,TOOK.OT.20191001,,Sample condition ok,TOOK.OT.20191001.POM.2,A00000100990,Sample condition ok,TOOK.OT.20191001.POM.1,A00000100970,2019-10-02T00:14Z,750,750,,20211221T211410Z,RELEASE-2022
7ed3a8c0-1074-4677-9530-f9c242fb1c85,D18,TOOK,TOOK.AOS.buoy.c0,2019-10-01T19:28Z,TOOK.C0.20191001,,Sample condition ok,TOOK.C0.20191001.POM.2,A00000100947,Sample condition ok,TOOK.C0.20191001.POM.1,A00000100983,2019-10-01T23:44Z,750,750,,20211221T211410Z,RELEASE-2022
6d87c4f8-8f00-4ad6-a16c-7703e82cbb45,D18,TOOK,TOOK.AOS.buoy.c0,2019-11-05T19:42Z,TOOK.C0.20191105,,Sample condition ok,TOOK.C0.20191105.POM.2,A00000101661,Sample condition ok,TOOK.C0.20191105.POM.1,A00000101662,2019-11-05T22:15Z,750,750,,20211221T204534Z,RELEASE-2022
0f0df4cc-7df3-4a89-b1dc-3232895546ed,D18,TOOK,TOOK.AOS.buoy.c0,2019-11-05T19:42Z,TOOK.C0.20191105,,"","","","","","","",,,,20211221T204534Z,RELEASE-2022
a17eea07-21ed-41e5-a77d-55fabb2fea7e,D18,TOOK,TOOK.AOS.buoy.c0,2019-11-05T19:42Z,TOOK.C0.20191105,,"","","","","","","",,,,20211221T204534Z,RELEASE-2022
4727eb6e-f929-4b28-82db-f94e544af382,D18,TOOK,TOOK.AOS.buoy.c0,2019-12-03T19:27Z,TOOK.C0.20191203,,Sample condition ok,TOOK.C0.20191203.POM.2,A00000101646,Sample condition ok,TOOK.C0.20191203.POM.1,A00000101647,2019-12-03T22:00Z,750,750,,20211222T004903Z,RELEASE-2022
5298b72d-d76a-4221-8cd9-f268fb54b49b,D18,TOOK,TOOK.AOS.buoy.c0,2020-02-04T19:23Z,TOOK.C0.20200204,,Sample condition ok,TOOK.C0.20200204.POM.2,A00000101632,Sample condition ok,TOOK.C0.20200204.POM.1,A00000101633,2020-02-04T20:40Z,750,750,,20211222T022411Z,PROVISIONAL
4c74204d-dddd-4c14-b14c-23b15cddfe96,D18,TOOK,TOOK.AOS.buoy.c0,2020-02-04T19:23Z,TOOK.C0.20200204,,"","","","","","","",,,,20211222T022411Z,PROVISIONAL
b6c43196-656d-497b-b46b-97d3002b51f5,D18,TOOK,TOOK.AOS.buoy.c0,2020-02-04T19:23Z,TOOK.C0.20200204,,"","","","","","","",,,,20211222T022411Z,PROVISIONAL
ebffd680-7f5f-4dfe-b13d-d98b04cd3ff5,D18,TOOK,TOOK.AOS.reach,2020-03-03T20:12Z,TOOK.RE.20200303,,Sample condition ok,TOOK.RE.20200303.POM.2,A00000101609,Sample condition ok,TOOK.RE.20200303.POM.1,A00000101634,,750,750,,20211222T001956Z,PROVISIONAL
e133ca48-dcc0-430e-8782-d7b079420e63,D18,TOOK,TOOK.AOS.littoral1,2020-06-18T17:45Z,TOOK.IN.20200618,,Sample condition ok,TOOK.IN.20200618.POM.2,A00000102986,Sample condition ok,TOOK.IN.20200618.POM.1,A00000103003,2020-06-18T20:30Z,1000,1000,,20211221T231026Z,PROVISIONAL
b57148e1-9761-40b3-bb5c-eedf1c6708c9,D18,TOOK,TOOK.AOS.littoral2,2020-06-18T22:21Z,TOOK.OT.20200618,,Sample condition ok,TOOK.OT.20200618.POM.2,A00000103020,Sample condition ok,TOOK.OT.20200618.POM.1,A00000103037,2020-06-18T22:52Z,500,500,,20211221T231026Z,PROVISIONAL
f240234d-caad-4a3d-a5c6-0a0fa7b89c3e,D18,TOOK,TOOK.AOS.littoral1,2020-06-25T18:48Z,TOOK.IN.20200625,,Sample condition ok,TOOK.IN.20200625.POM.2,A00000101614,Sample condition ok,TOOK.IN.20200625.POM.1,A00000101597,2020-06-25T20:30Z,750,750,,20211221T231026Z,PROVISIONAL
932f43c1-f3b3-4e03-b53a-d906aa192323,D18,TOOK,TOOK.AOS.littoral2,2020-06-25T19:05Z,TOOK.OT.20200625,,Sample condition ok,TOOK.OT.20200625.POM.2,A00000101580,Sample condition ok,TOOK.OT.20200625.POM.1,A00000101564,2020-06-25T21:00Z,414,376,,20211221T231026Z,PROVISIONAL
b377a9f6-b632-4812-81f2-dc8d82c39d08,D18,TOOK,TOOK.AOS.buoy.c1,2020-06-25T22:15Z,TOOK.C1.20200625,,Sample condition ok,TOOK.C1.20200625.POM.2,A00000103041,Sample condition ok,TOOK.C1.20200625.POM.1,A00000103042,2020-06-26T00:40Z,328,330,,20211221T231026Z,PROVISIONAL
c4b9cd3e-b663-4b74-a2b0-41bb3f4ad9d5,D18,TOOK,TOOK.AOS.buoy.c2,2020-06-26T00:45Z,TOOK.C2.20200625,,Sample condition ok,TOOK.C2.20200625.POM.2,A00000103045,Sample condition ok,TOOK.C2.20200625.POM.1,A00000103044,2020-06-26T01:00Z,500,500,,20211221T231026Z,PROVISIONAL
df4979ce-d16f-4856-9ba0-7d71ca9dbf15,D18,TOOK,TOOK.AOS.buoy.c2,2020-07-07T19:30Z,TOOK.C2.20200707,,Sample condition ok,TOOK.C2.20200707.POM.2,A00000101624,Sample condition ok,TOOK.C2.20200707.POM.1,A00000101623,2020-07-07T22:30Z,750,750,,20211222T032715Z,PROVISIONAL
8f053ad6-7357-41c8-8545-7e3ccbec4116,D18,TOOK,TOOK.AOS.buoy.c1,2020-07-07T19:30Z,TOOK.C1.20200707,,Sample condition ok,TOOK.C1.20200707.POM.2,A00000101622,Sample condition ok,TOOK.C1.20200707.POM.1,A00000101621,"",500,500,,20211222T032715Z,PROVISIONAL
41dffaad-8f31-4bef-9aa9-a81dc0e06676,D18,TOOK,TOOK.AOS.littoral1,2020-07-07T20:50Z,TOOK.IN.20200707,,Sample condition ok,TOOK.IN.20200707.POM.2,A00000101602,Sample condition ok,TOOK.IN.20200707.POM.1,A00000101603,2020-07-08T00:00Z,750,750,,20211222T032715Z,PROVISIONAL
a6cc3ab1-1f6d-4f65-9032-bbc8012624c1,D18,TOOK,TOOK.AOS.littoral2,2020-07-07T23:40Z,TOOK.OT.20200707,,Sample condition ok,TOOK.OT.20200707.POM.2,A00000101604,Sample condition ok,TOOK.OT.20200707.POM.1,A00000101605,2020-07-08T00:15Z,603,636,,20211222T032715Z,PROVISIONAL
12291990-6373-4a15-b85a-db3fc99a3108,D18,TOOK,TOOK.AOS.buoy.c2,2020-08-10T17:45Z,TOOK.C2.20200810,,"","","","","","","",,,,20211222T034657Z,PROVISIONAL
a87d5d8c-c370-488d-943e-ec3e150a860a,D18,TOOK,TOOK.AOS.buoy.c2,2020-08-10T17:45Z,TOOK.C2.20200810,,Sample condition ok,TOOK.C2.20200810.POM.2,A00000301563,Sample condition ok,TOOK.C2.20200810.POM.1,A00000301562,2020-08-10T22:51Z,500,500,,20211222T034657Z,PROVISIONAL
62250e75-2f66-405f-975b-72c2d4310366,D18,TOOK,TOOK.AOS.buoy.c2,2020-08-10T17:45Z,TOOK.C2.20200810,,"","","","","","","",,,,20211222T034657Z,PROVISIONAL
df8216f7-85fb-4772-a1a4-279807157342,D18,TOOK,TOOK.AOS.buoy.c1,2020-08-10T18:30Z,TOOK.C1.20200810,,"","","","","","","",,,,20211222T034657Z,PROVISIONAL
c87f9377-adc6-414f-8c3f-7fad61870ae2,D18,TOOK,TOOK.AOS.buoy.c1,2020-08-10T18:30Z,TOOK.C1.20200810,,"","","","","","","",,,,20211222T034657Z,PROVISIONAL
d47e8a72-ff72-46c9-825b-4f50515279d2,D18,TOOK,TOOK.AOS.buoy.c1,2020-08-10T18:30Z,TOOK.C1.20200810,,Sample condition ok,TOOK.C1.20200810.POM.2,A00000301545,Sample condition ok,TOOK.C1.20200810.POM.1,A00000301612,"",750,750,,20211222T034657Z,PROVISIONAL
2354152f-da59-4f01-99b1-6e7c4ebf6e9c,D18,TOOK,TOOK.AOS.littoral2,2020-08-10T19:00Z,TOOK.OT.20200810,,Sample condition ok,TOOK.OT.20200810.POM.2,A00000301644,Sample condition ok,TOOK.OT.20200810.POM.1,A00000301660,2020-08-10T22:59Z,500,500,,20211222T034657Z,PROVISIONAL
8dcb0edf-b85e-4897-bff9-37964d7a1bc3,D18,TOOK,TOOK.AOS.littoral1,2020-08-10T19:20Z,TOOK.IN.20200810,,Sample condition ok,TOOK.IN.20200810.POM.2,A00000301580,Sample condition ok,TOOK.IN.20200810.POM.1,A00000301576,2020-08-10T23:02Z,750,750,,20211222T034657Z,PROVISIONAL
255cbbb0-22f5-4223-8e80-dc074cd85bcc,D18,TOOK,TOOK.AOS.littoral1,2020-09-07T17:12Z,TOOK.IN.20200907,,Sample condition ok,TOOK.IN.20200907.POM.2,A00000301891,Sample condition ok,TOOK.IN.20200907.POM.1,A00000301907,2020-09-07T21:39Z,750,750,,20211221T232232Z,PROVISIONAL
0f28f225-fbd4-480d-b70c-bf6d15f4b12e,D18,TOOK,TOOK.AOS.buoy.c1,2020-09-07T17:44Z,TOOK.C1.20200907,,"","","","","","","",,,,20211221T232232Z,PROVISIONAL
94fc66d1-c319-4554-8e1e-d6584a9b8c6b,D18,TOOK,TOOK.AOS.buoy.c1,2020-09-07T17:44Z,TOOK.C1.20200907,,"","","","","","","",,,,20211221T232232Z,PROVISIONAL
311757f1-e36f-4a2f-a199-3beb98751f32,D18,TOOK,TOOK.AOS.buoy.c1,2020-09-07T17:44Z,TOOK.C1.20200907,,Sample condition ok,TOOK.C1.20200907.POM.2,A00000301905,Sample condition ok,TOOK.C1.20200907.POM.1,A00000301889,2020-09-07T21:58Z,500,500,,20211221T232232Z,PROVISIONAL
172f8f68-673f-4da3-aeec-ec95d552011d,D18,TOOK,TOOK.AOS.buoy.c2,2020-09-07T19:26Z,TOOK.C2.20200907,,"","","","","","","",,,,20211221T232232Z,PROVISIONAL
69c553be-d0e1-4467-a9b8-b64a5bd94d84,D18,TOOK,TOOK.AOS.buoy.c2,2020-09-07T19:26Z,TOOK.C2.20200907,,Sample condition ok,TOOK.C2.20200907.POM.2,A00000301954,Sample condition ok,TOOK.C2.20200907.POM.1,A00000301970,2020-09-07T21:45Z,500,500,,20211221T232232Z,PROVISIONAL
ad41fd1c-0651-4237-a040-7f138c9305f7,D18,TOOK,TOOK.AOS.buoy.c2,2020-09-07T19:26Z,TOOK.C2.20200907,,"","","","","","","",,,,20211221T232232Z,PROVISIONAL
560bbc68-0196-4361-b02f-74fa4ba1230f,D18,TOOK,TOOK.AOS.littoral2,2020-09-07T19:39Z,TOOK.OT.20200907,,Sample condition ok,TOOK.OT.20200907.POM.2,A00000301969,Sample condition ok,TOOK.OT.20200907.POM.1,A00000301922,2020-09-07T19:39Z,500,500,,20211221T232232Z,PROVISIONAL
650bd363-71ab-4bbf-9f19-e0ca2712e8b4,D18,TOOK,TOOK.AOS.buoy.c0,2020-09-21T17:28Z,TOOK.C0.20200921,,Sample condition ok,TOOK.C0.20200921.POM.2,A00000302172,Sample condition ok,TOOK.C0.20200921.POM.1,A00000302171,"",750,750,,20211221T232232Z,PROVISIONAL
0bbe7883-14e6-4c90-8026-7e54757d1d06,D18,TOOK,TOOK.AOS.littoral2,2020-09-21T17:58Z,TOOK.OT.20200921,,Sample condition ok,TOOK.OT.20200921.POM.2,A00000302168,Sample condition ok,TOOK.OT.20200921.POM.1,A00000302152,2020-09-21T19:11Z,750,750,,20211221T232232Z,PROVISIONAL
f14f1ef3-ef85-4824-9bdb-403bc61d8d4d,D18,TOOK,TOOK.AOS.littoral1,2020-09-21T18:11Z,TOOK.IN.20200921,,Sample condition ok,TOOK.IN.20200921.POM.2,A00000302154,Sample condition ok,TOOK.IN.20200921.POM.1,A00000302153,2020-09-21T19:56Z,750,750,,20211221T232232Z,PROVISIONAL
31cc3d34-77b6-44ad-b739-ef8b0da51294,D18,TOOK,TOOK.AOS.buoy.c0,2020-11-08T21:00Z,TOOK.C0.20201108,,Sample condition ok,TOOK.C0.20201108.POM.2,A00000302065,Sample condition ok,TOOK.C0.20201108.POM.1,A00000302064,2020-11-08T21:00Z,500,500,,20211222T031752Z,PROVISIONAL
bcac9931-caf0-40a8-97d3-b8b3dbe235a2,D18,TOOK,TOOK.AOS.buoy.c0,2020-12-15T00:00Z,TOOK.C0.20201214,,Sample condition ok,TOOK.C0.20201214.POM.2,A00000302033,Sample condition ok,TOOK.C0.20201214.POM.1,A00000302032,2020-12-17T02:24Z,500,500,,20211221T214107Z,PROVISIONAL
d8b219fa-8f6f-44d6-a0d3-b94f9dee167a,D18,TOOK,TOOK.AOS.buoy.c0,2021-02-01T20:20Z,TOOK.C0.20210201,,Sample condition ok,TOOK.C0.20210201.POM.2,A00000302135,Sample condition ok,TOOK.C0.20210201.POM.1,A00000302134,2021-02-02T00:00Z,500,500,,20211222T033343Z,PROVISIONAL
539fb5e0-9187-43f4-a915-74b5ff402af9,D18,TOOK,TOOK.AOS.buoy.c0,2021-03-08T18:50Z,TOOK.C0.20210308,,"","","","","","","",,,,20211221T221643Z,PROVISIONAL
4d764cb6-194d-40a6-a738-99f2947b4538,D18,TOOK,TOOK.AOS.buoy.c0,2021-03-08T18:50Z,TOOK.C0.20210308,,"","","","","","","",,,,20211221T221643Z,PROVISIONAL
17185b66-8c98-4061-a804-13a47564d98b,D18,TOOK,TOOK.AOS.buoy.c0,2021-03-08T18:50Z,TOOK.C0.20210308,,Sample condition ok,TOOK.C0.20210308.POM.2,A00000317365,Sample condition ok,TOOK.C0.20210308.POM.1,A00000317364,2021-03-08T21:00Z,500,500,,20211221T221643Z,PROVISIONAL
c2f8ddff-ea0f-4c75-be4b-7b4b5ff8f757,D18,TOOK,TOOK.AOS.buoy.c0,2021-04-19T21:22Z,TOOK.C0.20210419,,Sample condition ok,TOOK.C0.20210419.POM.2,A00000302122,Sample condition ok,TOOK.C0.20210419.POM.1,A00000302121,2021-04-20T00:44Z,750,750,,20211221T200701Z,PROVISIONAL
e23a65de-f214-4fcf-98df-fbf7ef55d4cd,D18,TOOK,TOOK.AOS.buoy.c0,2021-05-04T18:55Z,TOOK.C0.20210504,,Sample condition ok,TOOK.C0.20210504.POM.2,A00000302090,Sample condition ok,TOOK.C0.20210504.POM.1,A00000302092,2021-05-04T22:30Z,750,750,,20211222T010435Z,PROVISIONAL
aea66aba-7680-4d04-a59c-cf127a4e2b7c,D18,TOOK,TOOK.AOS.littoral1,2021-05-24T21:50Z,TOOK.IN.20210524,,Sample condition ok,TOOK.IN.20210524.POM.2,A00000302110,Sample condition ok,TOOK.IN.20210524.POM.1,A00000302093,2021-05-24T22:15Z,500,500,,20211222T010435Z,PROVISIONAL
96a791dc-a24f-42a1-8aa6-6430657dfa84,D18,TOOK,TOOK.AOS.littoral2,2021-05-25T00:30Z,TOOK.OT.20210524,,Sample condition ok,TOOK.OT.20210524.POM.2,A00000302099,Sample condition ok,TOOK.OT.20210524.POM.1,A00000302113,2021-05-27T00:55Z,500,500,,20211222T010435Z,PROVISIONAL
de398037-0f74-4844-8400-e6666b1b2c38,D18,TOOK,TOOK.AOS.littoral1,2021-06-01T21:15Z,TOOK.IN.20210601,,Sample condition ok,TOOK.IN.20210601.POM.2,A00000302193,Sample condition ok,TOOK.IN.20210601.POM.1,A00000302209,2021-06-02T02:03Z,500,500,,20211222T000314Z,PROVISIONAL
83f6dde0-67c1-4ac2-bd66-4f51cead8507,D18,TOOK,TOOK.AOS.littoral2,2021-06-01T21:58Z,TOOK.OT.20210601,,Sample condition ok,TOOK.OT.20210601.POM.2,A00000302176,Sample condition ok,TOOK.OT.20210601.POM.1,A00000302255,2021-06-02T01:29Z,500,500,,20211222T000314Z,PROVISIONAL
de37f98e-f9a9-4185-b0e8-303fd6d89cd7,D18,TOOK,TOOK.AOS.buoy.c0,2021-06-01T22:48Z,TOOK.C0.20210601,,Sample condition ok,TOOK.C0.20210601.POM.2,A00000302207,Sample condition ok,TOOK.C0.20210601.POM.1,A00000302191,2021-06-02T00:52Z,500,500,,20211222T000314Z,PROVISIONAL
e994b3e7-0f97-4480-9b4b-e4e7418f2871,D18,TOOK,TOOK.AOS.littoral2,2021-06-08T21:50Z,TOOK.OT.20210608,,Sample condition ok,TOOK.OT.20210608.POM.2,A00000302227,Sample condition ok,TOOK.OT.20210608.POM.1,A00000302243,2021-06-08T23:35Z,500,500,,20211222T000314Z,PROVISIONAL
5742bc40-1a98-4d8c-9058-c3b52479c882,D18,TOOK,TOOK.AOS.littoral1,2021-06-08T22:40Z,TOOK.IN.20210608,,Sample condition ok,TOOK.IN.20210608.POM.2,A00000302259,Sample condition ok,TOOK.IN.20210608.POM.1,A00000302200,2021-06-08T23:54Z,500,500,,20211222T000314Z,PROVISIONAL
7710ac5f-23ba-4bb9-bd76-043956155dfb,D18,TOOK,TOOK.AOS.littoral2,2021-06-29T17:38Z,TOOK.OT.20210629,,Sample condition ok,TOOK.OT.20210629.POM.2,A00000305093,Sample condition ok,TOOK.OT.20210629.POM.1,A00000305077,"",750,750,,20211222T000314Z,PROVISIONAL
f8793542-cbe1-48ea-b99f-3ed970eb6e50,D18,TOOK,TOOK.AOS.littoral1,2021-06-29T18:29Z,TOOK.IN.20210629,,Sample condition ok,TOOK.IN.20210629.POM.2,A00000305092,Sample condition ok,TOOK.IN.20210629.POM.1,A00000305076,2021-06-29T21:00Z,750,750,,20211222T000314Z,PROVISIONAL
baa85f83-67c4-41f7-b9ff-0dac462994a8,D18,TOOK,TOOK.AOS.buoy.c1,2021-06-30T01:03Z,TOOK.C1.20210629,,Sample condition ok,TOOK.C1.20210629.POM.2,A00000305084,Sample condition ok,TOOK.C1.20210629.POM.1,A00000305099,2021-06-30T03:00Z,750,750,,20211222T000314Z,PROVISIONAL
f6fdfe0e-3450-4969-9b59-58d0f7e6ff15,D18,TOOK,TOOK.AOS.buoy.c2,2021-06-30T01:04Z,TOOK.C2.20210629,,Sample condition ok,TOOK.C2.20210629.POM.2,A00000305100,Sample condition ok,TOOK.C2.20210629.POM.1,A00000305083,"",500,500,,20211222T000314Z,PROVISIONAL
dc085700-1a8b-40f2-bfe5-de10d9c873ac,D18,TOOK,TOOK.AOS.buoy.c1,2021-07-06T17:39Z,TOOK.C1.20210706,,Sample condition ok,TOOK.C1.20210706.POM.2,A00000305159,Sample condition ok,TOOK.C1.20210706.POM.1,A00000305199,2021-07-06T22:31Z,500,500,,20220125T175727Z,PROVISIONAL
69256c58-9828-4f55-a71f-976404cb5784,D18,TOOK,TOOK.AOS.buoy.c2,2021-07-06T18:00Z,TOOK.C2.20210706,,Sample condition ok,TOOK.C2.20210706.POM.2,A00000305154,Sample condition ok,TOOK.C2.20210706.POM.1,A00000305155,2021-07-06T22:32Z,500,500,,20220125T175727Z,PROVISIONAL
7891139a-3c26-410a-ac62-c9cb9da39f3c,D18,TOOK,TOOK.AOS.littoral2,2021-07-06T19:20Z,TOOK.OT.20210706,,Sample condition ok,TOOK.OT.20210706.POM.2,A00000305174,Sample condition ok,TOOK.OT.20210706.POM.1,A00000305175,2021-07-06T22:24Z,500,500,,20220125T175727Z,PROVISIONAL
57bb2eb8-318b-432d-a28e-b42378400f40,D18,TOOK,TOOK.AOS.littoral1,2021-07-06T19:35Z,TOOK.IN.20210706,,Sample condition ok,TOOK.IN.20210706.POM.2,A00000305171,Sample condition ok,TOOK.IN.20210706.POM.1,A00000305208,2021-07-06T22:28Z,500,500,,20220125T175727Z,PROVISIONAL
9cfc3dc5-f940-4aec-9073-e5f777467fca,D18,TOOK,TOOK.AOS.littoral2,2021-08-10T18:05Z,TOOK.OT.20210810,,Sample condition ok,TOOK.OT.20210810.POM.2,A00000305560,Sample condition ok,TOOK.OT.20210810.POM.1,A00000305576,2021-08-10T22:05Z,500,500,,20220125T180423Z,PROVISIONAL
7fb4b140-2a50-429a-a8c9-ee52b5e3e513,D18,TOOK,TOOK.AOS.buoy.c1,2021-08-10T18:40Z,TOOK.C1.20210810,,Sample condition ok,TOOK.C1.20210810.POM.2,A00000305593,Sample condition ok,TOOK.C1.20210810.POM.1,A00000305609,2021-08-10T22:08Z,500,500,,20220125T180423Z,PROVISIONAL
c96c67cb-5998-4020-9463-ced34bb00105,D18,TOOK,TOOK.AOS.buoy.c2,2021-08-10T18:54Z,TOOK.C2.20210810,,Sample condition ok,TOOK.C2.20210810.POM.2,A00000305625,Sample condition ok,TOOK.C2.20210810.POM.1,A00000305544,2021-08-10T22:11Z,500,500,,20220125T180423Z,PROVISIONAL
63370f0f-3578-4343-8589-f878a8de7ad2,D18,TOOK,TOOK.AOS.littoral1,2021-08-10T19:30Z,TOOK.IN.20210810,,Sample condition ok,TOOK.IN.20210810.POM.2,A00000305574,Sample condition ok,TOOK.IN.20210810.POM.1,A00000305558,2021-08-10T19:30Z,750,750,,20220125T180423Z,PROVISIONAL
e8488ab2-813b-4f0a-a10d-3ec2514e458c,D18,TOOK,TOOK.AOS.buoy.c0,2021-09-06T18:33Z,TOOK.C0.20210906,,Sample condition ok,TOOK.C0.20210906.POM.2,A00000305752,Sample condition ok,TOOK.C0.20210906.POM.1,A00000305751,,500,500,,20211221T200416Z,PROVISIONAL
b539b007-28b4-4418-b090-a645cbfe60db,D18,TOOK,TOOK.AOS.littoral2,2021-09-06T18:53Z,TOOK.OT.20210906,,Sample condition ok,TOOK.OT.20210906.POM.2,A00000305732,Sample condition ok,TOOK.OT.20210906.POM.1,A00000305733,,500,500,,20211221T200416Z,PROVISIONAL
f4479b32-a36f-43fe-b8f2-2b281b7872b7,D18,TOOK,TOOK.AOS.littoral1,2021-09-06T19:28Z,TOOK.IN.20210906,,Sample condition ok,TOOK.IN.20210906.POM.2,A00000305734,Sample condition ok,TOOK.IN.20210906.POM.1,A00000305735,,500,500,,20211221T200416Z,PROVISIONAL
fae3963d-c9db-4cce-8bc5-1121168a1087,D18,TOOK,TOOK.AOS.littoral1,2021-10-03T18:42Z,TOOK.IN.20211003,,Sample condition ok,TOOK.IN.20211003.POM.2,A00000306007,Sample condition ok,TOOK.IN.20211003.POM.1,A00000306008,"",500,500,,20220112T211400Z,PROVISIONAL
63bca7ae-a653-45c7-9fe3-6e73d94c3380,D18,TOOK,TOOK.AOS.littoral2,2021-10-03T20:42Z,TOOK.OT.20211003,,Sample condition ok,TOOK.OT.20211003.POM.2,A00000306003,Sample condition ok,TOOK.OT.20211003.POM.1,A00000306005,2021-10-03T23:41Z,500,500,,20220112T211400Z,PROVISIONAL
d213a0d2-8616-4d8c-a6f8-e85d8c9a431f,D18,TOOK,TOOK.AOS.buoy.c0,2021-11-08T21:00Z,TOOK.C0.20211108,,Sample condition ok,TOOK.C0.20211108.POM.2,A00000304988,Sample condition ok,TOOK.C0.20211108.POM.1,A00000304972,,500,500,,20220125T180447Z,PROVISIONAL
